{
"type": "FeatureCollection",
"xy_coordinate_resolution": 1e-06,
"features": [
{"type":"Feature","properties":{"nome":"Ibicoara 1","situacao":"Planejada","fase":"DRO","pot_mw":15.0,"municipio":"Ibicoara","proprietar":"Bondia Energia Ltda.","ini_oper":null,"ceg":"UFVRSBA033824-9-01","ato_legal":"DSP 1905/2015, DSP 1576/2014"},"geometry":{"type":"Point","coordinates":[-41.37905,-13.440061]}},
{"type":"Feature","properties":{"nome":"Ibicoara 2","situacao":"Planejada","fase":"DRO","pot_mw":30.0,"municipio":"Ibicoara","proprietar":"Bondia Energia Ltda.","ini_oper":null,"ceg":"UFVRSBA033822-2-01","ato_legal":"DSP 1906/2015, DSP 1576/2014"},"geometry":{"type":"Point","coordinates":[-41.380894,-13.428917]}},
{"type":"Feature","properties":{"nome":"Ibicoara 3","situacao":"Planejada","fase":"DRO","pot_mw":30.0,"municipio":"Ibicoara","proprietar":"Bondia Energia Ltda.","ini_oper":null,"ceg":"UFVRSBA033825-7-01","ato_legal":"DSP 1907/2015, DSP 1576/2014"},"geometry":{"type":"Point","coordinates":[-41.382644,-13.433567]}},
{"type":"Feature","properties":{"nome":"Ibicoara 4","situacao":"Planejada","fase":"DRO","pot_mw":30.0,"municipio":"Ibicoara","proprietar":"Bondia Energia Ltda.","ini_oper":null,"ceg":"UFVRSBA033823-0-01","ato_legal":"DSP 1908/2015, DSP 1576/2014"},"geometry":{"type":"Point","coordinates":[-41.383964,-13.437483]}},
{"type":"Feature","properties":{"nome":"Ferro Doido I","situacao":"Planejada","fase":"DRO","pot_mw":31.2,"municipio":"Morro do Chapéu","proprietar":"PWE Empreendimentos SPE Ltda.","ini_oper":null,"ceg":"UFVRSBA034496-6-01","ato_legal":"DSP 2679/2015"},"geometry":{"type":"Point","coordinates":[-41.426176,-11.5884]}},
{"type":"Feature","properties":{"nome":"Fótons de São Marino 01","situacao":"Planejada","fase":"DRO","pot_mw":50.0,"municipio":"Ibitiara","proprietar":"Fótons de São Marino Energias Renováveis S.A.","ini_oper":null,"ceg":"UFVRSBA050141-7-01","ato_legal":"DSP 115/2021"},"geometry":{"type":"Point","coordinates":[-42.043116,-12.685078]}},
{"type":"Feature","properties":{"nome":"Fótons de São Marino 02","situacao":"Planejada","fase":"DRO","pot_mw":50.0,"municipio":"Ibitiara","proprietar":"Fótons de São Marino Energias Renováveis S.A.","ini_oper":null,"ceg":"UFVRSBA050142-5-01","ato_legal":"DSP 115/2021"},"geometry":{"type":"Point","coordinates":[-42.042647,-12.69529]}},
{"type":"Feature","properties":{"nome":"Fótons de São Marino 03","situacao":"Planejada","fase":"DRO","pot_mw":50.0,"municipio":"Ibitiara","proprietar":"Fótons de São Marino Energias Renováveis S.A.","ini_oper":null,"ceg":"UFVRSBA050143-3-01","ato_legal":"DSP 115/2021"},"geometry":{"type":"Point","coordinates":[-42.037183,-12.702945]}},
{"type":"Feature","properties":{"nome":"Fótons de São Marino 04","situacao":"Planejada","fase":"DRO","pot_mw":50.0,"municipio":"Ibitiara","proprietar":"Fótons de São Marino Energias Renováveis S.A.","ini_oper":null,"ceg":"UFVRSBA050144-1-01","ato_legal":"DSP 115/2021"},"geometry":{"type":"Point","coordinates":[-42.035464,-12.715096]}},
{"type":"Feature","properties":{"nome":"Fótons de São Marino 05","situacao":"Planejada","fase":"DRO","pot_mw":50.0,"municipio":"Novo Horizonte","proprietar":"Fótons de São Marino Energias Renováveis S.A.","ini_oper":null,"ceg":"UFVRSBA050145-0-01","ato_legal":"DSP 115/2021"},"geometry":{"type":"Point","coordinates":[-42.029594,-12.725906]}},
{"type":"Feature","properties":{"nome":"Fótons de São Marino 06","situacao":"Planejada","fase":"DRO","pot_mw":50.0,"municipio":"Novo Horizonte","proprietar":"Fótons de São Marino Energias Renováveis S.A.","ini_oper":null,"ceg":"UFVRSBA050146-8-01","ato_legal":"DSP 115/2021"},"geometry":{"type":"Point","coordinates":[-42.026963,-12.73356]}},
{"type":"Feature","properties":{"nome":"Fótons de São Marino 07","situacao":"Planejada","fase":"DRO","pot_mw":50.0,"municipio":"Novo Horizonte","proprietar":"Fótons de São Marino Energias Renováveis S.A.","ini_oper":null,"ceg":"UFVRSBA050147-6-01","ato_legal":"DSP 115/2021"},"geometry":{"type":"Point","coordinates":[-42.025546,-12.741214]}},
{"type":"Feature","properties":{"nome":"Fótons de São Marino 08","situacao":"Planejada","fase":"DRO","pot_mw":50.0,"municipio":"Boninal","proprietar":"Fótons de São Marino Energias Renováveis S.A.","ini_oper":null,"ceg":"UFVRSBA050148-4-01","ato_legal":"DSP 115/2021"},"geometry":{"type":"Point","coordinates":[-42.022813,-12.751419]}},
{"type":"Feature","properties":{"nome":"Capim Dourado 1","situacao":"Planejada","fase":"DRO","pot_mw":47.25,"municipio":"Mucugê","proprietar":"Quinto Energy Ltda.","ini_oper":null,"ceg":"UFVRSBA050821-7-01","ato_legal":"DSP 660/2021"},"geometry":{"type":"Point","coordinates":[-41.563086,-13.171053]}},
{"type":"Feature","properties":{"nome":"Capim Dourado 2","situacao":"Planejada","fase":"DRO","pot_mw":47.25,"municipio":"Mucugê","proprietar":"Quinto Energy Ltda.","ini_oper":null,"ceg":"UFVRSBA050822-5-01","ato_legal":"DSP 660/2021"},"geometry":{"type":"Point","coordinates":[-41.561969,-13.174489]}},
{"type":"Feature","properties":{"nome":"Citrino 1","situacao":"Planejada","fase":"DRO","pot_mw":50.0,"municipio":"Morro do Chapéu","proprietar":"EGF Empresa de Geração de Energia Fotovoltaica 3 Ltda.","ini_oper":null,"ceg":"UFVRSBA051714-3-01","ato_legal":"DSP 991/2021"},"geometry":{"type":"Point","coordinates":[-41.529978,-10.860489]}},
{"type":"Feature","properties":{"nome":"Citrino 2","situacao":"Planejada","fase":"DRO","pot_mw":50.0,"municipio":"Morro do Chapéu","proprietar":"EGF Empresa de Geração de Energia Fotovoltaica 3 Ltda.","ini_oper":null,"ceg":"UFVRSBA051715-1-01","ato_legal":"DSP 991/2021"},"geometry":{"type":"Point","coordinates":[-41.538075,-10.862364]}},
{"type":"Feature","properties":{"nome":"Citrino 3","situacao":"Planejada","fase":"DRO","pot_mw":50.0,"municipio":"Morro do Chapéu","proprietar":"EGF Empresa de Geração de Energia Fotovoltaica 3 Ltda.","ini_oper":null,"ceg":"UFVRSBA051717-8-01","ato_legal":"DSP 991/2021"},"geometry":{"type":"Point","coordinates":[-41.546214,-10.864711]}},
{"type":"Feature","properties":{"nome":"Citrino 4","situacao":"Planejada","fase":"DRO","pot_mw":50.0,"municipio":"Morro do Chapéu","proprietar":"EGF Empresa de Geração de Energia Fotovoltaica 3 Ltda.","ini_oper":null,"ceg":"UFVRSBA051719-4-01","ato_legal":"DSP 991/2021"},"geometry":{"type":"Point","coordinates":[-41.555422,-10.866197]}},
{"type":"Feature","properties":{"nome":"Citrino 5","situacao":"Planejada","fase":"DRO","pot_mw":50.0,"municipio":"Morro do Chapéu","proprietar":"EGF Empresa de Geração de Energia Fotovoltaica 3 Ltda.","ini_oper":null,"ceg":"UFVRSBA051720-8-01","ato_legal":"DSP 991/2021"},"geometry":{"type":"Point","coordinates":[-41.563792,-10.853983]}},
{"type":"Feature","properties":{"nome":"Citrino 6","situacao":"Planejada","fase":"DRO","pot_mw":50.0,"municipio":"Morro do Chapéu","proprietar":"EGF Empresa de Geração de Energia Fotovoltaica 3 Ltda.","ini_oper":null,"ceg":"UFVRSBA051721-6-01","ato_legal":"DSP 991/2021"},"geometry":{"type":"Point","coordinates":[-41.554636,-10.849169]}},
{"type":"Feature","properties":{"nome":"Citrino 7","situacao":"Planejada","fase":"DRO","pot_mw":50.0,"municipio":"Morro do Chapéu","proprietar":"EGF Empresa de Geração de Energia Fotovoltaica 3 Ltda.","ini_oper":null,"ceg":"UFVRSBA051722-4-01","ato_legal":"DSP 991/2021"},"geometry":{"type":"Point","coordinates":[-41.550706,-10.844722]}},
{"type":"Feature","properties":{"nome":"Citrino 8","situacao":"Planejada","fase":"DRO","pot_mw":50.0,"municipio":"Morro do Chapéu","proprietar":"EGF Empresa de Geração de Energia Fotovoltaica 3 Ltda.","ini_oper":null,"ceg":"UFVRSBA051723-2-01","ato_legal":"DSP 991/2021"},"geometry":{"type":"Point","coordinates":[-41.5255,-10.843222]}},
{"type":"Feature","properties":{"nome":"Citrino 9","situacao":"Planejada","fase":"DRO","pot_mw":50.0,"municipio":"Morro do Chapéu","proprietar":"EGF Empresa de Geração de Energia Fotovoltaica 3 Ltda.","ini_oper":null,"ceg":"UFVRSBA051724-0-01","ato_legal":"DSP 991/2021"},"geometry":{"type":"Point","coordinates":[-41.53395,-10.836203]}},
{"type":"Feature","properties":{"nome":"Citrino 10","situacao":"Planejada","fase":"DRO","pot_mw":50.0,"municipio":"Morro do Chapéu","proprietar":"EGF Empresa de Geração de Energia Fotovoltaica 3 Ltda.","ini_oper":null,"ceg":"UFVRSBA051725-9-01","ato_legal":"DSP 991/2021"},"geometry":{"type":"Point","coordinates":[-41.571819,-10.840372]}},
{"type":"Feature","properties":{"nome":"Citrino 11","situacao":"Planejada","fase":"DRO","pot_mw":50.0,"municipio":"Morro do Chapéu","proprietar":"EGF Empresa de Geração de Energia Fotovoltaica 3 Ltda.","ini_oper":null,"ceg":"UFVRSBA051726-7-01","ato_legal":"DSP 991/2021"},"geometry":{"type":"Point","coordinates":[-41.580939,-10.852756]}},
{"type":"Feature","properties":{"nome":"Fótons de Santa Larissa 01","situacao":"Em operação","fase":"Operação","pot_mw":49.995,"municipio":"Morro do Chapéu","proprietar":"Fótons de Santa Lavínia Energias Renováveis S.A","ini_oper":"12/03/2026","ceg":"UFVRSBA049855-6-01","ato_legal":"DSP 788/2026, DSP 2841/2025, PRT 3001/2025, DSP 1459/2025, DSP 3195/2024, DSP 2269/2024, DSP 3993/2023, PRT 2517/2023, DSP 1782/2023, REA 12524/2022, DSP 2051/2021, DSP 987/2021, DSP 988/2021, DSP 358"},"geometry":{"type":"Point","coordinates":[-41.358136,-10.933333]}},
{"type":"Feature","properties":{"nome":"Fótons de Santa Larissa 02","situacao":"Em operação","fase":"Operação","pot_mw":49.995,"municipio":"Morro do Chapéu","proprietar":"Fótons de Santa Liduína Energias Renováveis S.A","ini_oper":"12/03/2026","ceg":"UFVRSBA049856-4-01","ato_legal":"DSP 790/2026, DSP 2991/2025, PRT 3001/2025, DSP 1459/2025, DSP 3195/2024, DSP 2269/2024, DSP 3993/2023, PRT 2517/2023, DSP 1782/2023, REA 12525/2022, DSP 2051/2021, DSP 987/2021, DSP 988/2021, DSP 358"},"geometry":{"type":"Point","coordinates":[-41.359564,-10.94855]}},
{"type":"Feature","properties":{"nome":"Fótons de Santa Larissa 03","situacao":"Em operação","fase":"Operação","pot_mw":49.995,"municipio":"Morro do Chapéu","proprietar":"Fótons de Santa Loma Energias Renováveis S.A","ini_oper":"12/03/2026","ceg":"UFVRSBA049857-2-01","ato_legal":"DSP 789/2026, DSP 3134/2025, PRT 3001/2025, DSP 1459/2025, DSP 3195/2024, DSP 2269/2024, DSP 3993/2023, PRT 2517/2023, DSP 1782/2023, REA 12526/2022, DSP 2051/2021, DSP 987/2021, DSP 988/2021, DSP 358"},"geometry":{"type":"Point","coordinates":[-41.353286,-10.964028]}},
{"type":"Feature","properties":{"nome":"Fótons de Santa Larissa 04","situacao":"Em operação","fase":"Operação","pot_mw":49.995,"municipio":"Morro do Chapéu","proprietar":"Fótons de Santa Larissa Energias Renováveis S.A","ini_oper":"12/03/2026","ceg":"UFVRSBA049858-0-01","ato_legal":"DSP 787/2026, DSP 3455/2025, PRT 3001/2025, DSP 1459/2025, DSP 3195/2024, DSP 2269/2024, DSP 3993/2023, PRT 2517/2023, REA 12527/2022, DSP 2051/2021, DSP 987/2021, DSP 988/2021, DSP 3580/2020"},"geometry":{"type":"Point","coordinates":[-41.348347,-10.956419]}},
{"type":"Feature","properties":{"nome":"Fótons de Santa Larissa 05","situacao":"Planejada","fase":"Construção não iniciada","pot_mw":49.995,"municipio":"Morro do Chapéu","proprietar":"Fótons de Santa Larissa Energias Renováveis S/A","ini_oper":null,"ceg":"UFVRSBA049859-9-01","ato_legal":"PRT 2517/2023, DSP 1782/202, REA 12528/2022, DSP 2051/2021, DSP 988/2021, DSP 987/2021, DSP 3580/2020"},"geometry":{"type":"Point","coordinates":[-41.352952,-10.951497]}},
{"type":"Feature","properties":{"nome":"Fótons de Santa Larissa 06","situacao":"Planejada","fase":"Construção não iniciada","pot_mw":49.995,"municipio":"Morro do Chapéu","proprietar":"Fótons de Santa Larissa Energias Renováveis S/A","ini_oper":null,"ceg":"UFVRSBA049860-2-01","ato_legal":"PRT 2517/2023, DSP 1782/2023, REA 12529/2022, DSP 2051/2021, DSP 988/2021, DSP 987/2021, DSP 3580/2020"},"geometry":{"type":"Point","coordinates":[-41.346703,-10.946421]}},
{"type":"Feature","properties":{"nome":"Fótons de Santa Larissa 07","situacao":"Planejada","fase":"Construção não iniciada","pot_mw":49.995,"municipio":"Morro do Chapéu","proprietar":"Fótons de Santa Larissa Energias Renováveis S/A","ini_oper":null,"ceg":"UFVRSBA049861-0-01","ato_legal":"PRT 2517/2023, DSP 1782/2023, REA 12530/2022, DSP 2051/2021, DSP 988/2021, DSP 987/2021, DSP 3580/2020"},"geometry":{"type":"Point","coordinates":[-41.346041,-10.941348]}},
{"type":"Feature","properties":{"nome":"Fótons de Santa Larissa 08","situacao":"Planejada","fase":"Construção não iniciada","pot_mw":49.995,"municipio":"Morro do Chapéu","proprietar":"Fótons de Santa Larissa Energias Renováveis S/A","ini_oper":null,"ceg":"UFVRSBA049862-9-01","ato_legal":"PRT 2517/2023, DSP 1782/2023, REA 12531/2022, DSP 2051/2021, DSP 988/2021, DSP 987/2021, DSP 3580/2020"},"geometry":{"type":"Point","coordinates":[-41.33748,-10.93882]}},
{"type":"Feature","properties":{"nome":"Morro do Chapéu Solar 03","situacao":"Planejada","fase":"DRO","pot_mw":43.032,"municipio":"Cafarnaum","proprietar":"Enel Green Power Brasil Participações Ltda.","ini_oper":null,"ceg":"UFVRSBA053610-5-01","ato_legal":"DSP 1863/2021"},"geometry":{"type":"Point","coordinates":[-41.410742,-11.658444]}},
{"type":"Feature","properties":{"nome":"SDB Solar 1 (Antiga - P. Solar I)","situacao":"Em operação","fase":"Operação","pot_mw":33.0,"municipio":"Morro do Chapéu","proprietar":"Solar São Conrado Iv S.A.","ini_oper":"03/12/2025","ceg":"UFVRSBA053502-8-01","ato_legal":"DSP 3550/2025, DSP 1904/2025, DSP 1346/2025, PRT 2517/2023, DSP 3127/2022, REA 12941/2022, DSP 1650/2021"},"geometry":{"type":"Point","coordinates":[-41.335747,-11.137411]}},
{"type":"Feature","properties":{"nome":"SDB Solar 2 (Antiga - P. Solar II)","situacao":"Em operação","fase":"Operação","pot_mw":33.0,"municipio":"Morro do Chapéu","proprietar":"Solar Sao Conrado V S.A.","ini_oper":"03/12/2025","ceg":"UFVRSBA053503-6-01","ato_legal":"DSP 3551/2025, DSP 1905/2025, DSP 1346/2025, PRT 2517/2023, DSP 3127/2022, REA 12942/2022, DSP 1650/2021"},"geometry":{"type":"Point","coordinates":[-41.337997,-11.147642]}},
{"type":"Feature","properties":{"nome":"SDB Solar 3 (Antiga - P. Solar III)","situacao":"Em operação","fase":"Operação","pot_mw":33.0,"municipio":"Morro do Chapéu","proprietar":"Solar Sao Conrado Vi S.A.","ini_oper":"03/12/2025","ceg":"UFVRSBA053504-4-01","ato_legal":"DSP 3552/2025, DSP 1906/2025, DSP 1346/2025, PRT 2517/2023, DSP 3127/2022, REA 12943/2022, DSP 1650/2021"},"geometry":{"type":"Point","coordinates":[-41.3395,-11.15335]}},
{"type":"Feature","properties":{"nome":"SDB Solar 4 (Antiga - P. Solar IV)","situacao":"Em operação","fase":"Operação","pot_mw":24.0,"municipio":"Morro do Chapéu","proprietar":"Solar Sao Conrado Vii S.A.","ini_oper":"03/12/2025","ceg":"UFVRSBA053505-2-01","ato_legal":"DSP 3553/2025, DSP 1931/2025, DSP 1346/2025, PRT 2517/2023, DSP 3127/2022, REA 12944/2022, DSP 1650/2021"},"geometry":{"type":"Point","coordinates":[-41.327072,-11.140822]}},
{"type":"Feature","properties":{"nome":"Sol da Bahia 01","situacao":"Planejada","fase":"DRO","pot_mw":30.0,"municipio":"Bonito","proprietar":"Central Geradora Fotovoltaica Cruz Alta Ltda.","ini_oper":null,"ceg":"UFVRSBA053562-1-01","ato_legal":"DSP 1715/2021"},"geometry":{"type":"Point","coordinates":[-41.451344,-11.967468]}},
{"type":"Feature","properties":{"nome":"Sol da Bahia 02","situacao":"Planejada","fase":"DRO","pot_mw":30.0,"municipio":"Bonito","proprietar":"Central Geradora Fotovoltaica Cruz Alta Ltda.","ini_oper":null,"ceg":"UFVRSBA053563-0-01","ato_legal":"DSP 1715/2021"},"geometry":{"type":"Point","coordinates":[-41.454298,-11.971975]}},
{"type":"Feature","properties":{"nome":"Sol da Bahia 03","situacao":"Planejada","fase":"DRO","pot_mw":30.0,"municipio":"Bonito","proprietar":"Central Geradora Fotovoltaica Cruz Alta Ltda.","ini_oper":null,"ceg":"UFVRSBA053564-8-01","ato_legal":"DSP 1715/2021"},"geometry":{"type":"Point","coordinates":[-41.451313,-11.974557]}},
{"type":"Feature","properties":{"nome":"SDB Solar 1","situacao":"Planejada","fase":"DRO","pot_mw":24.0,"municipio":"Morro do Chapéu","proprietar":"São Conrado Geração de Energia e Participações S.A.","ini_oper":null,"ceg":"UFVRSBA056868-6-01","ato_legal":"DSP 3567/2021"},"geometry":{"type":"Point","coordinates":[-41.322736,-11.087394]}},
{"type":"Feature","properties":{"nome":"SDB Solar 2","situacao":"Planejada","fase":"DRO","pot_mw":24.0,"municipio":"Morro do Chapéu","proprietar":"São Conrado Geração de Energia e Participações S.A.","ini_oper":null,"ceg":"UFVRSBA056869-4-01","ato_legal":"DSP 3567/2021"},"geometry":{"type":"Point","coordinates":[-41.322889,-11.093675]}},
{"type":"Feature","properties":{"nome":"SDB Solar 3","situacao":"Planejada","fase":"DRO","pot_mw":24.0,"municipio":"Morro do Chapéu","proprietar":"São Conrado Geração de Energia e Participações S.A.","ini_oper":null,"ceg":"UFVRSBA056870-8-01","ato_legal":"DSP 3567/2021"},"geometry":{"type":"Point","coordinates":[-41.323142,-11.101731]}},
{"type":"Feature","properties":{"nome":"SDB Solar 4","situacao":"Planejada","fase":"DRO","pot_mw":24.0,"municipio":"Morro do Chapéu","proprietar":"São Conrado Geração de Energia e Participações S.A.","ini_oper":null,"ceg":"UFVRSBA056871-6-01","ato_legal":"DSP 3567/2021"},"geometry":{"type":"Point","coordinates":[-41.323336,-11.107178]}},
{"type":"Feature","properties":{"nome":"SDB Solar 5","situacao":"Planejada","fase":"DRO","pot_mw":24.0,"municipio":"Morro do Chapéu","proprietar":"São Conrado Geração de Energia e Participações S.A.","ini_oper":null,"ceg":"UFVRSBA056872-4-01","ato_legal":"DSP 3567/2021"},"geometry":{"type":"Point","coordinates":[-41.313789,-11.10515]}},
{"type":"Feature","properties":{"nome":"SDB Solar 6","situacao":"Planejada","fase":"DRO","pot_mw":24.0,"municipio":"Morro do Chapéu","proprietar":"São Conrado Geração de Energia e Participações S.A.","ini_oper":null,"ceg":"UFVRSBA056873-2-01","ato_legal":"DSP 3567/2021"},"geometry":{"type":"Point","coordinates":[-41.313672,-11.098936]}},
{"type":"Feature","properties":{"nome":"Mandacaru I","situacao":"Planejada","fase":"DRO","pot_mw":30.0,"municipio":"Morro do Chapéu","proprietar":"Painitec Energia I SPE Ltda.","ini_oper":null,"ceg":"UFVRSBA066019-1-01","ato_legal":"DSP 2068/2022"},"geometry":{"type":"Point","coordinates":[-41.284286,-11.652742]}},
{"type":"Feature","properties":{"nome":"Mandacaru II","situacao":"Planejada","fase":"DRO","pot_mw":30.0,"municipio":"Morro do Chapéu","proprietar":"Painitec Energia I SPE Ltda.","ini_oper":null,"ceg":"UFVRSBA066020-5-01","ato_legal":"DSP 2068/2022"},"geometry":{"type":"Point","coordinates":[-41.284525,-11.655061]}},
{"type":"Feature","properties":{"nome":"Mandacaru III","situacao":"Planejada","fase":"DRO","pot_mw":30.0,"municipio":"Morro do Chapéu","proprietar":"Painitec Energia I SPE Ltda.","ini_oper":null,"ceg":"UFVRSBA066021-3-01","ato_legal":"DSP 2068/2022"},"geometry":{"type":"Point","coordinates":[-41.284769,-11.657067]}},
{"type":"Feature","properties":{"nome":"Mandacaru IV","situacao":"Planejada","fase":"DRO","pot_mw":30.0,"municipio":"Morro do Chapéu","proprietar":"Painitec Energia I SPE Ltda.","ini_oper":null,"ceg":"UFVRSBA066022-1-01","ato_legal":"DSP 2068/2022"},"geometry":{"type":"Point","coordinates":[-41.294847,-11.659417]}},
{"type":"Feature","properties":{"nome":"Mandacaru V","situacao":"Planejada","fase":"DRO","pot_mw":30.0,"municipio":"Morro do Chapéu","proprietar":"Painitec Energia I SPE Ltda.","ini_oper":null,"ceg":"UFVRSBA066023-0-01","ato_legal":"DSP 2068/2022"},"geometry":{"type":"Point","coordinates":[-41.284025,-11.65905]}},
{"type":"Feature","properties":{"nome":"Mandacaru VI","situacao":"Planejada","fase":"DRO","pot_mw":30.0,"municipio":"Morro do Chapéu","proprietar":"Painitec Energia I SPE Ltda.","ini_oper":null,"ceg":"UFVRSBA066024-8-01","ato_legal":"DSP 2068/2022"},"geometry":{"type":"Point","coordinates":[-41.292969,-11.662947]}},
{"type":"Feature","properties":{"nome":"Mandacaru VII","situacao":"Planejada","fase":"DRO","pot_mw":30.0,"municipio":"Morro do Chapéu","proprietar":"Painitec Energia I SPE Ltda.","ini_oper":null,"ceg":"UFVRSBA066025-6-01","ato_legal":"DSP 2068/2022"},"geometry":{"type":"Point","coordinates":[-41.286611,-11.664642]}},
{"type":"Feature","properties":{"nome":"Mandacaru VIII","situacao":"Planejada","fase":"DRO","pot_mw":30.0,"municipio":"Morro do Chapéu","proprietar":"Painitec Energia I SPE Ltda.","ini_oper":null,"ceg":"UFVRSBA066026-4-01","ato_legal":"DSP 2068/2022"},"geometry":{"type":"Point","coordinates":[-41.280853,-11.662203]}},
{"type":"Feature","properties":{"nome":"Mandacaru IX","situacao":"Planejada","fase":"DRO","pot_mw":30.0,"municipio":"Morro do Chapéu","proprietar":"Painitec Energia I SPE Ltda.","ini_oper":null,"ceg":"UFVRSBA066027-2-01","ato_legal":"DSP 2068/2022"},"geometry":{"type":"Point","coordinates":[-41.280181,-11.666628]}},
{"type":"Feature","properties":{"nome":"Mandacaru X","situacao":"Planejada","fase":"DRO","pot_mw":30.0,"municipio":"Morro do Chapéu","proprietar":"Painitec Energia I SPE Ltda.","ini_oper":null,"ceg":"UFVRSBA066028-0-01","ato_legal":"DSP 2068/2022"},"geometry":{"type":"Point","coordinates":[-41.275169,-11.662511]}},
{"type":"Feature","properties":{"nome":"Mandacaru XI","situacao":"Planejada","fase":"DRO","pot_mw":30.0,"municipio":"Morro do Chapéu","proprietar":"Painitec Energia I SPE Ltda.","ini_oper":null,"ceg":"UFVRSBA066029-9-01","ato_legal":"DSP 2068/2022"},"geometry":{"type":"Point","coordinates":[-41.269219,-11.656972]}},
{"type":"Feature","properties":{"nome":"Mandacaru XII","situacao":"Planejada","fase":"DRO","pot_mw":30.0,"municipio":"Morro do Chapéu","proprietar":"Painitec Energia I SPE Ltda.","ini_oper":null,"ceg":"UFVRSBA066030-2-01","ato_legal":"DSP 2068/2022"},"geometry":{"type":"Point","coordinates":[-41.2699,-11.662769]}},
{"type":"Feature","properties":{"nome":"Nordeste Solar I","situacao":"Planejada","fase":"DRO","pot_mw":30.0,"municipio":"Morro do Chapéu","proprietar":"Painitec Energia VI SPE Ltda.","ini_oper":null,"ceg":"UFVRSBA066004- 3-01","ato_legal":"DSP 2068/2022"},"geometry":{"type":"Point","coordinates":[-41.264158,-11.656561]}},
{"type":"Feature","properties":{"nome":"Nordeste Solar II","situacao":"Planejada","fase":"DRO","pot_mw":30.0,"municipio":"Morro do Chapéu","proprietar":"Painitec Energia VI SPE Ltda.","ini_oper":null,"ceg":"UFVRSBA066005- 1-01","ato_legal":"DSP 2068/2022"},"geometry":{"type":"Point","coordinates":[-41.257692,-11.657311]}},
{"type":"Feature","properties":{"nome":"Nordeste Solar III","situacao":"Planejada","fase":"DRO","pot_mw":30.0,"municipio":"Morro do Chapéu","proprietar":"Painitec Energia VI SPE Ltda.","ini_oper":null,"ceg":"UFVRSBA066006- 0-01","ato_legal":"DSP 2068/2022"},"geometry":{"type":"Point","coordinates":[-41.265125,-11.661667]}},
{"type":"Feature","properties":{"nome":"Nordeste Solar IV","situacao":"Planejada","fase":"DRO","pot_mw":30.0,"municipio":"Morro do Chapéu","proprietar":"Painitec Energia VI SPE Ltda.","ini_oper":null,"ceg":"UFVRSBA066007- 8-01","ato_legal":"DSP 2068/2022"},"geometry":{"type":"Point","coordinates":[-41.265267,-11.667558]}},
{"type":"Feature","properties":{"nome":"Nordeste Solar V","situacao":"Planejada","fase":"DRO","pot_mw":30.0,"municipio":"Morro do Chapéu","proprietar":"Painitec Energia VI SPE Ltda.","ini_oper":null,"ceg":"UFVRSBA066008- 6-01","ato_legal":"DSP 2068/2022"},"geometry":{"type":"Point","coordinates":[-41.256075,-11.660497]}},
{"type":"Feature","properties":{"nome":"Nordeste Solar VI","situacao":"Planejada","fase":"DRO","pot_mw":30.0,"municipio":"Morro do Chapéu","proprietar":"Painitec Energia VI SPE Ltda.","ini_oper":null,"ceg":"UFVRSBA066009- 4-01","ato_legal":"DSP 2068/2022"},"geometry":{"type":"Point","coordinates":[-41.257228,-11.663336]}},
{"type":"Feature","properties":{"nome":"Nordeste Solar VII","situacao":"Planejada","fase":"DRO","pot_mw":30.0,"municipio":"Morro do Chapéu","proprietar":"Painitec Energia VI SPE Ltda.","ini_oper":null,"ceg":"UFVRSBA066010- 8-01","ato_legal":"DSP 2068/2022"},"geometry":{"type":"Point","coordinates":[-41.260419,-11.668103]}},
{"type":"Feature","properties":{"nome":"Nordeste Solar VIII","situacao":"Planejada","fase":"DRO","pot_mw":30.0,"municipio":"Morro do Chapéu","proprietar":"Painitec Energia VI SPE Ltda.","ini_oper":null,"ceg":"UFVRSBA066011- 6-01","ato_legal":"DSP 2068/2022"},"geometry":{"type":"Point","coordinates":[-41.255003,-11.668542]}}
]
}
