{
"type": "FeatureCollection",
"xy_coordinate_resolution": 1e-06,
"features": [
{"type":"Feature","properties":{"nome":"Ventos de Santa Esperança 25","situacao":"Em operação","fase":"Operação","pot_mw":25.2,"n_aerog":6,"municipio":"Morro do Chapéu","proprietar":"Enel Green Power Ventos de Santa Esperança 25 S.A.","ini_oper":"31/12/2021","ceg":"EOLCVBA034513-0-01","ato_legal":"DSP 4205/2021, DSP 3837/2021, DSP 3730/2021, DSP 3675/2021, DSP 3600/2021, DSP 3514/2021, PRT 829/2021, DSP 3696/2020, PRT 11/2020, REA 8189/2019, DSP 2929/2018, DSP 1317/2018, DSP 113/2018, DSP 3214/"},"geometry":{"type":"Point","coordinates":[-41.330043,-11.559025]}},
{"type":"Feature","properties":{"nome":"Ventos de Santa Patrícia 12","situacao":"Planejada","fase":"Construção não iniciada","pot_mw":74.4,"n_aerog":12,"municipio":"Morro do Chapéu","proprietar":"Ventos de Santa Patrícia Energias Renováveis S/A","ini_oper":null,"ceg":"EOLCVBA066061-2-01","ato_legal":"DSP 2407/2023"},"geometry":{"type":"Point","coordinates":[-41.373164,-10.96879]}},
{"type":"Feature","properties":{"nome":"Ventos de Santa Patrícia 14","situacao":"Planejada","fase":"Construção não iniciada","pot_mw":74.4,"n_aerog":12,"municipio":"Morro do Chapéu","proprietar":"Ventos de Santa Patrícia Energias Renováveis S/A","ini_oper":null,"ceg":"EOLCVBA066063-9-01","ato_legal":"DSP 2409/2023"},"geometry":{"type":"Point","coordinates":[-41.378532,-10.952754]}},
{"type":"Feature","properties":{"nome":"Ventos de Santa Patrícia 13","situacao":"Planejada","fase":"Construção não iniciada","pot_mw":74.4,"n_aerog":12,"municipio":"Morro do Chapéu","proprietar":"Ventos de Santa Patrícia Energias Renováveis S/A","ini_oper":null,"ceg":"EOLCVBA066062-0-01","ato_legal":"DSP 2408/2023"},"geometry":{"type":"Point","coordinates":[-41.366061,-10.949652]}},
{"type":"Feature","properties":{"nome":"Ventos de Santa Esperança 22","situacao":"Em operação","fase":"Operação","pot_mw":46.2,"n_aerog":11,"municipio":"Morro do Chapéu","proprietar":"Enel Green Power Ventos de Santa Esperança 22 S.A","ini_oper":"30/12/2021","ceg":"EOLCVBA034512-1-01","ato_legal":"DSP 4176/2021, DSP 3513/2021, DSP 3459/2021, DSP 3415/2021, DSP 3379/2021, DSP 3299/2021, DSP 3232/2021, DSP 3127/2021, DSP 3085/2021, DSP 2960/2021, PRT 829/2021, REA 9630/2021, PRT 12/2020, REA 8188"},"geometry":{"type":"Point","coordinates":[-41.280067,-11.516939]}},
{"type":"Feature","properties":{"nome":"Ventos de Santa Esperança 21","situacao":"Em operação","fase":"Operação","pot_mw":46.2,"n_aerog":11,"municipio":"Morro do Chapéu","proprietar":"Enel Green Power Ventos de Santa Esperança 21 S.A","ini_oper":"13/11/2021","ceg":"EOLCVBA034511-3-01","ato_legal":"DSP 3749/2021, DSP 3642/2021, DSP 3414/2021, DSP 3378/2021, DSP 3298/2021, DSP 3231/2021, DSP 3156/2021, DSP 3089/2021, DSP 2961/2021, DSP 2960/2021, DSP 2866/2021, PRT 829/2021, REA 9629/2021, PRT 13"},"geometry":{"type":"Point","coordinates":[-41.291093,-11.499194]}},
{"type":"Feature","properties":{"nome":"NH 2","situacao":"Planejada","fase":"DRO","pot_mw":50.0,"n_aerog":null,"municipio":"Novo Horizonte","proprietar":"Saint Peter Central Geradora Eólica e Solar Spe Ltda","ini_oper":null,"ceg":"EOLCVBA074517-0","ato_legal":"DSP 2399/2024"},"geometry":{"type":"Point","coordinates":[-42.234192,-12.802612]}},
{"type":"Feature","properties":{"nome":"NH 4","situacao":"Planejada","fase":"DRO","pot_mw":50.0,"n_aerog":null,"municipio":"Novo Horizonte","proprietar":"Saint Peter Central Geradora Eólica e Solar Spe Ltda","ini_oper":null,"ceg":"EOLCVBA074519-7","ato_legal":"DSP 2399/2024"},"geometry":{"type":"Point","coordinates":[-42.216125,-12.86908]}},
{"type":"Feature","properties":{"nome":"Morro II-2","situacao":"Planejada","fase":"DRO","pot_mw":40.0,"n_aerog":null,"municipio":"Morro do Chapéu","proprietar":"Ventos Do Morro Do Chapéu Spe Ltda","ini_oper":null,"ceg":"EOLCVBA074590-1-01","ato_legal":"DSP 2430/2024"},"geometry":{"type":"Point","coordinates":[-41.202881,-11.228882]}},
{"type":"Feature","properties":{"nome":"Ventos de Santa Patrícia 10","situacao":"Planejada","fase":"Construção não iniciada","pot_mw":68.2,"n_aerog":11,"municipio":"Morro do Chapéu","proprietar":"Ventos de Santa Patrícia Energias Renováveis S/A","ini_oper":null,"ceg":"EOLCVBA049808-4-01","ato_legal":"DSP 3195/2024, DSP 2269/2024, DSP 662/2024, PRT 2698/2023, DSP 2405/2023, DSP 99/2022, DSP 3475/2020"},"geometry":{"type":"Point","coordinates":[-41.353977,-11.040304]}},
{"type":"Feature","properties":{"nome":"Ventos de Santa Patrícia 11","situacao":"Planejada","fase":"Construção não iniciada","pot_mw":62.0,"n_aerog":10,"municipio":"Morro do Chapéu","proprietar":"Ventos de Santa Patrícia Energias Renováveis S/A","ini_oper":null,"ceg":"EOLCVBA049809-2-01","ato_legal":"DSP 3195/2024, DSP 2269/2024, DSP 662/2024, PRT 2698/2023, DSP 2406/2023, DSP 99/2022, DSP 3475/2020"},"geometry":{"type":"Point","coordinates":[-41.378393,-10.991432]}},
{"type":"Feature","properties":{"nome":"Aroeira 6","situacao":"Em operação","fase":"Operação","pot_mw":38.7,"n_aerog":9,"municipio":"Morro do Chapéu","proprietar":"Enel Green Power Aroeira 06 S.A.","ini_oper":"19/12/2023","ceg":"EOLCVBA044951-2-01","ato_legal":"DSP 4970/2023, DSP 3414/2023, PRT 2294/2023, REA 13750/2023, PRT 1357/2022, PRT 945/2021, REA 10018/2021, DSP 3443/2020, DSP 753/2020, DSP 2141/2019"},"geometry":{"type":"Point","coordinates":[-41.530109,-10.766796]}},
{"type":"Feature","properties":{"nome":"Aroeira 3","situacao":"Em operação","fase":"Operação","pot_mw":43.0,"n_aerog":10,"municipio":"Morro do Chapéu","proprietar":"Enel Green Power Aroeira 03 S.A.","ini_oper":"21/12/2023","ceg":"EOLCVBA044948-2-01","ato_legal":"DSP 5053/2023, DSP 3411/2023, PRT 2294/2023, REA 13750/2023, PRT 1354/2022, PRT 942/2021, REA 10015/2021, DSP 3443/2020, DSP 753/2020, DSP 2141/2019"},"geometry":{"type":"Point","coordinates":[-41.451139,-10.827251]}},
{"type":"Feature","properties":{"nome":"Aroeira 4","situacao":"Em operação","fase":"Operação","pot_mw":43.0,"n_aerog":10,"municipio":"Morro do Chapéu","proprietar":"Enel Green Power Aroeira 04 S.A.","ini_oper":"23/12/2023","ceg":"EOLCVBA044949-0-01","ato_legal":"DSP 5085/2023, DSP 3412/2023, PRT 2294/2023, REA 13750/2023, PRT 1355/2022, PRT 943/2021, REA 10016/2021, DSP 3443/2020, DSP 753/2020, DSP 2141/2019"},"geometry":{"type":"Point","coordinates":[-41.486889,-10.818598]}},
{"type":"Feature","properties":{"nome":"Aroeira 1","situacao":"Em operação","fase":"Operação","pot_mw":47.3,"n_aerog":11,"municipio":"Morro do Chapéu","proprietar":"Enel Green Power Aroeira 01 S.A.","ini_oper":"20/12/2023","ceg":"EOLCVBA044940-7-01","ato_legal":"DSP 5020/2023, DSP 3409/2023, PRT 2294/2023, REA 13750/2023, PRT 1352/2022, PRT 940/2021, REA 10013/2021, DSP 3443/2020, DSP 753/2020, DSP 2141/2019"},"geometry":{"type":"Point","coordinates":[-41.442222,-10.786071]}},
{"type":"Feature","properties":{"nome":"Aroeira 5","situacao":"Em operação","fase":"Operação","pot_mw":43.0,"n_aerog":10,"municipio":"Morro do Chapéu","proprietar":"Enel Green Power Aroeira 05 S.A.","ini_oper":"20/12/2023","ceg":"EOLCVBA044950-4-01","ato_legal":"DSP 5022/2023, DSP 3413/2023, PRT 2294/2023, REA 13750/2023, PRT 1356/2022, PRT 944/2021, REA 10017/2021, DSP 3443/2020, DSP 753/2020, DSP 2141/2019"},"geometry":{"type":"Point","coordinates":[-41.493496,-10.785192]}},
{"type":"Feature","properties":{"nome":"Aroeira 7","situacao":"Em operação","fase":"Operação","pot_mw":47.3,"n_aerog":11,"municipio":"Morro do Chapéu","proprietar":"Enel Green Power Aroeira 07 S.A.","ini_oper":"19/12/2023","ceg":"EOLCVBA044952-0-01","ato_legal":"DSP 4971/2023, DSP 3415/2023, PRT 2294/2023, REA 13750/2023, PRT 1358/2022, PRT 946/2021, REA 10019/2021, DSP 3443/2020, DSP 753/2020, DSP 2141/2019"},"geometry":{"type":"Point","coordinates":[-41.498429,-10.759436]}},
{"type":"Feature","properties":{"nome":"Cristal","situacao":"Em operação","fase":"Operação","pot_mw":29.9,"n_aerog":13,"municipio":"Cafarnaum","proprietar":"Enel Green Power Cristalandia I Eólica S.A.","ini_oper":"10/11/2017","ceg":"EOLCVBA030727-0-01","ato_legal":"DSP 3778/2017, DSP 2594/2017, DSP 2477/2017, DSP 1404/2014, REA 4220/2013, DSP 931/2013, PRT 31/2012,PRT 031/2012,PRT 205/2011"},"geometry":{"type":"Point","coordinates":[-41.393384,-11.796463]}},
{"type":"Feature","properties":{"nome":"São Judas","situacao":"Em operação","fase":"Operação","pot_mw":29.9,"n_aerog":13,"municipio":"Morro do Chapéu","proprietar":"Enel Green Power São Judas Eólica S.A.","ini_oper":"01/12/2017","ceg":"EOLCVBA030725-4-01","ato_legal":"DSP 4041/2017, DSP 2596/2017, DSP 2477/2017, DSP 1164/2014, REA 4215/2013, PRT 28/2012,PRT 028/2012,PRT 315/2011"},"geometry":{"type":"Point","coordinates":[-41.362,-11.66425]}},
{"type":"Feature","properties":{"nome":"Ventos da Santa Dulce","situacao":"Em operação","fase":"Operação","pot_mw":28.0,"n_aerog":14,"municipio":"Morro do Chapéu","proprietar":"Enel Green Power Morro do Chapéu II Eólica S.A.","ini_oper":"29/06/2018","ceg":"EOLCVBA033648-3-01","ato_legal":"DSP 1424/2018, DSP 170/2018, PRT 224/2016, DSP 1983/2016, PRT 323/2015,PRT 1089/2021,PRT 143/2016,PRT 1851/2022"},"geometry":{"type":"Point","coordinates":[-41.339426,-11.598539]}},
{"type":"Feature","properties":{"nome":"Ventos da Santa Esperança","situacao":"Em operação","fase":"Operação","pot_mw":28.0,"n_aerog":14,"municipio":"Morro do Chapéu","proprietar":"Enel Green Power Morro do Chapéu II Eólica S.A.","ini_oper":"29/06/2018","ceg":"EOLCVBA033649-1-01","ato_legal":"DSP 1426/2018, DSP 169/2018, PRT 224/2016, DSP 1984/2016, PRT 321/2015,PRT 1089/2021,PRT 99/2016"},"geometry":{"type":"Point","coordinates":[-41.315742,-11.607504]}},
{"type":"Feature","properties":{"nome":"Ventos do São Paulo","situacao":"Em operação","fase":"Operação","pot_mw":28.0,"n_aerog":14,"municipio":"Morro do Chapéu","proprietar":"Enel Green Power Morro do Chapéu I Eólica S.A.","ini_oper":"29/06/2018","ceg":"EOLCVBA033652-1-01","ato_legal":"DSP 1425/2018, DSP 171/2018, DSP 1986/2016, PRT 344/2015,PRT 1089/2021,PRT 479/2015"},"geometry":{"type":"Point","coordinates":[-41.303424,-11.578676]}},
{"type":"Feature","properties":{"nome":"Primavera","situacao":"Em operação","fase":"Operação","pot_mw":29.9,"n_aerog":13,"municipio":"Cafarnaum","proprietar":"Enel Green Power Primavera Eólica S.A.","ini_oper":"10/11/2017","ceg":"EOLCVBA030726-2-01","ato_legal":"DSP 3779/2017, DSP 2595/2017, DSP 2477/2017, DSP 588/2014, REA 4218/2013, DSP 931/2013, PRT 30/2012,PRT 030/2012,PRT 209/2011"},"geometry":{"type":"Point","coordinates":[-41.373,-11.733361]}},
{"type":"Feature","properties":{"nome":"Ventos de Santa Esperança 13","situacao":"Em operação","fase":"Operação","pot_mw":33.6,"n_aerog":8,"municipio":"Morro do Chapéu","proprietar":"Enel Green Power Ventos de Santa Esperança 13 S.A.","ini_oper":"27/01/2022","ceg":"EOLCVBA034692-6-01","ato_legal":"DSP 338/2022, DSP 232/2022, DSP 217/2022, DSP 125/2022, DSP 4080/2021, DSP 4016/2021, DSP 4002/2021, DSP 3938/2021, DSP 1768/2020, PRT 291/2019, DSP 1948/2019, PRT 164/2018, DSP 3214/2017, DSP 3213/20"},"geometry":{"type":"Point","coordinates":[-41.356796,-11.583424]}},
{"type":"Feature","properties":{"nome":"Ventos de Santa Esperança 15","situacao":"Em operação","fase":"Operação","pot_mw":46.2,"n_aerog":11,"municipio":"Morro do Chapéu","proprietar":"Enel Green Power Ventos de Santa Esperança 15 S.A.","ini_oper":"13/01/2022","ceg":"EOLCVBA034507-5-01","ato_legal":"DSP 337/2022, DSP 249/2022, DSP 118/2022, DSP 119/2022, DSP 085/2022, DSP 4125/2021, DSP 4081/2021, DSP 3939/2021, DSP 3835/2021, DSP 3766/2021, DSP 3728/2021, DSP 3512/2021, DSP 2219/2021, DSP 1769/2"},"geometry":{"type":"Point","coordinates":[-41.301728,-11.558338]}},
{"type":"Feature","properties":{"nome":"Ventos de Santa Esperança 17","situacao":"Em operação","fase":"Operação","pot_mw":42.0,"n_aerog":10,"municipio":"Morro do Chapéu","proprietar":"Enel Green Power Ventos de Santa Esperança 17 S.A.","ini_oper":"13/11/2021","ceg":"EOLCVBA034509-1-01","ato_legal":"DSP 3641/2021, DSP 2220/2021, DSP 1770/2020, PRT 291/2019, DSP 1950/2019, PRT 171/2018, DSP 3214/2017, DSP 3213/2017, DSP 3907/2015, DSP 3109/2015,DSP 2557/2016"},"geometry":{"type":"Point","coordinates":[-41.294582,-11.507978]}},
{"type":"Feature","properties":{"nome":"Ventos da Bahia XIII","situacao":"Em operação","fase":"Operação","pot_mw":49.5,"n_aerog":9,"municipio":"Iraquara","proprietar":"Parque Eólico Ventos da Bahia XIII S.A.","ini_oper":"15/12/2021","ceg":"EOLCVBA032535-0-01","ato_legal":"DSP 151/2022, DSP 077/2022, DSP 4015/2021, DSP 3995/2021, DSP 3825/2021, DSP 3676/2021, DSP 3583/2021, DSP 3499/2021, DSP 3457/2021, PRT 782/2021, DSP 3587/2020, DSP 169/2020, DSP 2087/2019, PRT 49/20"},"geometry":{"type":"Point","coordinates":[-41.496662,-12.131297]}},
{"type":"Feature","properties":{"nome":"Ventos da Bahia XIV","situacao":"Em operação","fase":"Operação","pot_mw":33.0,"n_aerog":6,"municipio":"Souto Soares","proprietar":"Parque Eólico Ventos da Bahia XIV S.A.","ini_oper":"03/12/2021","ceg":"EOLCVBA032536-8-01","ato_legal":"DSP 220/2022, DSP 199/2022, DSP 73/2022, DSP 4004/2021, DSP 3859/2021, DSP 3826/2021, DSP 3677/2021, DSP 3417/2021, PRT 782/2021, DSP 3588/2020, DSP 169/2020, DSP 2088/2019, PRT 44/2019, DSP 1317/2018"},"geometry":{"type":"Point","coordinates":[-41.506776,-12.11018]}},
{"type":"Feature","properties":{"nome":"Ventos da Bahia XXIII","situacao":"Em operação","fase":"Operação","pot_mw":49.5,"n_aerog":9,"municipio":"Mulungu do Morro","proprietar":"Parque Eólico Ventos da Bahia XXIII S.A.","ini_oper":"02/02/2022","ceg":"EOLCVBA035234-9-01","ato_legal":"DSP 1792/2022, DSP 779/2022, DSP 746/2022, DSP 596/2022, DSP 530/2022, DSP 470/2022, DSP 458/2022, DSP 403/2022, DSP 404/2022, DSP 312/2022, DSP 219/2022, DSP 147/2022, DSP 74/2022, DSP 4079/2021, DSP"},"geometry":{"type":"Point","coordinates":[-41.493626,-12.084231]}},
{"type":"Feature","properties":{"nome":"Serra da Babilônia C","situacao":"Em operação","fase":"Operação","pot_mw":26.5,"n_aerog":5,"municipio":"Morro do Chapéu","proprietar":"Eólica SDB C S.A.","ini_oper":"21/06/2021","ceg":"EOLCVBA040609-0-01","ato_legal":"DSP 2098/2022, DSP 1824/2021, DSP 1278/2021, DSP 1262/2021, DSP 1199/2021, DSP 1123/2021, PRT 478/2021, DSP 2919/2020, DSP 2792/2019, REA 8062/2019, PRT 72/2019, DSP 1317/2018,DSP 3127/2022,PRT 2004/2"},"geometry":{"type":"Point","coordinates":[-41.328628,-11.132785]}},
{"type":"Feature","properties":{"nome":"Serra da Babilônia E","situacao":"Em operação","fase":"Operação","pot_mw":26.5,"n_aerog":5,"municipio":"Morro do Chapéu","proprietar":"Eólica SDB ECO S.A.","ini_oper":"24/07/2021","ceg":"EOLCVBA040611-2-01","ato_legal":"DSP 2103/2022, DSP 2241/2021, DSP 2101/2021, DSP 2013/2021, DSP 1776/2021, DSP 1561/2021, PRT 478/2021, DSP 2920/2020, DSP 2793/2019, REA 8063/2019, REA 71/2019, DSP 1317/2018,DSP 3127/2022,PRT 65/202"},"geometry":{"type":"Point","coordinates":[-41.333034,-11.14937]}},
{"type":"Feature","properties":{"nome":"Serra da Babilônia F","situacao":"Em operação","fase":"Operação","pot_mw":21.2,"n_aerog":4,"municipio":"Morro do Chapéu","proprietar":"Eólica SDB F S.A.","ini_oper":"03/08/2021","ceg":"EOLCVBA040612-0-01","ato_legal":"DSP 2102/2022, DSP 2318/2021, DSP 2205/2021, DSP 2137/2021, DSP 1959/2021, DSP 1576/2021, PRT 478/2021, DSP 2921/2020, DSP 2794/2019, REA 8064/2019, PRT 69/2019, PRT 69/2019, DSP 1317/2018,DSP 3127/20"},"geometry":{"type":"Point","coordinates":[-41.33607,-11.159387]}},
{"type":"Feature","properties":{"nome":"Esperança","situacao":"Em operação","fase":"Operação","pot_mw":28.0,"n_aerog":14,"municipio":"Bonito","proprietar":"Enel Green Power Esperança Eólica S.A.","ini_oper":"21/12/2017","ceg":"EOLCVBA031355-6-01","ato_legal":"DSP 4321/2017, DSP 3025/2017, DSP 2477/2017, DSP 3559/2015, REA 4839/2014, PRT 070/2014, DSP 2569/2013,PRT 159/2014,PRT 70/2014"},"geometry":{"type":"Point","coordinates":[-41.416144,-11.86162]}},
{"type":"Feature","properties":{"nome":"Serra da Babilônia A","situacao":"Em operação","fase":"Operação","pot_mw":21.2,"n_aerog":4,"municipio":"Morro do Chapéu","proprietar":"Eólica SDB Alfa S.A.","ini_oper":"18/05/2021","ceg":"EOLCVBA037083-5-01","ato_legal":"DSP 2097/2022, DSP 1377/2021, DSP 694/2021, DSP 621/2021, DSP 507/2021, DSP 414/2021, PRT 478/2021, DSP 2918/2020, DSP 2791/2019, REA 8061/2019, PRT 73/2019, DSP 1317/2018, DSP 113/2018, DSP 3658/2017"},"geometry":{"type":"Point","coordinates":[-41.32422,-11.120358]}},
{"type":"Feature","properties":{"nome":"Serra da Babilônia XII","situacao":"Em operação","fase":"Operação","pot_mw":28.2,"n_aerog":12,"municipio":"Morro do Chapéu","proprietar":"Eólica Serra da Babilônia XII S.A.","ini_oper":"12/12/2018","ceg":"EOLCVBA032471-0-01","ato_legal":"DSP 2961/2018, DSP 2477/2018, DSP 2631/2017, DSP 760/2017, PRT 202/2016, DSP 3907/2015, DSP 1651/2015, DSP 2049/2014, DSP 3565/2013, DSP 2241/2013,DSP 3127/2022,PRT 7/2017"},"geometry":{"type":"Point","coordinates":[-41.315867,-11.098866]}},
{"type":"Feature","properties":{"nome":"Serra da Babilônia XI","situacao":"Em operação","fase":"Operação","pot_mw":28.2,"n_aerog":12,"municipio":"Morro do Chapéu","proprietar":"Eólica Serra da Babilônia XI S.A.","ini_oper":"12/12/2018","ceg":"EOLCVBA032470-1-01","ato_legal":"DSP 2960/2018, DSP 2466/2018, DSP 2630/2017, DSP 759/2017, PRT 195/2016, DSP 3907/2015, DSP 1650/2015, DSP 2048/2014, DSP 3564/2013, DSP 2242/2013,DSP 3127/2022,PRT 6/2017"},"geometry":{"type":"Point","coordinates":[-41.321587,-11.076978]}},
{"type":"Feature","properties":{"nome":"Serra da Babilônia II","situacao":"Em operação","fase":"Operação","pot_mw":28.2,"n_aerog":12,"municipio":"Morro do Chapéu","proprietar":"Eólica Serra da Babilônia II S.A.","ini_oper":"12/12/2018","ceg":"EOLCVBA032462-0-01","ato_legal":"DSP 2955/2018, DSP 2469/2018, DSP 2624/2017, DSP 753/2017, PRT 171/2016, DSP 3907/2015, DSP 1641/2015, DSP 2039/2014, DSP 3556/2013, DSP 2250/2013,DSP 3127/2022,PRT 255/2016"},"geometry":{"type":"Point","coordinates":[-41.30567,-11.095466]}},
{"type":"Feature","properties":{"nome":"Serra da Babilônia VI","situacao":"Em operação","fase":"Operação","pot_mw":25.85,"n_aerog":11,"municipio":"Morro do Chapéu","proprietar":"Eólica Serra da Babilônia VI S.A.","ini_oper":"12/12/2018","ceg":"EOLCVBA032466-3-01","ato_legal":"DSP 2956/2018, DSP 2471/2018, DSP 2625/2017, DSP 754/2017, PRT 193/2016, DSP 3907/2015, DSP 1645/2015, DSP 2043/2014, DSP 3559/2013, DSP 2247/2013,DSP 3127/2022,PRT 250/2016"},"geometry":{"type":"Point","coordinates":[-41.325203,-11.048995]}},
{"type":"Feature","properties":{"nome":"Boa Vista da Lagoinha","situacao":"Em operação","fase":"Operação","pot_mw":30.0,"n_aerog":15,"municipio":"Morro do Chapéu","proprietar":"Enel Green Power Boa Vista Eólica S.A.","ini_oper":"29/06/2018","ceg":"EOLCVBA032759-0-01","ato_legal":"DSP 1427/2018, DSP 350/2018, PRT 267/2017, DSP 1332/2016, REA 5398/2015, DSP 1965/2015, DSP 2565/2013,DSP 1004/2015,DSP 3907/2015,PRT 1089/2021,PRT 29/2018,REA 11131/2022"},"geometry":{"type":"Point","coordinates":[-41.389287,-11.761353]}},
{"type":"Feature","properties":{"nome":"Serra da Babilônia VII","situacao":"Em operação","fase":"Operação","pot_mw":28.2,"n_aerog":12,"municipio":"Morro do Chapéu","proprietar":"Eólica Serra da Babilônia VII S.A.","ini_oper":"12/12/2018","ceg":"EOLCVBA032467-1-01","ato_legal":"DSP 2957/2018, DSP 2470/2018, DSP 2626/2017, DSP 755/2017, DSP 194/2016, DSP 3907/2015, DSP 1646/2015, DSP 2044/2014, DSP 3560/2013, DSP 2245/2013,DSP 3127/2022,PRT 254/2016"},"geometry":{"type":"Point","coordinates":[-41.315487,-11.056587]}},
{"type":"Feature","properties":{"nome":"Serra da Babilônia IX","situacao":"Em operação","fase":"Operação","pot_mw":28.2,"n_aerog":12,"municipio":"Morro do Chpaéu","proprietar":"Eólica Serra da Babilônia IX S.A.","ini_oper":"12/12/2018","ceg":"EOLCVBA032465-5-01","ato_legal":"DSP 2954/2018, DSP 2476/2018, DSP 2628/2017, DSP 757/2017, PRT 177/2016, DSP 3907/2015, DSP 1648/2015, DSP 2046/2014, DSP 3562/2013, DSP 2244/2013,DSP 3127/2022,PRT 252/2016"},"geometry":{"type":"Point","coordinates":[-41.315365,-11.09014]}},
{"type":"Feature","properties":{"nome":"Ventos do São Gabriel","situacao":"Em operação","fase":"Operação","pot_mw":27.3,"n_aerog":13,"municipio":"Várzea Nova","proprietar":"Central Eólica Babilônia III S.A.","ini_oper":"24/11/2018","ceg":"EOLCVBA034739-6-01","ato_legal":"DSP 2712/2018, DSP 2209/2018, DSP 3140/2017, DSP 1876/2017, PRT 368/2016, DSP 3907/2015, DSP 3006/2015,PRT 93/2017"},"geometry":{"type":"Point","coordinates":[-41.233434,-10.958198]}},
{"type":"Feature","properties":{"nome":"Ventos do São Mário","situacao":"Em operação","fase":"Operação","pot_mw":30.0,"n_aerog":15,"municipio":"Morro do Chapéu","proprietar":"Enel Green Power Morro do Chapéu I Eólica S.A.","ini_oper":"29/06/2018","ceg":"EOLCVBA033650-5-01","ato_legal":"DSP 1423/2018, DSP 1053/2018, PRT 224/2016, DSP 1985/2016, PRT 480/2015, PRT 322/2015,PRT 1089/2021"},"geometry":{"type":"Point","coordinates":[-41.228529,-11.587414]}},
{"type":"Feature","properties":{"nome":"Serra da Babilônia B","situacao":"Em operação","fase":"Operação","pot_mw":31.8,"n_aerog":6,"municipio":"Morro do Chapéu","proprietar":"Eólica SDB B S.A.","ini_oper":"17/05/2021","ceg":"EOLCVBA040608-2-01","ato_legal":"DSP 3127/2022, DSP 903/2022, DSP 903/2022, DSP 903/2022, DSP 1368/2021/2021, DSP 1122/2021/2021, DSP 923/2021/2021, DSP 741/2021/2021, REA 9583/2020, DSP 2529/2020, DSP 753/2020, PRT 27/2020, DSP 2231"},"geometry":{"type":"Point","coordinates":[-41.326419,-11.126576]}},
{"type":"Feature","properties":{"nome":"Serra da Babilônia D","situacao":"Em operação","fase":"Operação","pot_mw":31.8,"n_aerog":6,"municipio":"Morro do Chapéu","proprietar":"Eólica SDB D S.A.","ini_oper":"06/07/2021","ceg":"EOLCVBA040610-4-01","ato_legal":"DSP 903/2022, DSP 2048/2021, DSP 1560/2021, DSP 1435/2021, DSP 1400/2021, DSP 1341/2021, REA 9582/2020, DSP 2530/2020, DSP 753/2020, PRT 28/2020, PRT 328/2019, DSP 2232/2019, REA 8034/2019, REA 7655/2"},"geometry":{"type":"Point","coordinates":[-41.331553,-11.142658]}},
{"type":"Feature","properties":{"nome":"Ventos de Santa Esperança 08","situacao":"Em operação","fase":"Operação","pot_mw":25.2,"n_aerog":6,"municipio":"Morro do Chapéu","proprietar":"Enel Green Power Ventos de Santa Esperança 08 S.A.","ini_oper":"02/02/2022","ceg":"EOLCVBA034661-6-01","ato_legal":"DSP 386/2022, DSP 310/2022, DSP 216/2022, DSP 55/2022, DSP 4107/2021, DSP 4067/2021, DSP 3695/2020, PRT 16/2020, REA 8185/2019, DSP 2928/2018, DSP 1317/2018, DSP 113/2018, DSP 3214/2017, DSP 3213/2017"},"geometry":{"type":"Point","coordinates":[-41.338953,-11.586931]}},
{"type":"Feature","properties":{"nome":"Ventos de Santa Esperança 16","situacao":"Em operação","fase":"Operação","pot_mw":42.0,"n_aerog":10,"municipio":"Morro do Chapéu","proprietar":"Enel Green Power Ventos de Santa Esperança 16 S.A","ini_oper":"14/01/2022","ceg":"EOLCVBA034508-3-01","ato_legal":"DSP 309/2022, DSP 93/2022, DSP 4003/2021, DSP 3836/2021, DSP 3767/2021, DSP 3729/2021, DSP 3674/2021, DSP 3599/2021, DSP 2489/2021, PRT 829/2021, REA 9628/2021, PRT 14/2020, REA 8186/2019, DSP 58/2019"},"geometry":{"type":"Point","coordinates":[-41.320241,-11.530592]}},
{"type":"Feature","properties":{"nome":"Ventos de Santa Esperança 26","situacao":"Em operação","fase":"Operação","pot_mw":46.2,"n_aerog":11,"municipio":"Morro do Chapéu","proprietar":"Enel Green Power Ventos de Santa Esperança 26 S.A","ini_oper":"13/11/2021","ceg":"EOLCVBA034514-8-01","ato_legal":"DSP 3750/2021, DSP 3643/2021, DSP 3416/2021, DSP 3380/2021, DSP 3300/2021, PRT 829/2021, DSP 2332/2021, REA 9631/2021, PRT 10/2020, REA 8562/2020, PRT 10/2020, REA 8190/2019, DSP 2930/2018, DSP 1317/2"},"geometry":{"type":"Point","coordinates":[-41.331714,-11.526127]}},
{"type":"Feature","properties":{"nome":"Ventos de São Januário 17","situacao":"Em operação","fase":"Operação","pot_mw":72.0,"n_aerog":16,"municipio":"Morro do Chapéu","proprietar":"Ventos de São Julio I Energias Renováveis S.A.","ini_oper":"09/12/2022","ceg":"EOLCVBA033548-7-01","ato_legal":"DSP 309/2023, DSP 255/2023, DSP 209/2023, DSP 173/2023, DSP 067/2023, DSP 074/2023, DSP 060/2023, DSP 042/2023, DSP 029/2023, DSP 3621/2022, DSP 3598/2022, DSP 3524/2022, DSP 2947/2022, DSP 2880/2022,"},"geometry":{"type":"Point","coordinates":[-41.287332,-11.130735]}},
{"type":"Feature","properties":{"nome":"Ventos de São Januário 18","situacao":"Em operação","fase":"Operação","pot_mw":72.0,"n_aerog":16,"municipio":"Morro do Chapéu","proprietar":"Ventos de Santa Justina Energias Renováveis S.A.","ini_oper":"17/12/2022","ceg":"EOLCVBA033549-5-01","ato_legal":"DSP 891/2023, DSP 599/2023, DSP 445/2023, DSP 332/2023, DSP 308/2023, DSP 208/2023, DSP 180/2023, DSP 196/2023, DSP 171/2023, DSP 115/2023, DSP 061/2023, DSP 3665/2022, DSP 3596/2022, DSP 3562/2022, D"},"geometry":{"type":"Point","coordinates":[-41.30334,-11.126474]}},
{"type":"Feature","properties":{"nome":"Ventos de São Januário 19","situacao":"Em operação","fase":"Operação","pot_mw":72.0,"n_aerog":16,"municipio":"Morro do Chapéu","proprietar":"Ventos de São João XXIII Energias Renováveis S.A.","ini_oper":"14/02/2023","ceg":"EOLCVBA037101-7-01","ato_legal":"DSP 876/2023, DSP 825/2023, DSP 782/2023, DSP 598/2023, DSP 537/2023, DSP 474/2023, DSP 463/2023, DSP 429/2023, DSP 398/2023, DSP 396/2023, DSP 355/2023, DSP 306/2023, DSP 261/2023, DSP 247/2023, DSP"},"geometry":{"type":"Point","coordinates":[-41.308488,-11.13989]}},
{"type":"Feature","properties":{"nome":"Ventos de Santa Luzia 07","situacao":"Em operação","fase":"Operação","pot_mw":40.5,"n_aerog":10,"municipio":"Novo Horizonte","proprietar":"Ventos de Santo Urbano I Energias Renováveis S.A.","ini_oper":"02/02/2024","ceg":"EOLCVBA049420-8-01","ato_legal":"DSP 312/2024, DSP 4470/2023, DSP 2784/2023, PRT 1384/2022, REA 11080/2022, REA 11080/2022, DSP 2857/2020,PRT 3009/2025"},"geometry":{"type":"Point","coordinates":[-42.033212,-12.746329]}},
{"type":"Feature","properties":{"nome":"Serra da Babilônia X","situacao":"Em operação","fase":"Operação","pot_mw":28.2,"n_aerog":12,"municipio":"Morro do Chapéu","proprietar":"Eólica Serra da Babilônia X S.A.","ini_oper":"12/12/2018","ceg":"EOLCVBA032469-8-01","ato_legal":"DSP 2959/2018, DSP 2467/2018, DSP 2629/2017, DSP 758/2017, PRT 201/2016, DSP 3907/2015, DSP 1649/2015, DSP 2047/2014, DSP 3563/2013, DSP 2243/2013,DSP 3127/2022,PRT 251/2016"},"geometry":{"type":"Point","coordinates":[-41.318787,-11.068103]}},
{"type":"Feature","properties":{"nome":"Ventos de Santo Abraão","situacao":"Em operação","fase":"Operação","pot_mw":28.0,"n_aerog":14,"municipio":"Morro do Chapéu","proprietar":"Enel Green Power São Abraão Eólica S.A","ini_oper":"29/06/2018","ceg":"EOLCVBA032884-7-01","ato_legal":"DSP 1428/2018, PRT 20/2018, DSP 172/2018, PRT 268/2017, PRT 63/2016, DSP 3907/2015, REA 5311/2015, DSP 1823/2015, DSP 1149/2015,DSP 1154/2015,PRT 1089/2021,REA 11131/2022"},"geometry":{"type":"Point","coordinates":[-41.352131,-11.624949]}},
{"type":"Feature","properties":{"nome":"Ventos de Santa Luzia 10","situacao":"Em operação","fase":"Operação","pot_mw":40.5,"n_aerog":10,"municipio":"Novo Horizonte","proprietar":"Ventos de Sao Vladimir Energias Renovaveis S.A.","ini_oper":"23/05/2024","ceg":"EOLCVBA049423-2-01","ato_legal":"PRT 3009/2025, DSP 1955/2024, DSP 1812/2024, DSP 1654/2024, DSP 1596/2024, DSP 2784/2023, PRT 1387/2022, REA 11083/2022, DSP 2857/2020"},"geometry":{"type":"Point","coordinates":[-42.06443,-12.868041]}},
{"type":"Feature","properties":{"nome":"Ventos de Santa Luzia 09","situacao":"Em operação","fase":"Operação","pot_mw":40.5,"n_aerog":10,"municipio":"Novo Horizonte","proprietar":"Ventos de Santa Virginia Energias Renovaveis S.A.","ini_oper":"15/06/2024","ceg":"EOLCVBA049422-4-01","ato_legal":"PRT 3009/2025, DSP 2003/2024, DSP 1956/2024, DSP 1794/2024, DSP 1115/2024, DSP 2784/2023, PRT 1386/2022, REA 11082/2022, DSP 2857/2020"},"geometry":{"type":"Point","coordinates":[-42.067419,-12.847698]}},
{"type":"Feature","properties":{"nome":"Ventos de Santa Luzia 08","situacao":"Em operação","fase":"Operação","pot_mw":45.0,"n_aerog":10,"municipio":"Novo Horizonte","proprietar":"Ventos de Sao Vigilio Energias Renovaveis S.A.","ini_oper":"25/06/2024","ceg":"EOLCVBA049421-6-01","ato_legal":"PRT 3009/2025, DSP 1957/2024, DSP 1878/2024, DSP 2784/2023, PRT 1385/2022, REA 11081/2022, DSP 2857/2020"},"geometry":{"type":"Point","coordinates":[-42.030745,-12.770904]}},
{"type":"Feature","properties":{"nome":"Ventos de Santa Luzia 04","situacao":"Em operação","fase":"Operação","pot_mw":40.5,"n_aerog":10,"municipio":"Ibitiara","proprietar":"Ventos de Sao Thomas Energias Renovaveis S.A.","ini_oper":"16/04/2024","ceg":"EOLCVBA049417-8-01","ato_legal":"PRT 3009/2025, DSP 1357/2024, DSP 1302/2024, DSP 1210/2024, DSP 844/2024, DSP 2784/2023, PRT 1381/2022, REA 11077/2022, DSP 2857/2020"},"geometry":{"type":"Point","coordinates":[-42.049685,-12.681609]}},
{"type":"Feature","properties":{"nome":"Ventos de Santa Luzia 03","situacao":"Em operação","fase":"Operação","pot_mw":45.0,"n_aerog":10,"municipio":"Ibitiara","proprietar":"Ventos de Sao Teonas Energias Renovaveis S.A.","ini_oper":"02/04/2024","ceg":"EOLCVBA049416-0-01","ato_legal":"PRT 3009/2025, DSP 1356/2024, DSP 1305/2024, DSP 1018/2024, DSP 414/2024, DSP 2784/2023, PRT 1379/2022, REA 11076/2022, DSP 2857/2020"},"geometry":{"type":"Point","coordinates":[-42.052829,-12.660166]}},
{"type":"Feature","properties":{"nome":"Ventos de Santa Luzia 02","situacao":"Em operação","fase":"Operação","pot_mw":45.0,"n_aerog":10,"municipio":"Ibitiara","proprietar":"Ventos de Sao Teofano Energias Renovaveis S.A.","ini_oper":"29/03/2024","ceg":"EOLCVBA049399-6-01","ato_legal":"PRT 3009/2025, DSP 1222/2024, DSP 1119/2024, DSP 1010/2024, DSP 5134/2023, DSP 2784/2023, REA 11075/2022, DSP 2857/2020"},"geometry":{"type":"Point","coordinates":[-42.05403,-12.639631]}},
{"type":"Feature","properties":{"nome":"Ventos de Santa Luzia 01","situacao":"Em operação","fase":"Operação","pot_mw":45.0,"n_aerog":10,"municipio":"Ibitiara","proprietar":"Ventos de São Romualdo Energias Renováveis S.A.","ini_oper":"10/02/2024","ceg":"EOLCVBA049398-8-01","ato_legal":"DSP 1455/2026, PRT 3009/2025, DSP 694/2024, DSP 416/2024, DSP 4471/2023, DSP 2784/2023, PRT 1377/2022, REA 11074/2022, DSP 2857/2020"},"geometry":{"type":"Point","coordinates":[-42.057722,-12.619196]}},
{"type":"Feature","properties":{"nome":"MORRO II-1","situacao":"Planejada","fase":"DRO","pot_mw":40.0,"n_aerog":null,"municipio":"Morro do Chapéu","proprietar":"Ventos do Morro do Chapeu Spe LTDA","ini_oper":null,"ceg":"EOLCVBA074589-8-01","ato_legal":"DSP 2430/2024"},"geometry":{"type":"Point","coordinates":[-41.206604,-11.257019]}},
{"type":"Feature","properties":{"nome":"MORRO II-3","situacao":"Planejada","fase":"DRO","pot_mw":40.0,"n_aerog":null,"municipio":"Morro do Chapéu","proprietar":"Ventos do Morro do Chapeu Spe LTDA","ini_oper":null,"ceg":"EOLCVBA074591-0-01","ato_legal":"DSP 2430/2024"},"geometry":{"type":"Point","coordinates":[-41.201111,-11.203003]}},
{"type":"Feature","properties":{"nome":"MORRO II-4","situacao":"Planejada","fase":"DRO","pot_mw":40.0,"n_aerog":null,"municipio":"Morro do Chapéu","proprietar":"Ventos do Morro do Chapeu Spe LTDA","ini_oper":null,"ceg":"EOLCVBA074592-8-01","ato_legal":"DSP 2430/2024"},"geometry":{"type":"Point","coordinates":[-41.193909,-11.177979]}},
{"type":"Feature","properties":{"nome":"MORRO II-5","situacao":"Planejada","fase":"DRO","pot_mw":29.0,"n_aerog":null,"municipio":"Morro do Chapéu","proprietar":"Ventos do Morro do Chapeu Spe LTDA","ini_oper":null,"ceg":"EOLCVBA074593-6-01","ato_legal":"DSP 2430/2024"},"geometry":{"type":"Point","coordinates":[-41.185913,-11.15509]}},
{"type":"Feature","properties":{"nome":"Ventos da Bahia IV","situacao":"Em operação","fase":"Operação","pot_mw":12.0,"n_aerog":4,"municipio":"Bonito","proprietar":"Ventos da Bahia F1 Iii Energia S.A.","ini_oper":"21/09/2017","ceg":"EOLCVBA031770-5-01","ato_legal":"DSP 3064/2017, DSP 2461/2017, DSP 2497/2016, PRT 112/2016, DSP 1140/2016, PRT 475/2014"},"geometry":{"type":"Point","coordinates":[-41.444549,-11.984325]}},
{"type":"Feature","properties":{"nome":"Ventos de Santa Luzia 06","situacao":"Em operação","fase":"Operação","pot_mw":40.5,"n_aerog":10,"municipio":"Novo Horizonte","proprietar":"Ventos de Santo Ubaldo Energias Renovaveis S.A.","ini_oper":"27/02/2024","ceg":"EOLCVBA049419-4-01","ato_legal":"PRT 3009/2025, DSP 583/2024, DSP 5133/2023, DSP 2784/2023, PRT 1383/2022, REA 11079/2022, DSP 2857/2020"},"geometry":{"type":"Point","coordinates":[-42.043233,-12.722416]}},
{"type":"Feature","properties":{"nome":"Ventos de Santa Luzia 05","situacao":"Em operação","fase":"Operação","pot_mw":40.5,"n_aerog":10,"municipio":"Ibitiara","proprietar":"Ventos de Sao Tilao Energias Renovaveis S.A.","ini_oper":"16/04/2024","ceg":"EOLCVBA049418-6-01","ato_legal":"PRT 3009/2025, DSP 2122/2024, DSP 1444/2024, DSP 1304/2024, DSP 1209/2024, DSP 415/2024, DSP 2784/2023, PRT 1382/2022, REA 11078/2022, DSP 2857/2020"},"geometry":{"type":"Point","coordinates":[-42.04668,-12.701997]}}
]
}
