{
"type": "FeatureCollection",
"xy_coordinate_resolution": 1e-06,
"features": [
{"type":"Feature","properties":{"responsave":"Colina, Boa Vista, Alto do Bonito, Ventos da Bahia II","tensao_kv":138.0,"situacao":"Em operação","uso":"Linha de Interesse Restrito","municipios":"Colina, Boa Vista, Alto do Bonito, Ventos da Bahia II, Ventos da Bahia IV, Ventos da Bahia VIII","ext_ti_km":18.35},"geometry":{"type":"MultiLineString","coordinates":[[[-41.433018,-11.991067],[-41.427837,-11.985279],[-41.368483,-11.978451],[-41.352908,-11.98111],[-41.310836,-11.950801],[-41.286174,-11.955497],[-41.278427,-11.954564]]]}},
{"type":"Feature","properties":{"responsave":"Ventos de Santa Aparecida","tensao_kv":230.0,"situacao":"Em operação","uso":"Linha de Transmissão","municipios":"Ventos de Santa Aurora, Ventos da Santa Beatriz, Ventos de Santa Emília, Ventos do São Gabriel","ext_ti_km":40.6},"geometry":{"type":"MultiLineString","coordinates":[[[-41.309667,-11.02628],[-41.327025,-11.03544],[-41.339331,-11.042467],[-41.375608,-11.103793],[-41.377984,-11.134629],[-41.378126,-11.136246]],[[-41.417967,-11.447252],[-41.424498,-11.462748],[-41.423354,-11.464263],[-41.399454,-11.491014],[-41.403989,-11.582885],[-41.411305,-11.645217],[-41.404959,-11.662903],[-41.404989,-11.665087]]]}},
{"type":"Feature","properties":{"responsave":"Serra da Babilônia","tensao_kv":230.0,"situacao":"Em operação","uso":"Linha de Interesse Restrito","municipios":"Serra da Babilônia II, Serra da Babilônia VI, Serra da Babilônia VII, Serra da Babilônia VIII, Serra da Babilônia IX, Serra da Babilônia X, Serra da Babilônia XI, Serra da Babilônia XII","ext_ti_km":33.54},"geometry":{"type":"MultiLineString","coordinates":[[[-41.330209,-11.103182],[-41.330329,-11.100468],[-41.33275,-11.09668],[-41.33973,-11.096506],[-41.357408,-11.098573],[-41.377478,-11.134405],[-41.377601,-11.13669]],[[-41.420197,-11.449509],[-41.422064,-11.466767],[-41.395749,-11.496743],[-41.399426,-11.558262],[-41.402135,-11.667882]]]}},
{"type":"Feature","properties":{"responsave":"Complexo Morro do Chapéu Sul","tensao_kv":230.0,"situacao":"Em operação","uso":"Linha de Interesse Restrito","municipios":"Boa Vista Lagoinha, Ventos de Santa Dulce, Ventos de Santa Esperança, Ventos de São Paulo, Ventos de São Mário e Ventos do Santo Abraão","ext_ti_km":17.5},"geometry":{"type":"MultiLineString","coordinates":[[[-41.315457,-11.594865],[-41.318583,-11.609603],[-41.324862,-11.658216],[-41.329341,-11.67425],[-41.34052,-11.689984],[-41.357919,-11.714357],[-41.362656,-11.728391],[-41.368934,-11.732192],[-41.374945,-11.72972]]]}},
{"type":"Feature","properties":{"responsave":"Ventos de Santa Dulce","tensao_kv":230.0,"situacao":"Em operação","uso":"Linha de Interesse Restrito","municipios":"Boa Vista da Lagoinha, Ventos de São Abraão, Ventos da Santa Dulce, Ventos da Santa Esperança, Ventos do São Paulo e Ventos do São Mário","ext_ti_km":13.44},"geometry":{"type":"MultiLineString","coordinates":[[[-41.315466,-11.594833],[-41.331349,-11.613224],[-41.359571,-11.63509],[-41.366716,-11.681581],[-41.377741,-11.691769]]]}},
{"type":"Feature","properties":{"responsave":"Complexo Morro do Chapéu Sul","tensao_kv":230.0,"situacao":"Em operação","uso":"Linha de Interesse Restrito","municipios":"Boa Vista da Lagoinha / Ventos de São Judas / Ventos de Santa Dulce / Ventos de Santa Esperança / Ventos de São Mário / Ventos de São Paulo","ext_ti_km":15.48},"geometry":{"type":"MultiLineString","coordinates":[[[-41.318195,-11.592199],[-41.339705,-11.588283],[-41.361458,-11.589909],[-41.376739,-11.602228],[-41.387024,-11.640865],[-41.391804,-11.677999]]]}},
{"type":"Feature","properties":{"responsave":"Serra da Babilônia","tensao_kv":230.0,"situacao":"Em operação","uso":"Linha de Interesse Restrito","municipios":"Serra da Babilonia A, B, C, D, E, F","ext_ti_km":34.41},"geometry":{"type":"MultiLineString","coordinates":[[[-41.329673,-11.107015],[-41.32963,-11.101569],[-41.33275,-11.096679],[-41.33973,-11.096507],[-41.357408,-11.098573],[-41.377068,-11.133672],[-41.377448,-11.13682]],[[-41.405617,-11.445625],[-41.409912,-11.45708],[-41.415493,-11.464584],[-41.415018,-11.472979],[-41.397403,-11.492695],[-41.395619,-11.49528],[-41.399397,-11.558241],[-41.402106,-11.66791]]]}},
{"type":"Feature","properties":{"responsave":"Ventos da Bahia XIII","tensao_kv":230.0,"situacao":"Em operação","uso":"Linha de Interesse Restrito","municipios":"Ventos da Bahia XIV, Ventos da Bahia XXIII, Ventos da Bahia XXVII","ext_ti_km":2.32},"geometry":{"type":"MultiLineString","coordinates":[[[-41.499689,-12.098009],[-41.497424,-12.094481],[-41.49742,-12.077713]]]}},
{"type":"Feature","properties":{"responsave":"Ventos de São Januário 19","tensao_kv":230.0,"situacao":"Em operação","uso":"Linha de Interesse Restrito","municipios":"Ventos de São Januário 15 a 19","ext_ti_km":19.32},"geometry":{"type":"MultiLineString","coordinates":[[[-41.291179,-11.119375],[-41.29237,-11.117231],[-41.292443,-11.117043]],[[-41.313749,-11.057633],[-41.315951,-11.055568],[-41.319988,-11.051118],[-41.320515,-11.046945],[-41.315334,-11.034313],[-41.309519,-11.020579],[-41.307306,-11.015104],[-41.304911,-10.977204],[-41.32156,-10.950919],[-41.324351,-10.937546],[-41.332122,-10.896485]]]}},
{"type":"Feature","properties":{"responsave":"Ventos de Santo Antônio 04","tensao_kv":500.0,"situacao":"Planejada","uso":"Linha de Interesse Restrito","municipios":"Ventos de Santo Antônio 04, Ventos de Santo Antônio 05, Ventos de Santo Antônio 06, Ventos de Santo Antônio 07, Ventos de Santo Antônio 08","ext_ti_km":15.34},"geometry":{"type":"MultiLineString","coordinates":[[[-41.29439,-11.012046],[-41.300386,-11.00697],[-41.292264,-10.978362],[-41.327932,-10.941776],[-41.341335,-10.893184]]]}},
{"type":"Feature","properties":{"responsave":"Ventos de Santa Luzia 14","tensao_kv":500.0,"situacao":"Planejada","uso":"Linha de Interesse Restrito","municipios":"Ventos de Santa Luzia 14, Ventos de Santa Luzia 15, Ventos de Santa Luzia 16, Ventos de Santa Luzia 17","ext_ti_km":10.87},"geometry":{"type":"MultiLineString","coordinates":[[[-41.263516,-10.990811],[-41.263523,-10.98954],[-41.256482,-10.964431],[-41.290623,-10.914981],[-41.298324,-10.906924]]]}},
{"type":"Feature","properties":{"responsave":"Ventos de Santa Diana 01","tensao_kv":500.0,"situacao":"Planejada","uso":"Linha de Interesse Restrito","municipios":"Ventos de Santa Diana 01, Ventos de Santa Diana 02, Ventos de Santa Diana 03, Ventos de Santa Diana 04, Ventos de Santa Diana 05, Ventos de Santa Diana 06, Ventos de Santa Diana 07, Ventos de Santa Di","ext_ti_km":70.13},"geometry":{"type":"MultiLineString","coordinates":[[[-40.927179,-11.314793],[-40.970242,-11.372264],[-41.039933,-11.474448],[-41.124088,-11.576981],[-41.335094,-11.743666],[-41.376088,-11.737021]]]}},
{"type":"Feature","properties":{"responsave":"Ventos de São Cirilo 01","tensao_kv":500.0,"situacao":"Planejada","uso":"Linha de Interesse Restrito","municipios":"Ventos de São Cirilo 01, Ventos de São Cirilo 02, Ventos de São Cirilo 03","ext_ti_km":18.79},"geometry":{"type":"MultiLineString","coordinates":[[[-41.183144,-11.579799],[-41.182811,-11.543461],[-41.185178,-11.528919],[-41.185699,-11.51201],[-41.180587,-11.483677],[-41.179518,-11.473636],[-41.172505,-11.432607],[-41.174567,-11.427454],[-41.178282,-11.415585],[-41.179321,-11.412325]]]}},
{"type":"Feature","properties":{"responsave":"São Gabriel I","tensao_kv":500.0,"situacao":"Planejada","uso":"Linha de Interesse Restrito","municipios":"São Gabriel I, São Gabriel II, São Gabriel III, São Gabriel IV, São Gabriel V, São Gabriel VI, São Gabriel VII, São Gabriel VIII, São Gabriel IX","ext_ti_km":21.28},"geometry":{"type":"MultiLineString","coordinates":[[[-41.361141,-10.886566],[-41.381048,-10.898433],[-41.539152,-10.963989]]]}},
{"type":"Feature","properties":{"responsave":"Ventos de Santa Luzia 01","tensao_kv":500.0,"situacao":"Planejada","uso":"Linha de Interesse Restrito","municipios":"Ventos de Santa Luzia 01 a 10","ext_ti_km":43.97},"geometry":{"type":"MultiLineString","coordinates":[[[-42.04246,-12.72014],[-42.043204,-12.720671],[-42.046239,-12.720553],[-42.049441,-12.718646],[-42.052328,-12.716927],[-42.054943,-12.714412],[-42.058775,-12.710728],[-42.060149,-12.709407],[-42.064158,-12.705553],[-42.066876,-12.702939],[-42.066909,-12.698979],[-42.06695,-12.694048],[-42.066991,-12.689054],[-42.067032,-12.684132],[-42.067085,-12.677765],[-42.067119,-12.673779],[-42.069606,-12.670322],[-42.071601,-12.667548],[-42.073892,-12.666842],[-42.079097,-12.665239],[-42.083484,-12.663887],[-42.088004,-12.662494],[-42.092459,-12.661121],[-42.097622,-12.659686],[-42.099376,-12.659199],[-42.105003,-12.657636],[-42.108965,-12.656535],[-42.111295,-12.65407],[-42.113172,-12.652085],[-42.11748,-12.647528],[-42.120869,-12.643943],[-42.124325,-12.640288],[-42.127684,-12.636733],[-42.131114,-12.633105],[-42.134547,-12.629473],[-42.137964,-12.625858],[-42.140485,-12.62319],[-42.144176,-12.619284],[-42.148274,-12.614948],[-42.151358,-12.611684],[-42.154912,-12.607923],[-42.158534,-12.60409],[-42.161699,-12.60074],[-42.165254,-12.596977],[-42.168573,-12.593463],[-42.172126,-12.589702],[-42.175441,-12.586193],[-42.178941,-12.582488],[-42.182177,-12.579062],[-42.185742,-12.575288],[-42.188619,-12.572241],[-42.191347,-12.569353],[-42.19502,-12.565464],[-42.198182,-12.562115],[-42.201627,-12.558468],[-42.204772,-12.555137],[-42.207742,-12.551991],[-42.209922,-12.549682],[-42.213299,-12.54769],[-42.217246,-12.545361],[-42.221102,-12.543085],[-42.227168,-12.539505],[-42.230145,-12.537747],[-42.234339,-12.535272],[-42.239198,-12.532404],[-42.242564,-12.530417],[-42.247859,-12.527291],[-42.253021,-12.524244],[-42.254924,-12.52312],[-42.25743,-12.519767],[-42.260172,-12.516097],[-42.26338,-12.511803],[-42.266566,-12.510428],[-42.269281,-12.509256],[-42.272801,-12.507737],[-42.276724,-12.50483],[-42.279848,-12.502514],[-42.28386,-12.49954],[-42.288264,-12.496275],[-42.292333,-12.493446],[-42.296617,-12.490465],[-42.301641,-12.48697],[-42.302912,-12.486085],[-42.306071,-12.483888],[-42.310602,-12.480735],[-42.315752,-12.477152],[-42.31896,-12.474919],[-42.323522,-12.471745],[-42.327513,-12.468968],[-42.330608,-12.466814]]]}},
{"type":"Feature","properties":{"responsave":"Ventos de Santa Esperança","tensao_kv":500.0,"situacao":"Planejada","uso":"Linha de Interesse Restrito","municipios":"Ventos de Santa Esperança 01, 03, 07, 08, 13, 15, 16, 17, 21, 22, 25, 26","ext_ti_km":20.35},"geometry":{"type":"MultiLineString","coordinates":[[[-41.325546,-11.518641],[-41.328819,-11.541303],[-41.3487,-11.57089],[-41.360226,-11.634929],[-41.366951,-11.676717],[-41.378659,-11.69087]]]}},
{"type":"Feature","properties":{"responsave":"Ventos de Santa Esperança 04","tensao_kv":500.0,"situacao":"Planejada","uso":"Linha de Interesse Restrito","municipios":"Ventos de Santa Esperança 04, 05, 06, 28, Ventos de São Cirilo 01, 02, 03","ext_ti_km":41.38},"geometry":{"type":"MultiLineString","coordinates":[[[-41.180126,-11.412627],[-41.179425,-11.414739],[-41.175431,-11.431481],[-41.176518,-11.435097],[-41.208346,-11.477268],[-41.224831,-11.52123],[-41.246976,-11.600882],[-41.261506,-11.635353],[-41.304146,-11.667523],[-41.309375,-11.668194],[-41.350143,-11.685523],[-41.370587,-11.685456],[-41.377016,-11.692479]]]}},
{"type":"Feature","properties":{"responsave":"Ventos de Santa Patrícia 12","tensao_kv":500.0,"situacao":"Planejada","uso":"Linha de Interesse Restrito","municipios":"Ventos de Santa Patrícia 01, 02, 03, 04, 05, 06, 07, 08, 09, 10, 11, 12, 13, 14","ext_ti_km":10.31},"geometry":{"type":"MultiLineString","coordinates":[[[-41.304901,-10.984298],[-41.304445,-10.977088],[-41.321123,-10.950759],[-41.32254,-10.943426],[-41.331543,-10.896834]]]}},
{"type":"Feature","properties":{"responsave":"Aroeira 01","tensao_kv":500.0,"situacao":"Planejada","uso":"Linha de Interesse Restrito","municipios":"Aroeira 01, 02, 03, 04, 05, 06, 07 e 08","ext_ti_km":3.39},"geometry":{"type":"MultiLineString","coordinates":[[[-41.475474,-10.791468],[-41.449708,-10.808477]]]}},
{"type":"Feature","properties":{"responsave":"Ventos de São Paulo 01","tensao_kv":230.0,"situacao":"Planejada","uso":"Linha de Interesse Restrito","municipios":"Ventos de São Paulo 01 (CEG: EOL.CV.BA.049984-6.01), Ventos de São Paulo 02 (CEG: EOL.CV.BA.049985-4.01), Ventos de São Paulo 03 (CEG: EOL.CV.BA.049986-2.01), Ventos de São Paulo 04 (CEG: EOL.CV.BA.04","ext_ti_km":21.43},"geometry":{"type":"MultiLineString","coordinates":[[[-41.560024,-10.942308],[-41.531633,-10.932817],[-41.450073,-10.902797],[-41.44376,-10.90092],[-41.403384,-10.891131],[-41.381029,-10.883959],[-41.374116,-10.881545]]]}},
{"type":"Feature","properties":{"responsave":"Ventos de São Júlio I Energias Renováveis S.A.","tensao_kv":230.0,"situacao":"Em operação","uso":"Linha de Transmissão","municipios":"Ventos de São Januário 15, Ventos de São Januário 16, Ventos de São Januário 17, Ventos de São Januário 18, Ventos de São Januário 19","ext_ti_km":19.32},"geometry":{"type":"MultiLineString","coordinates":[[[-41.291188,-11.119401],[-41.29237,-11.117231],[-41.292457,-11.117032]],[[-41.313749,-11.057633],[-41.315951,-11.055568],[-41.319988,-11.051118],[-41.320515,-11.046945],[-41.315334,-11.034313],[-41.309519,-11.020579],[-41.307306,-11.015104],[-41.304911,-10.977204],[-41.32156,-10.950919],[-41.324351,-10.937546],[-41.332122,-10.896485]]]}},
{"type":"Feature","properties":{"responsave":"Ventos de Santa Justina Energias Renováveis S.A.","tensao_kv":230.0,"situacao":"Em operação","uso":"Linha de Transmissão","municipios":"Ventos de São Januário 15, Ventos de São Januário 16, Ventos de São Januário 17, Ventos de São Januário 18, Ventos de São Januário 19","ext_ti_km":19.32},"geometry":{"type":"MultiLineString","coordinates":[[[-41.291188,-11.119401],[-41.29237,-11.117231],[-41.292457,-11.117032]],[[-41.313749,-11.057633],[-41.315951,-11.055568],[-41.319988,-11.051118],[-41.320515,-11.046945],[-41.315334,-11.034313],[-41.309519,-11.020579],[-41.307306,-11.015104],[-41.304911,-10.977204],[-41.32156,-10.950919],[-41.324351,-10.937546],[-41.332122,-10.896485]]]}},
{"type":"Feature","properties":{"responsave":"EÓLICA SERRA DA BABILÔNIA VI S.A","tensao_kv":230.0,"situacao":"Em operação","uso":"Linha de Transmissão","municipios":"SDB II, SDB VI, SDB VII, SDB VIII, SDB IX, SDB X, SDB XI, SDB XII, SDB B, SDB C, SDB D, SDB E, SDB F.","ext_ti_km":34.02},"geometry":{"type":"MultiLineString","coordinates":[[[-41.329007,-11.10329],[-41.329059,-11.102455],[-41.332749,-11.09668],[-41.33973,-11.096506],[-41.357408,-11.098573],[-41.377068,-11.133672],[-41.377448,-11.13682]],[[-41.405647,-11.445615],[-41.409912,-11.45708],[-41.415493,-11.464584],[-41.415018,-11.472979],[-41.397403,-11.492695],[-41.395619,-11.49528],[-41.399397,-11.558241],[-41.402106,-11.66791]]]}},
{"type":"Feature","properties":{"responsave":"Ventos de São Mariano Energias Renováveis S.A.","tensao_kv":500.0,"situacao":"Em operação","uso":"Linha de Transmissão","municipios":"Ventos de Santa Luzia 14, Ventos de Santa Luzia 15, Ventos de Santa Luzia 16, Ventos de Santa Luzia 17","ext_ti_km":10.87},"geometry":{"type":"MultiLineString","coordinates":[[[-41.263516,-10.990811],[-41.263523,-10.98954],[-41.256482,-10.964431],[-41.290623,-10.914981],[-41.298324,-10.906924]]]}},
{"type":"Feature","properties":{"responsave":"Ventos de São Roberto Energias Renováveis S.A.","tensao_kv":500.0,"situacao":"Em operação","uso":"Linha de Transmissão","municipios":"VENTOS DE SANTO ANTONIO 04, 05, 06, 07, 08 E VENTOS DE SANTA LUZIA 14, 15 e 16","ext_ti_km":13.83},"geometry":{"type":"MultiLineString","coordinates":[[[-41.304045,-11.016126],[-41.304038,-11.015235],[-41.304445,-10.977088],[-41.321129,-10.950749],[-41.323902,-10.937459],[-41.331594,-10.896813]]]}},
{"type":"Feature","properties":{"responsave":"Ventos de Santa Felicidade Energias Renováveis S.A.","tensao_kv":500.0,"situacao":"Em operação","uso":"Linha de Transmissão","municipios":"VENTOS DE SANTO ANTONIO 04, 05, 06, 07, 08 E VENTOS DE SANTA LUZIA 14, 15 e 16","ext_ti_km":13.83},"geometry":{"type":"MultiLineString","coordinates":[[[-41.304045,-11.016126],[-41.304038,-11.015235],[-41.304445,-10.977088],[-41.321129,-10.950749],[-41.323902,-10.937459],[-41.331594,-10.896813]]]}}
]
}
