{
"type": "FeatureCollection",
"xy_coordinate_resolution": 1e-06,
"features": [
{"type":"Feature","properties":{"nome":"LT 500 kV IBICOARA / POCOES III C L5 BA","tensao_kv":500,"situacao":"Operação","classe":"Operação com 500 kV","agente":"EDTE - EMPRESA DIAMANTINA DE TRANSMISSÃO DE ENERGIA S.A.","rede":"BASICA","dt_entrada":"22/12/2019","dt_previst":"31/01/2020","outorga":"013/2015","ext_ti_km":34.1},"geometry":{"type":"MultiLineString","coordinates":[[[-41.374943,-13.443175],[-41.167641,-13.671488]],[[-41.167639,-13.67149],[-41.165739,-13.673582]]]}},
{"type":"Feature","properties":{"nome":"LT 230 kV IRECE / OUROLANDIA II C F1 BA","tensao_kv":230,"situacao":"Operação","classe":"Operação com 230 kV","agente":"AXIA ENERGIA NORDESTE S.A.","rede":"BASICA","dt_entrada":"03/06/2018","dt_previst":"30/05/2018","outorga":"007/2014","ext_ti_km":9.75},"geometry":{"type":"MultiLineString","coordinates":[[[-41.313558,-11.04882],[-41.392304,-11.090365]]]}},
{"type":"Feature","properties":{"nome":"LT 500 kV MORRO CHAPEU II / OUROLANDIA II C N4 BA","tensao_kv":500,"situacao":"Operação","classe":"Operação com 500 kV","agente":"TRANSMISSORA JOSE MARIA DE MACEDO DE ELETRICIDADE S.A.","rede":"BASICA","dt_entrada":"04/05/2018","dt_previst":"30/05/2018","outorga":"007/2014","ext_ti_km":73.98},"geometry":{"type":"MultiLineString","coordinates":[[[-41.267408,-10.926491],[-41.273898,-10.988484]],[[-41.287633,-11.119684],[-41.35079,-11.722977]]]}},
{"type":"Feature","properties":{"nome":"LT 500 kV GENTIO OURO II / OUROLANDIA II C C1 BA","tensao_kv":500,"situacao":"Operação","classe":"Operação com 500 kV","agente":"TRANSMISSORA JOSE MARIA DE MACEDO DE ELETRICIDADE S.A.","rede":"BASICA","dt_entrada":"04/05/2018","dt_previst":"30/05/2018","outorga":"007/2014","ext_ti_km":15.91},"geometry":{"type":"MultiLineString","coordinates":[[[-41.565685,-10.914981],[-41.429531,-10.864195]]]}},
{"type":"Feature","properties":{"nome":"LT 500 kV MORRO CHAPEU II / SAPEACU C N3 BA","tensao_kv":500,"situacao":"Operação","classe":"Operação com 500 kV","agente":"ARGO V TRANSMISSAO DE ENERGIA S.A","rede":"BASICA","dt_entrada":"01/08/2017","dt_previst":"05/09/2017","outorga":"001/2014","ext_ti_km":45.48},"geometry":{"type":"MultiLineString","coordinates":[[[-41.350051,-11.724252],[-40.97066,-11.895566]]]}},
{"type":"Feature","properties":{"nome":"LT 500 kV IBICOARA / IGAPORA III C L4 BA","tensao_kv":500,"situacao":"Operação","classe":"Operação com 500 kV","agente":"TRANSMISSORA ALIANÇA DE ENERGIA ELÉTRICA S A","rede":"BASICA","dt_entrada":"19/06/2017","dt_previst":"14/05/2017","outorga":"003/2012","ext_ti_km":48.68},"geometry":{"type":"MultiLineString","coordinates":[[[-41.768084,-13.654974],[-41.703081,-13.636932],[-41.376345,-13.442969]]]}},
{"type":"Feature","properties":{"nome":"LT 230 kV IRECE / MORRO CHAPEU II C S5 BA","tensao_kv":230,"situacao":"Operação","classe":"Operação com 230 kV","agente":"AXIA ENERGIA NORDESTE S.A.","rede":"BASICA","dt_entrada":"21/12/2017","dt_previst":"30/12/2017","outorga":"001/2011","ext_ti_km":11.51},"geometry":{"type":"MultiLineString","coordinates":[[[-41.539069,-11.553176],[-41.477666,-11.608873]],[[-41.367829,-11.708505],[-41.351558,-11.723264]]]}},
{"type":"Feature","properties":{"nome":"LT 230 kV BRUMADO II / IBICOARA C F5 BA","tensao_kv":230,"situacao":"Operação","classe":"Operação com 230 kV","agente":"AXIA ENERGIA NORDESTE S.A.","rede":"BASICA","dt_entrada":"31/03/2012","dt_previst":"31/03/2012","outorga":"003/2006","ext_ti_km":34.78},"geometry":{"type":"MultiLineString","coordinates":[[[-41.375845,-13.443358],[-41.450673,-13.66481]],[[-41.514514,-13.853745],[-41.515541,-13.856786]],[[-41.517227,-13.861775],[-41.518564,-13.865733]],[[-41.519086,-13.867275],[-41.542749,-13.937307]]]}},
{"type":"Feature","properties":{"nome":"LT 500 kV IBICOARA / SAPEACU C L3 BA","tensao_kv":500,"situacao":"Operação","classe":"Operação com 500 kV","agente":"TRANSMISSORA ALIANÇA DE ENERGIA ELÉTRICA S A","rede":"BASICA","dt_entrada":"04/03/2003","dt_previst":"20/04/2003","outorga":"002/2000","ext_ti_km":93.87},"geometry":{"type":"MultiLineString","coordinates":[[[-41.374681,-13.442211],[-40.673967,-13.211097]],[[-40.615346,-13.191762],[-40.495041,-13.152082]]]}},
{"type":"Feature","properties":{"nome":"LT 230 kV IRECE / MORRO CHAPEU II C N8 BA","tensao_kv":230,"situacao":"Planejada","classe":"Planejada com 230 kV","agente":"SÃO FRANCISCO TRANSMISSÃO DE ENERGIA S.A.","rede":"BASICA","dt_entrada":null,"dt_previst":"23/11/2025","outorga":"002/2018","ext_ti_km":2.14},"geometry":{"type":"MultiLineString","coordinates":[[[-41.37043,-11.717581],[-41.351755,-11.723595]]]}},
{"type":"Feature","properties":{"nome":"LT 230 kV IRECE / MORRO CHAPEU II C N9 BA","tensao_kv":230,"situacao":"Planejada","classe":"Planejada com 230 kV","agente":"SÃO FRANCISCO TRANSMISSÃO DE ENERGIA S.A.","rede":"BASICA","dt_entrada":null,"dt_previst":"23/11/2025","outorga":"002/2018","ext_ti_km":28.78},"geometry":{"type":"MultiLineString","coordinates":[[[-41.504489,-11.519535],[-41.389318,-11.62434],[-41.35121,-11.723031]]]}},
{"type":"Feature","properties":{"nome":"LT 500 kV CAMPO FORMOSOII / BARRA II C 1 BA","tensao_kv":500,"situacao":"Planejada","classe":"Planejada com 500 kV","agente":"ISA ENERGIA BRASIL S.A.","rede":"BASICA","dt_entrada":null,"dt_previst":"28/03/2029","outorga":"01/2023","ext_ti_km":24.01},"geometry":{"type":"MultiLineString","coordinates":[[[-41.439237,-10.789041],[-41.444181,-10.79026],[-41.453026,-10.79244],[-41.461873,-10.794619],[-41.470719,-10.796799],[-41.479565,-10.798978],[-41.488411,-10.801157],[-41.497258,-10.803335],[-41.506105,-10.805514],[-41.514952,-10.807692],[-41.523798,-10.809869],[-41.532646,-10.812047],[-41.541493,-10.814224],[-41.55034,-10.816401],[-41.559188,-10.818578],[-41.568035,-10.820755],[-41.576883,-10.822931],[-41.585731,-10.825107],[-41.594579,-10.827283],[-41.603427,-10.829458],[-41.612275,-10.831634],[-41.621123,-10.833809],[-41.629972,-10.835984],[-41.63882,-10.838158],[-41.647669,-10.840332],[-41.652332,-10.841478]]]}},
{"type":"Feature","properties":{"nome":"LT 500 kV IGAPORA III / JUSSIAPE C 1 BA","tensao_kv":500,"situacao":"Planejada","classe":"Planejada com 500 kV","agente":"TRANSMISSORA ALIANÇA DE ENERGIA ELÉTRICA S A","rede":"BASICA","dt_entrada":null,"dt_previst":"30/12/2022","outorga":"01/2024","ext_ti_km":8.44},"geometry":{"type":"MultiLineString","coordinates":[[[-41.613999,-13.584071],[-41.613477,-13.583903],[-41.612898,-13.583715],[-41.612318,-13.583528],[-41.611739,-13.58334],[-41.611159,-13.583153],[-41.610579,-13.582966],[-41.61,-13.582778],[-41.60942,-13.582591],[-41.608841,-13.582403],[-41.608261,-13.582216],[-41.607682,-13.582028],[-41.607102,-13.581841],[-41.606523,-13.581653],[-41.605943,-13.581465],[-41.605364,-13.581278],[-41.604784,-13.58109],[-41.604205,-13.580903],[-41.603625,-13.580715],[-41.603046,-13.580527],[-41.602467,-13.58034],[-41.601887,-13.580152],[-41.601308,-13.579964],[-41.600729,-13.579777],[-41.60015,-13.579589],[-41.59957,-13.579401],[-41.598991,-13.579214],[-41.598412,-13.579026],[-41.597833,-13.578838],[-41.597253,-13.57865],[-41.596674,-13.578463],[-41.596095,-13.578275],[-41.595516,-13.578087],[-41.594937,-13.577899],[-41.594358,-13.577711],[-41.593779,-13.577524],[-41.5932,-13.577336],[-41.59262,-13.577148],[-41.592041,-13.57696],[-41.591462,-13.576772],[-41.590883,-13.576584],[-41.590304,-13.576396],[-41.589725,-13.576208],[-41.589147,-13.576021],[-41.588568,-13.575833],[-41.587989,-13.575645],[-41.58741,-13.575457],[-41.586831,-13.575269],[-41.586252,-13.575081],[-41.585673,-13.574893],[-41.585094,-13.574705],[-41.584516,-13.574517],[-41.583937,-13.574329],[-41.583358,-13.57414],[-41.582779,-13.573952],[-41.582201,-13.573764],[-41.581622,-13.573576],[-41.581043,-13.573388],[-41.580464,-13.5732],[-41.579886,-13.573012],[-41.579307,-13.572824],[-41.578728,-13.572636],[-41.57815,-13.572447],[-41.577571,-13.572259],[-41.576993,-13.572071],[-41.576414,-13.571883],[-41.575836,-13.571695],[-41.575257,-13.571506],[-41.574679,-13.571318],[-41.5741,-13.57113],[-41.573522,-13.570942],[-41.572943,-13.570753],[-41.572365,-13.570565],[-41.571786,-13.570377],[-41.571208,-13.570188],[-41.57063,-13.57],[-41.570051,-13.569812],[-41.569473,-13.569623],[-41.568894,-13.569435],[-41.568316,-13.569246],[-41.567738,-13.569058],[-41.56716,-13.56887],[-41.566581,-13.568681],[-41.566003,-13.568493],[-41.565425,-13.568304],[-41.564847,-13.568116],[-41.564268,-13.567927],[-41.56369,-13.567739],[-41.563112,-13.56755],[-41.562534,-13.567362],[-41.561956,-13.567173],[-41.561378,-13.566985],[-41.5608,-13.566796],[-41.560222,-13.566608],[-41.559644,-13.566419],[-41.559065,-13.56623],[-41.558487,-13.566042],[-41.557909,-13.565853],[-41.557331,-13.565665],[-41.556753,-13.565476],[-41.556176,-13.565287],[-41.555598,-13.565099],[-41.55502,-13.56491],[-41.554442,-13.564721],[-41.553864,-13.564533],[-41.553286,-13.564344],[-41.552708,-13.564155],[-41.55213,-13.563966],[-41.551553,-13.563778],[-41.550975,-13.563589],[-41.550397,-13.5634],[-41.549819,-13.563211],[-41.549242,-13.563023],[-41.548664,-13.562834],[-41.548086,-13.562645],[-41.547508,-13.562456],[-41.546931,-13.562267],[-41.546353,-13.562078],[-41.545775,-13.561889],[-41.545198,-13.561701],[-41.54462,-13.561512],[-41.544043,-13.561323],[-41.543465,-13.561134],[-41.542887,-13.560945],[-41.54231,-13.560756],[-41.541732,-13.560567],[-41.541155,-13.560378],[-41.540577,-13.560189],[-41.54,-13.56]]]}},
{"type":"Feature","properties":{"nome":"LT 500 kV JUSSIAPE / IBICOARA C 1 BA","tensao_kv":500,"situacao":"Planejada","classe":"Planejada com 500 kV","agente":"TRANSMISSORA ALIANÇA DE ENERGIA ELÉTRICA S A","rede":"BASICA","dt_entrada":null,"dt_previst":"30/12/2022","outorga":"01/2024","ext_ti_km":17.88},"geometry":{"type":"MultiLineString","coordinates":[[[-41.54,-13.56],[-41.534254,-13.555728],[-41.528509,-13.551455],[-41.522763,-13.547183],[-41.517018,-13.54291],[-41.511274,-13.538637],[-41.505529,-13.534364],[-41.499785,-13.53009],[-41.494041,-13.525817],[-41.488297,-13.521543],[-41.482553,-13.51727],[-41.47681,-13.512996],[-41.471067,-13.508722],[-41.465324,-13.504447],[-41.459581,-13.500173],[-41.453839,-13.495898],[-41.448097,-13.491624],[-41.442355,-13.487349],[-41.436614,-13.483074],[-41.430872,-13.478799],[-41.425131,-13.474523],[-41.41939,-13.470248],[-41.41365,-13.465972],[-41.408508,-13.462142]]]}},
{"type":"Feature","properties":{"nome":"LT 500 kV JUSSIAPE / OUROLANDIA II C 1 BA","tensao_kv":500,"situacao":"Planejada","classe":"Planejada com 500 kV","agente":"GRANDE SERTAO III TRANSMISSORA DE ENERGIA S/A.","rede":"BASICA","dt_entrada":null,"dt_previst":"30/12/2029","outorga":"001/2024","ext_ti_km":251.33},"geometry":{"type":"MultiLineString","coordinates":[[[-41.54,-13.56],[-41.539333,-13.551141],[-41.538666,-13.542282],[-41.537999,-13.533423],[-41.537332,-13.524564],[-41.536665,-13.515706],[-41.535998,-13.506847],[-41.535331,-13.497988],[-41.534664,-13.489129],[-41.533997,-13.48027],[-41.53333,-13.471411],[-41.532664,-13.462552],[-41.531997,-13.453693],[-41.53133,-13.444834],[-41.530664,-13.435975],[-41.529997,-13.427116],[-41.529331,-13.418257],[-41.528665,-13.409398],[-41.527998,-13.400539],[-41.527332,-13.39168],[-41.526666,-13.382821],[-41.526,-13.373962],[-41.525333,-13.365103],[-41.524667,-13.356244],[-41.524001,-13.347385],[-41.523335,-13.338526],[-41.522669,-13.329667],[-41.522003,-13.320807],[-41.521338,-13.311948],[-41.520672,-13.303089],[-41.520006,-13.29423],[-41.51934,-13.285371],[-41.518675,-13.276512],[-41.518009,-13.267653],[-41.517344,-13.258794],[-41.516678,-13.249934],[-41.516013,-13.241075],[-41.515347,-13.232216],[-41.514682,-13.223357],[-41.514017,-13.214498],[-41.513351,-13.205639],[-41.512686,-13.196779],[-41.512021,-13.18792],[-41.511356,-13.179061],[-41.510691,-13.170202],[-41.510026,-13.161343],[-41.509361,-13.152483],[-41.508696,-13.143624],[-41.508031,-13.134765],[-41.507366,-13.125906],[-41.506701,-13.117046],[-41.506037,-13.108187],[-41.505372,-13.099328],[-41.504707,-13.090468],[-41.504043,-13.081609],[-41.503378,-13.07275],[-41.502714,-13.06389],[-41.502049,-13.055031],[-41.501385,-13.046172],[-41.500721,-13.037312],[-41.500056,-13.028453],[-41.499392,-13.019594],[-41.498728,-13.010734],[-41.498064,-13.001875],[-41.4974,-12.993016],[-41.496736,-12.984156],[-41.496072,-12.975297],[-41.495408,-12.966437],[-41.494744,-12.957578],[-41.49408,-12.948719],[-41.493416,-12.939859],[-41.492752,-12.931],[-41.492089,-12.92214],[-41.491425,-12.913281],[-41.490761,-12.904421],[-41.490098,-12.895562],[-41.489434,-12.886702],[-41.488771,-12.877843],[-41.488107,-12.868983],[-41.487444,-12.860124],[-41.486781,-12.851264],[-41.486117,-12.842405],[-41.485454,-12.833545],[-41.484791,-12.824686],[-41.484128,-12.815826],[-41.483465,-12.806967],[-41.482801,-12.798107],[-41.482138,-12.789248],[-41.481476,-12.780388],[-41.480813,-12.771529],[-41.48015,-12.762669],[-41.479487,-12.753809],[-41.478824,-12.74495],[-41.478161,-12.73609],[-41.477499,-12.727231],[-41.476836,-12.718371],[-41.476174,-12.709511],[-41.475511,-12.700652],[-41.474848,-12.691792],[-41.474186,-12.682932],[-41.473524,-12.674073],[-41.472861,-12.665213],[-41.472199,-12.656353],[-41.471537,-12.647494],[-41.470875,-12.638634],[-41.470212,-12.629774],[-41.46955,-12.620915],[-41.468888,-12.612055],[-41.468226,-12.603195],[-41.467564,-12.594335],[-41.466902,-12.585476],[-41.46624,-12.576616],[-41.465578,-12.567756],[-41.464917,-12.558896],[-41.464255,-12.550037],[-41.463593,-12.541177],[-41.462932,-12.532317],[-41.46227,-12.523457],[-41.461608,-12.514597],[-41.460947,-12.505738],[-41.460285,-12.496878],[-41.459624,-12.488018],[-41.458963,-12.479158],[-41.458301,-12.470298],[-41.45764,-12.461439],[-41.456979,-12.452579],[-41.456317,-12.443719],[-41.455656,-12.434859],[-41.454995,-12.425999],[-41.454334,-12.417139],[-41.453673,-12.408279],[-41.453012,-12.399419],[-41.452351,-12.39056],[-41.45169,-12.3817],[-41.451029,-12.37284],[-41.450369,-12.36398],[-41.449708,-12.35512],[-41.449047,-12.34626],[-41.448387,-12.3374],[-41.447726,-12.32854],[-41.447065,-12.31968],[-41.446405,-12.31082],[-41.445744,-12.30196],[-41.445084,-12.2931],[-41.444424,-12.28424],[-41.443763,-12.27538],[-41.443103,-12.26652],[-41.442443,-12.25766],[-41.441782,-12.2488],[-41.441122,-12.23994],[-41.440462,-12.23108],[-41.439802,-12.22222],[-41.439142,-12.21336],[-41.438482,-12.2045],[-41.437822,-12.19564],[-41.437162,-12.18678],[-41.436502,-12.17792],[-41.435843,-12.16906],[-41.435183,-12.160199],[-41.434523,-12.151339],[-41.433863,-12.142479],[-41.433204,-12.133621]],[[-41.422915,-11.995347],[-41.422656,-11.991856],[-41.421997,-11.982996],[-41.421338,-11.974136],[-41.420679,-11.965275],[-41.42002,-11.956415],[-41.419362,-11.947555],[-41.418703,-11.938695],[-41.418044,-11.929834],[-41.417386,-11.920974],[-41.416727,-11.912114],[-41.416069,-11.903253],[-41.41541,-11.894393],[-41.414752,-11.885533],[-41.414094,-11.876672],[-41.413435,-11.867812],[-41.412777,-11.858952],[-41.412119,-11.850091],[-41.411854,-11.846524]],[[-41.398832,-11.671116],[-41.398306,-11.664022],[-41.397648,-11.655162],[-41.396991,-11.646301],[-41.396334,-11.637441],[-41.395677,-11.62858],[-41.39502,-11.61972],[-41.394363,-11.610859],[-41.393706,-11.601999],[-41.393049,-11.593138],[-41.392392,-11.584278],[-41.391735,-11.575417],[-41.391078,-11.566556],[-41.390421,-11.557696],[-41.389764,-11.548835],[-41.389107,-11.539975],[-41.388451,-11.531114],[-41.387794,-11.522253],[-41.387137,-11.513393],[-41.386481,-11.504532],[-41.385824,-11.495672],[-41.385168,-11.486811],[-41.384511,-11.47795],[-41.383855,-11.46909],[-41.383199,-11.460229],[-41.382542,-11.451368],[-41.381886,-11.442508],[-41.38123,-11.433647],[-41.380573,-11.424786],[-41.379917,-11.415926],[-41.379261,-11.407065],[-41.378605,-11.398204],[-41.377949,-11.389343],[-41.377293,-11.380483],[-41.376637,-11.371622],[-41.375981,-11.362761],[-41.375325,-11.353901],[-41.374669,-11.34504],[-41.374014,-11.336179],[-41.373737,-11.33244]],[[-41.373092,-11.323724],[-41.372702,-11.318457],[-41.372046,-11.309597],[-41.371391,-11.300736],[-41.370952,-11.294806]],[[-41.369165,-11.270644],[-41.368769,-11.265293],[-41.368727,-11.264728]],[[-41.365311,-11.218542],[-41.364877,-11.212671]],[[-41.364414,-11.206413],[-41.364182,-11.203267],[-41.363526,-11.194406],[-41.363012,-11.187445]],[[-41.362902,-11.185959],[-41.362871,-11.185545],[-41.362216,-11.176684],[-41.361561,-11.167823],[-41.360906,-11.158962],[-41.360251,-11.150102],[-41.359596,-11.141241],[-41.358941,-11.13238],[-41.358287,-11.123519],[-41.357632,-11.114658],[-41.356977,-11.105797],[-41.356322,-11.096936],[-41.355668,-11.088075],[-41.355013,-11.079214],[-41.354359,-11.070353],[-41.353704,-11.061492],[-41.35305,-11.052631],[-41.352395,-11.04377],[-41.351741,-11.034909],[-41.351086,-11.026048],[-41.350432,-11.017187],[-41.349778,-11.008326],[-41.349123,-10.999465],[-41.348469,-10.990604],[-41.347815,-10.981743],[-41.347161,-10.972882],[-41.346507,-10.964021],[-41.345853,-10.95516],[-41.345199,-10.946299],[-41.344545,-10.937438],[-41.343891,-10.928577],[-41.323893,-10.89968]]]}},
{"type":"Feature","properties":{"nome":"LT 500 kV JUSSIAPE / OUROLANDIA II C 2 BA","tensao_kv":500,"situacao":"Planejada","classe":"Planejada com 500 kV","agente":"GRANDE SERTAO III TRANSMISSORA DE ENERGIA S/A.","rede":"BASICA","dt_entrada":null,"dt_previst":"30/12/2029","outorga":"001/2024","ext_ti_km":271.79},"geometry":{"type":"MultiLineString","coordinates":[[[-41.54,-13.56],[-41.524746,-13.530428],[-41.52409,-13.521665],[-41.523435,-13.512903],[-41.52278,-13.50414],[-41.522125,-13.495378],[-41.52147,-13.486615],[-41.520814,-13.477852],[-41.520159,-13.46909],[-41.519504,-13.460327],[-41.518849,-13.451565],[-41.518195,-13.442802],[-41.51754,-13.434039],[-41.516885,-13.425277],[-41.51623,-13.416514],[-41.515575,-13.407751],[-41.514921,-13.398989],[-41.514266,-13.390226],[-41.513612,-13.381463],[-41.512957,-13.372701],[-41.512303,-13.363938],[-41.511648,-13.355175],[-41.510994,-13.346413],[-41.510339,-13.33765],[-41.509685,-13.328887],[-41.509031,-13.320125],[-41.508377,-13.311362],[-41.507723,-13.302599],[-41.507069,-13.293836],[-41.506415,-13.285074],[-41.505761,-13.276311],[-41.505107,-13.267548],[-41.504453,-13.258785],[-41.503799,-13.250022],[-41.503145,-13.24126],[-41.502491,-13.232497],[-41.501838,-13.223734],[-41.501184,-13.214971],[-41.500531,-13.206208],[-41.499877,-13.197446],[-41.499224,-13.188683],[-41.49857,-13.17992],[-41.497917,-13.171157],[-41.497263,-13.162394],[-41.49661,-13.153631],[-41.495957,-13.144868],[-41.495304,-13.136105],[-41.49465,-13.127343],[-41.493997,-13.11858],[-41.493344,-13.109817],[-41.492691,-13.101054],[-41.492038,-13.092291],[-41.491385,-13.083528],[-41.490733,-13.074765],[-41.49008,-13.066002],[-41.489427,-13.057239],[-41.488774,-13.048476],[-41.488122,-13.039713],[-41.487469,-13.03095],[-41.486816,-13.022187],[-41.486164,-13.013424],[-41.485511,-13.004661],[-41.484859,-12.995898],[-41.484206,-12.987135],[-41.483554,-12.978372],[-41.482902,-12.969609],[-41.48225,-12.960846],[-41.481597,-12.952083],[-41.480945,-12.94332],[-41.480293,-12.934557],[-41.479641,-12.925794],[-41.478989,-12.917031],[-41.478337,-12.908268],[-41.477685,-12.899504],[-41.477033,-12.890741],[-41.476381,-12.881978],[-41.47573,-12.873215],[-41.475078,-12.864452],[-41.474426,-12.855689],[-41.473775,-12.846926],[-41.473123,-12.838162],[-41.472471,-12.829399],[-41.47182,-12.820636],[-41.471169,-12.811873],[-41.470517,-12.80311],[-41.469866,-12.794347],[-41.469214,-12.785583],[-41.468563,-12.77682],[-41.467912,-12.768057],[-41.467261,-12.759294],[-41.46661,-12.750531],[-41.465959,-12.741767],[-41.465308,-12.733004],[-41.464657,-12.724241],[-41.464006,-12.715477],[-41.463355,-12.706714],[-41.462704,-12.697951],[-41.462053,-12.689188],[-41.461402,-12.680424],[-41.460752,-12.671661],[-41.460101,-12.662898],[-41.45945,-12.654134],[-41.4588,-12.645371],[-41.458149,-12.636608],[-41.457499,-12.627844],[-41.456848,-12.619081],[-41.456198,-12.610318],[-41.455548,-12.601554],[-41.454897,-12.592791],[-41.454247,-12.584028],[-41.453597,-12.575264],[-41.452947,-12.566501],[-41.452297,-12.557737],[-41.451647,-12.548974],[-41.450996,-12.540211],[-41.450347,-12.531447],[-41.449697,-12.522684],[-41.449047,-12.51392],[-41.448397,-12.505157],[-41.447747,-12.496393],[-41.447097,-12.48763],[-41.446448,-12.478867],[-41.445798,-12.470103],[-41.445148,-12.46134],[-41.444499,-12.452576],[-41.443849,-12.443813],[-41.4432,-12.435049],[-41.44255,-12.426286],[-41.441901,-12.417522],[-41.441252,-12.408759],[-41.440602,-12.399995],[-41.439953,-12.391231],[-41.439304,-12.382468],[-41.438655,-12.373704],[-41.438006,-12.364941],[-41.437356,-12.356177],[-41.436707,-12.347414],[-41.436058,-12.33865],[-41.435409,-12.329886],[-41.434761,-12.321123],[-41.434112,-12.312359],[-41.433463,-12.303596],[-41.432814,-12.294832],[-41.432165,-12.286068],[-41.431517,-12.277305],[-41.430868,-12.268541],[-41.43022,-12.259777],[-41.429571,-12.251014],[-41.428923,-12.24225],[-41.428274,-12.233486],[-41.427626,-12.224723],[-41.426977,-12.215959],[-41.426329,-12.207195],[-41.425681,-12.198432],[-41.425032,-12.189668],[-41.424384,-12.180904],[-41.423736,-12.172141],[-41.423088,-12.163377],[-41.42244,-12.154613],[-41.421792,-12.145849],[-41.421508,-12.142007]],[[-41.41277,-12.023777],[-41.412724,-12.023156],[-41.412234,-12.016521]],[[-41.41198,-12.013086],[-41.41143,-12.005628],[-41.410782,-11.996865],[-41.410135,-11.988101],[-41.409488,-11.979337],[-41.408841,-11.970573],[-41.408194,-11.961809],[-41.407547,-11.953045],[-41.4069,-11.944281],[-41.406253,-11.935517],[-41.405606,-11.926753],[-41.404959,-11.917989],[-41.404312,-11.909226],[-41.403665,-11.900462],[-41.403018,-11.891698],[-41.402372,-11.882934],[-41.401725,-11.87417],[-41.401078,-11.865406],[-41.400432,-11.856642],[-41.399785,-11.847878],[-41.399139,-11.839114],[-41.398492,-11.83035],[-41.397846,-11.821586],[-41.3972,-11.812822],[-41.396553,-11.804058],[-41.395907,-11.795294],[-41.395261,-11.78653],[-41.394615,-11.777766],[-41.394613,-11.77775]],[[-41.387567,-11.682147],[-41.387509,-11.681361],[-41.386863,-11.672596],[-41.386218,-11.663832],[-41.385572,-11.655068],[-41.384927,-11.646304],[-41.384281,-11.63754],[-41.383635,-11.628776],[-41.38299,-11.620012],[-41.382345,-11.611247],[-41.381699,-11.602483],[-41.381054,-11.593719],[-41.380409,-11.584955],[-41.379763,-11.576191],[-41.379118,-11.567426],[-41.378473,-11.558662],[-41.377828,-11.549898],[-41.377183,-11.541134],[-41.376538,-11.532369],[-41.375893,-11.523605],[-41.375248,-11.514841],[-41.374603,-11.506077],[-41.373958,-11.497312],[-41.373313,-11.488548],[-41.372668,-11.479784],[-41.372024,-11.47102],[-41.371379,-11.462255],[-41.370734,-11.453491],[-41.37009,-11.444727],[-41.369445,-11.435962],[-41.368801,-11.427198],[-41.368156,-11.418434],[-41.367512,-11.409669],[-41.366867,-11.400905],[-41.366223,-11.392141],[-41.365579,-11.383376],[-41.364934,-11.374612],[-41.36429,-11.365848],[-41.363646,-11.357083],[-41.363002,-11.348319],[-41.362357,-11.339554],[-41.361713,-11.33079],[-41.361069,-11.322026],[-41.360425,-11.313261],[-41.359781,-11.304497],[-41.359137,-11.295732],[-41.358494,-11.286968],[-41.35785,-11.278204],[-41.357206,-11.269439],[-41.356562,-11.260675],[-41.355918,-11.25191],[-41.355275,-11.243146],[-41.354631,-11.234381],[-41.353987,-11.225617],[-41.353344,-11.216852],[-41.3527,-11.208088],[-41.352057,-11.199323],[-41.351413,-11.190559],[-41.35077,-11.181794],[-41.350127,-11.17303],[-41.349483,-11.164265],[-41.34884,-11.155501],[-41.348197,-11.146736],[-41.347554,-11.137972],[-41.34691,-11.129207],[-41.346267,-11.120443],[-41.345624,-11.111678],[-41.344981,-11.102913],[-41.344338,-11.094149],[-41.343695,-11.085384],[-41.343052,-11.07662],[-41.342409,-11.067855],[-41.341766,-11.05909],[-41.341124,-11.050326],[-41.340481,-11.041561],[-41.339838,-11.032797],[-41.339195,-11.024032],[-41.338553,-11.015267],[-41.33791,-11.006503],[-41.337268,-10.997738],[-41.336625,-10.988973],[-41.335982,-10.980209],[-41.33534,-10.971444],[-41.334698,-10.962679],[-41.334055,-10.953915],[-41.333413,-10.94515],[-41.332771,-10.936385],[-41.312523,-10.900989]]]}},
{"type":"Feature","properties":{"nome":"LT 500 kV JUSSIAPE / S J DO PARAISO C 1 BA/MG","tensao_kv":500,"situacao":"Planejada","classe":"Planejada com 500 kV","agente":"GRANDE SERTAO II TRANSMISSORA DE ENERGIA S/A","rede":"BASICA","dt_entrada":null,"dt_previst":"30/12/2029","outorga":"01/2024","ext_ti_km":26.01},"geometry":{"type":"MultiLineString","coordinates":[[[-41.54,-13.56],[-41.561,-13.588965],[-41.562285,-13.597795],[-41.56357,-13.606626],[-41.564855,-13.615456],[-41.56614,-13.624286],[-41.567426,-13.633116],[-41.568711,-13.641946],[-41.569996,-13.650776],[-41.571282,-13.659607],[-41.571468,-13.660888]],[[-41.580805,-13.724994],[-41.58157,-13.730247],[-41.582857,-13.739077],[-41.584143,-13.747907],[-41.58543,-13.756737],[-41.586717,-13.765567],[-41.588004,-13.774397],[-41.589291,-13.783227],[-41.590578,-13.792057],[-41.591865,-13.800887],[-41.593152,-13.809717],[-41.594439,-13.818547],[-41.595727,-13.827377],[-41.597014,-13.836206],[-41.598302,-13.845036],[-41.599128,-13.8507]]]}},
{"type":"Feature","properties":{"nome":"LT 500 kV JUSSIAPE / S J DO PARAISO C 2 BA/MG","tensao_kv":500,"situacao":"Planejada","classe":"Planejada com 500 kV","agente":"GRANDE SERTAO II TRANSMISSORA DE ENERGIA S/A","rede":"BASICA","dt_entrada":null,"dt_previst":"30/12/2029","outorga":"01/2024","ext_ti_km":26.08},"geometry":{"type":"MultiLineString","coordinates":[[[-41.54,-13.56],[-41.558475,-13.573491],[-41.576949,-13.586983],[-41.578214,-13.595849],[-41.579479,-13.604716],[-41.580744,-13.613582],[-41.582009,-13.622449],[-41.583275,-13.631315],[-41.58454,-13.640182],[-41.585805,-13.649048],[-41.587071,-13.657915],[-41.587451,-13.660577]],[[-41.59249,-13.695877],[-41.592882,-13.698619]],[[-41.594908,-13.712809],[-41.595932,-13.71998],[-41.597199,-13.728847],[-41.598465,-13.737713],[-41.599732,-13.746579],[-41.600998,-13.755446],[-41.602265,-13.764312],[-41.603532,-13.773178],[-41.604799,-13.782045],[-41.606066,-13.790911],[-41.607333,-13.799777],[-41.6086,-13.808644],[-41.609868,-13.81751],[-41.610982,-13.825305]]]}},
{"type":"Feature","properties":{"nome":"LT 500 kV MORRO CHAPEU II / POCOES III C F1 BA","tensao_kv":500,"situacao":"Operação","classe":"Operação com 500 kV","agente":"NEOENERGIA MORRO DO CHAPEU TRANSMISSAO E ENERGIA S.A.","rede":"BASICA","dt_entrada":"12/05/2024","dt_previst":"31/03/2026","outorga":"001/2020","ext_ti_km":185.39},"geometry":{"type":"MultiLineString","coordinates":[[[-41.350596,-11.724734],[-41.348045,-11.732322],[-41.345207,-11.740769],[-41.342368,-11.749215],[-41.339529,-11.757662],[-41.336689,-11.766108],[-41.33385,-11.774554],[-41.33101,-11.783],[-41.32817,-11.791447],[-41.32533,-11.799893],[-41.32249,-11.808339],[-41.31965,-11.816785],[-41.316809,-11.825231],[-41.313969,-11.833677],[-41.311128,-11.842123],[-41.308286,-11.850569],[-41.305445,-11.859015],[-41.302604,-11.867461],[-41.299762,-11.875907],[-41.29692,-11.884353],[-41.294078,-11.892799],[-41.291236,-11.901245],[-41.288393,-11.90969],[-41.285551,-11.918136],[-41.282708,-11.926582],[-41.279865,-11.935027],[-41.277021,-11.943473],[-41.274178,-11.951919],[-41.271335,-11.960364],[-41.268491,-11.96881],[-41.265647,-11.977255],[-41.262803,-11.9857],[-41.259958,-11.994146],[-41.257114,-12.002591],[-41.254269,-12.011037],[-41.251424,-12.019482],[-41.248579,-12.027927],[-41.245734,-12.036372],[-41.242888,-12.044818],[-41.240043,-12.053263],[-41.237197,-12.061708],[-41.234351,-12.070153],[-41.231504,-12.078598],[-41.228658,-12.087043],[-41.225811,-12.095488],[-41.222965,-12.103933],[-41.220118,-12.112378],[-41.21727,-12.120823],[-41.214423,-12.129268],[-41.211575,-12.137713],[-41.208728,-12.146157],[-41.20588,-12.154602],[-41.203032,-12.163047],[-41.200183,-12.171492],[-41.197335,-12.179936],[-41.194486,-12.188381],[-41.191637,-12.196825],[-41.188788,-12.20527],[-41.185939,-12.213714],[-41.183089,-12.222159],[-41.180239,-12.230603],[-41.177389,-12.239048],[-41.174539,-12.247492],[-41.171689,-12.255936],[-41.168839,-12.264381],[-41.165988,-12.272825],[-41.163137,-12.281269],[-41.160286,-12.289713],[-41.157435,-12.298158],[-41.154583,-12.306602],[-41.151732,-12.315046],[-41.14888,-12.32349],[-41.146028,-12.331934],[-41.143176,-12.340378],[-41.140323,-12.348822],[-41.137471,-12.357266],[-41.135669,-12.362598]],[[-41.098656,-12.472098],[-41.097513,-12.475477],[-41.094658,-12.48392],[-41.091802,-12.492364],[-41.088946,-12.500807],[-41.08609,-12.50925],[-41.083233,-12.517693],[-41.080377,-12.526137],[-41.07752,-12.53458],[-41.074663,-12.543023],[-41.071806,-12.551466],[-41.068949,-12.559909],[-41.066091,-12.568352],[-41.063233,-12.576795],[-41.060375,-12.585238],[-41.057517,-12.593681],[-41.054659,-12.602124],[-41.0518,-12.610567],[-41.048942,-12.619009],[-41.046083,-12.627452],[-41.043223,-12.635895],[-41.040364,-12.644338],[-41.037504,-12.65278],[-41.034645,-12.661223],[-41.031785,-12.669666],[-41.028925,-12.678108],[-41.026064,-12.686551],[-41.023204,-12.694993],[-41.020343,-12.703436],[-41.017482,-12.711878],[-41.014621,-12.72032],[-41.011759,-12.728763],[-41.008898,-12.737205],[-41.006036,-12.745647],[-41.003174,-12.754089],[-41.000312,-12.762532],[-40.997449,-12.770974],[-40.994587,-12.779416],[-40.991724,-12.787858],[-40.988861,-12.7963],[-40.985998,-12.804742],[-40.983134,-12.813184],[-40.980271,-12.821626],[-40.979988,-12.822458]],[[-40.911052,-13.025489],[-40.908614,-13.032662],[-40.905745,-13.041103],[-40.902876,-13.049544],[-40.900006,-13.057985],[-40.897137,-13.066426],[-40.894267,-13.074867],[-40.891397,-13.083307],[-40.888526,-13.091748],[-40.885656,-13.100189],[-40.882785,-13.108629],[-40.879915,-13.11707],[-40.877043,-13.125511],[-40.874172,-13.133951],[-40.871301,-13.142392],[-40.868429,-13.150832],[-40.865557,-13.159273],[-40.862685,-13.167713],[-40.859813,-13.176153],[-40.85694,-13.184594],[-40.854067,-13.193034],[-40.851194,-13.201474],[-40.848321,-13.209914],[-40.845448,-13.218355],[-40.842574,-13.226795],[-40.839701,-13.235235],[-40.836827,-13.243675],[-40.833952,-13.252115],[-40.831078,-13.260555],[-40.828203,-13.268995],[-40.825328,-13.277435],[-40.822453,-13.285875],[-40.819578,-13.294314],[-40.816702,-13.302754],[-40.813827,-13.311194],[-40.810951,-13.319634],[-40.808075,-13.328073],[-40.805198,-13.336513],[-40.802322,-13.344953],[-40.799445,-13.353392],[-40.796568,-13.361832],[-40.793691,-13.370271],[-40.790813,-13.378711],[-40.787936,-13.38715],[-40.785058,-13.395589],[-40.78218,-13.404029],[-40.779302,-13.412468],[-40.776423,-13.420907],[-40.773544,-13.429346],[-40.770665,-13.437786],[-40.767786,-13.446225],[-40.764907,-13.454664],[-40.762027,-13.463103],[-40.759148,-13.471542],[-40.756268,-13.479981],[-40.753387,-13.48842],[-40.750507,-13.496859],[-40.747626,-13.505298],[-40.744745,-13.513736],[-40.741864,-13.522175],[-40.738983,-13.530614],[-40.736101,-13.539053],[-40.73322,-13.547491],[-40.730338,-13.55593],[-40.727456,-13.564368],[-40.724573,-13.572807],[-40.721691,-13.581246],[-40.718808,-13.589684],[-40.715925,-13.598122],[-40.713041,-13.606561],[-40.710158,-13.614999],[-40.707274,-13.623437],[-40.706043,-13.627041]],[[-40.703298,-13.635071],[-40.703174,-13.635435]]]}},
{"type":"Feature","properties":{"nome":"LT 500 kV MORRO CHAPEU II / POCOES III C F2 BA","tensao_kv":500,"situacao":"Operação","classe":"Operação com 500 kV","agente":"ASA BRANCA TRANSMISSORA DE ENERGIA S.A.","rede":"BASICA","dt_entrada":"26/11/2025","dt_previst":"06/11/2025","outorga":"01/2023","ext_ti_km":174.56},"geometry":{"type":"MultiLineString","coordinates":[[[-41.350186,-11.724462],[-41.323827,-11.746574],[-41.320978,-11.755018],[-41.318129,-11.763461],[-41.315279,-11.771904],[-41.31243,-11.780348],[-41.30958,-11.788791],[-41.306729,-11.797234],[-41.303879,-11.805678],[-41.301029,-11.814121],[-41.298178,-11.822564],[-41.295327,-11.831007],[-41.292476,-11.83945],[-41.289625,-11.847893],[-41.286773,-11.856336],[-41.283922,-11.864779],[-41.28107,-11.873222],[-41.278218,-11.881665],[-41.275366,-11.890108],[-41.272513,-11.898551],[-41.269661,-11.906994],[-41.266808,-11.915437],[-41.263955,-11.923879],[-41.261102,-11.932322],[-41.258249,-11.940765],[-41.255395,-11.949207],[-41.252542,-11.95765],[-41.249688,-11.966093],[-41.246834,-11.974535],[-41.24398,-11.982978],[-41.241125,-11.99142],[-41.23827,-11.999863],[-41.235416,-12.008305],[-41.232561,-12.016747],[-41.229705,-12.02519],[-41.22685,-12.033632],[-41.223995,-12.042074],[-41.221139,-12.050517],[-41.218283,-12.058959],[-41.215427,-12.067401],[-41.21257,-12.075843],[-41.209714,-12.084285],[-41.206857,-12.092727],[-41.204,-12.101169],[-41.201143,-12.109611],[-41.198286,-12.118053],[-41.195428,-12.126495],[-41.192571,-12.134937],[-41.189713,-12.143379],[-41.186855,-12.151821],[-41.183997,-12.160263],[-41.181138,-12.168704],[-41.178279,-12.177146],[-41.175421,-12.185588],[-41.172562,-12.19403],[-41.169702,-12.202471],[-41.166843,-12.210913],[-41.163983,-12.219354],[-41.161124,-12.227796],[-41.158264,-12.236237],[-41.155404,-12.244679],[-41.152543,-12.25312],[-41.149683,-12.261562],[-41.146822,-12.270003],[-41.143961,-12.278444],[-41.1411,-12.286885],[-41.138238,-12.295327],[-41.135377,-12.303768],[-41.132515,-12.312209],[-41.129653,-12.32065],[-41.126791,-12.329091],[-41.123929,-12.337532],[-41.121066,-12.345973],[-41.1208,-12.34676]],[[-41.079895,-12.467312],[-41.078105,-12.472584],[-41.07524,-12.481025],[-41.072374,-12.489465],[-41.069508,-12.497906],[-41.066642,-12.506346],[-41.063775,-12.514786],[-41.060909,-12.523227],[-41.058042,-12.531667],[-41.055175,-12.540107],[-41.052307,-12.548547],[-41.04944,-12.556987],[-41.046572,-12.565427],[-41.043705,-12.573867],[-41.040837,-12.582307],[-41.037968,-12.590747],[-41.0351,-12.599187],[-41.032231,-12.607627],[-41.029362,-12.616067],[-41.026493,-12.624507],[-41.023624,-12.632947],[-41.020755,-12.641386],[-41.017885,-12.649826],[-41.015015,-12.658266],[-41.012145,-12.666706],[-41.009275,-12.675145],[-41.006405,-12.683585],[-41.003534,-12.692024],[-41.000663,-12.700464],[-40.997792,-12.708903],[-40.994921,-12.717343],[-40.992049,-12.725782],[-40.989178,-12.734221],[-40.986306,-12.742661],[-40.983434,-12.7511],[-40.980562,-12.759539],[-40.977689,-12.767979],[-40.974816,-12.776418],[-40.972589,-12.782961]],[[-40.969888,-12.790894],[-40.969071,-12.793296],[-40.968351,-12.79541]],[[-40.893443,-13.015209],[-40.89142,-13.021138],[-40.888542,-13.029576],[-40.885663,-13.038014],[-40.882783,-13.046452],[-40.879904,-13.05489],[-40.877024,-13.063328],[-40.874144,-13.071765],[-40.871264,-13.080203],[-40.868384,-13.088641],[-40.865504,-13.097079],[-40.862623,-13.105517],[-40.859742,-13.113954],[-40.856861,-13.122392],[-40.85398,-13.130829],[-40.851098,-13.139267],[-40.848216,-13.147705],[-40.845334,-13.156142],[-40.842452,-13.164579],[-40.83957,-13.173017],[-40.836687,-13.181454],[-40.833804,-13.189892],[-40.830921,-13.198329],[-40.828038,-13.206766],[-40.825155,-13.215203],[-40.822271,-13.223641],[-40.819387,-13.232078],[-40.816503,-13.240515],[-40.813619,-13.248952],[-40.810735,-13.257389],[-40.80785,-13.265826],[-40.804965,-13.274263],[-40.80208,-13.2827],[-40.799194,-13.291137],[-40.796309,-13.299573],[-40.793423,-13.30801],[-40.790537,-13.316447],[-40.787651,-13.324884],[-40.784765,-13.33332],[-40.781878,-13.341757],[-40.778991,-13.350194],[-40.776578,-13.357246]],[[-40.759201,-13.408011],[-40.758778,-13.409249],[-40.755889,-13.417685],[-40.753,-13.426121],[-40.750111,-13.434558],[-40.747222,-13.442994],[-40.744333,-13.45143],[-40.741443,-13.459866],[-40.738553,-13.468302],[-40.735663,-13.476738],[-40.732773,-13.485174],[-40.729883,-13.49361],[-40.726992,-13.502046],[-40.724101,-13.510482],[-40.72121,-13.518918],[-40.718318,-13.527353],[-40.715427,-13.535789],[-40.712535,-13.544225],[-40.709643,-13.55266],[-40.706751,-13.561096],[-40.703859,-13.569532],[-40.700966,-13.577967],[-40.698073,-13.586403],[-40.69518,-13.594838],[-40.692287,-13.603274],[-40.689987,-13.609979]]]}},
{"type":"Feature","properties":{"nome":"LT 230 kV BABILONIA SUL / OUROLANDIA II C P4 BA","tensao_kv":230,"situacao":"Operação","classe":"Operação com 230 kV","agente":"Casa dos Ventos Energias Renováveis SA","rede":"COMPLEMENTAR","dt_entrada":"17/11/2022","dt_previst":"30/09/2023","outorga":null,"ext_ti_km":11.05},"geometry":{"type":"MultiLineString","coordinates":[[[-41.29075,-11.119599],[-41.304185,-11.105991],[-41.302711,-11.096937]],[[-41.285685,-10.992373],[-41.274153,-10.921553]]]}}
]
}
