{
"type": "FeatureCollection",
"xy_coordinate_resolution": 1e-06,
"features": [
{"type":"Feature","properties":{"municipio":"Abaíra","cod_ibge":"2900108","nome_orig":"Abairá","n_orig":1,"latitude":-13.265115,"longitude":-41.685066,"obs":null},"geometry":{"type":"Point","coordinates":[-41.685066,-13.265115]}},
{"type":"Feature","properties":{"municipio":"Andaraí","cod_ibge":"2901304","nome_orig":"Andaraí","n_orig":2,"latitude":-12.784676,"longitude":-41.303535,"obs":null},"geometry":{"type":"Point","coordinates":[-41.303535,-12.784676]}},
{"type":"Feature","properties":{"municipio":"Barra da Estiva","cod_ibge":"2902807","nome_orig":"Barra da Estiva","n_orig":3,"latitude":-13.640799,"longitude":-41.357399,"obs":null},"geometry":{"type":"Point","coordinates":[-41.357399,-13.640799]}},
{"type":"Feature","properties":{"municipio":"Boninal","cod_ibge":"2904001","nome_orig":"Boninal","n_orig":4,"latitude":-12.716228,"longitude":-41.847536,"obs":null},"geometry":{"type":"Point","coordinates":[-41.847536,-12.716228]}},
{"type":"Feature","properties":{"municipio":"Boninal","cod_ibge":"2904001","nome_orig":"Boninal_1","n_orig":5,"latitude":-12.726525,"longitude":-41.806467,"obs":null},"geometry":{"type":"Point","coordinates":[-41.806467,-12.726525]}},
{"type":"Feature","properties":{"municipio":"Boninal","cod_ibge":"2904001","nome_orig":"VCABoninal/BA","n_orig":143,"latitude":-12.716269,"longitude":-41.847543,"obs":"possível duplicata de ponto a <300 m (registro VCA)"},"geometry":{"type":"Point","coordinates":[-41.847543,-12.716269]}},
{"type":"Feature","properties":{"municipio":"Bonito","cod_ibge":"2904050","nome_orig":"Bonito","n_orig":6,"latitude":-11.939499,"longitude":-41.268503,"obs":null},"geometry":{"type":"Point","coordinates":[-41.268503,-11.939499]}},
{"type":"Feature","properties":{"municipio":"Ibicoara","cod_ibge":"2912202","nome_orig":"Ibicoara","n_orig":7,"latitude":-13.451832,"longitude":-41.299892,"obs":null},"geometry":{"type":"Point","coordinates":[-41.299892,-13.451832]}},
{"type":"Feature","properties":{"municipio":"Ibitiara","cod_ibge":"2913002","nome_orig":"Ibitiara","n_orig":8,"latitude":-12.601176,"longitude":-42.223244,"obs":null},"geometry":{"type":"Point","coordinates":[-42.223244,-12.601176]}},
{"type":"Feature","properties":{"municipio":"Iramaia","cod_ibge":"2914307","nome_orig":"Iramaia","n_orig":9,"latitude":-13.289971,"longitude":-40.947703,"obs":null},"geometry":{"type":"Point","coordinates":[-40.947703,-13.289971]}},
{"type":"Feature","properties":{"municipio":"Iraquara","cod_ibge":"2914406","nome_orig":"Iraguara","n_orig":10,"latitude":-12.22059,"longitude":-41.614446,"obs":null},"geometry":{"type":"Point","coordinates":[-41.614446,-12.22059]}},
{"type":"Feature","properties":{"municipio":"Itaetê","cod_ibge":"2915007","nome_orig":"Itaeté","n_orig":11,"latitude":-13.054315,"longitude":-40.939555,"obs":null},"geometry":{"type":"Point","coordinates":[-40.939555,-13.054315]}},
{"type":"Feature","properties":{"municipio":"Jussiape","cod_ibge":"2918605","nome_orig":"Jussiape","n_orig":12,"latitude":-13.412318,"longitude":-41.639035,"obs":null},"geometry":{"type":"Point","coordinates":[-41.639035,-13.412318]}},
{"type":"Feature","properties":{"municipio":"Lençóis","cod_ibge":"2919306","nome_orig":"Lençóis","n_orig":13,"latitude":-12.540254,"longitude":-41.367655,"obs":null},"geometry":{"type":"Point","coordinates":[-41.367655,-12.540254]}},
{"type":"Feature","properties":{"municipio":"Lençóis","cod_ibge":"2919306","nome_orig":"VCA  Lençóis/BA","n_orig":103,"latitude":-12.540115,"longitude":-41.367506,"obs":"possível duplicata de ponto a <300 m (registro VCA)"},"geometry":{"type":"Point","coordinates":[-41.367506,-12.540115]}},
{"type":"Feature","properties":{"municipio":"Marcionílio Souza","cod_ibge":"2920809","nome_orig":"Marcionílio Souza","n_orig":14,"latitude":-13.045935,"longitude":-40.721446,"obs":null},"geometry":{"type":"Point","coordinates":[-40.721446,-13.045935]}},
{"type":"Feature","properties":{"municipio":"Morro do Chapéu","cod_ibge":"2921708","nome_orig":"Cafarnaum","n_orig":161,"latitude":-11.63654,"longitude":-41.429978,"obs":"rotulado Cafarnaum, mas localizado em Morro do Chapéu"},"geometry":{"type":"Point","coordinates":[-41.429978,-11.63654]}},
{"type":"Feature","properties":{"municipio":"Morro do Chapéu","cod_ibge":"2921708","nome_orig":"Morro do Chapéu_1","n_orig":16,"latitude":-11.458887,"longitude":-40.863946,"obs":null},"geometry":{"type":"Point","coordinates":[-40.863946,-11.458887]}},
{"type":"Feature","properties":{"municipio":"Morro do Chapéu","cod_ibge":"2921708","nome_orig":"Morro do Chapéu_2","n_orig":15,"latitude":-11.51058,"longitude":-41.183985,"obs":null},"geometry":{"type":"Point","coordinates":[-41.183985,-11.51058]}},
{"type":"Feature","properties":{"municipio":"Morro do Chapéu","cod_ibge":"2921708","nome_orig":"Morro do Chápeu","n_orig":17,"latitude":-11.509546,"longitude":-40.78501,"obs":null},"geometry":{"type":"Point","coordinates":[-40.78501,-11.509546]}},
{"type":"Feature","properties":{"municipio":"Morro do Chapéu","cod_ibge":"2921708","nome_orig":"Morro do Chápeu","n_orig":18,"latitude":-11.977248,"longitude":-40.973577,"obs":null},"geometry":{"type":"Point","coordinates":[-40.973577,-11.977248]}},
{"type":"Feature","properties":{"municipio":"Mucugê","cod_ibge":"2921906","nome_orig":"Mucugê","n_orig":19,"latitude":-13.04983,"longitude":-41.416569,"obs":null},"geometry":{"type":"Point","coordinates":[-41.416569,-13.04983]}},
{"type":"Feature","properties":{"municipio":"Nova Redenção","cod_ibge":"2922854","nome_orig":"Nova Redenção","n_orig":20,"latitude":-12.844029,"longitude":-41.073764,"obs":null},"geometry":{"type":"Point","coordinates":[-41.073764,-12.844029]}},
{"type":"Feature","properties":{"municipio":"Novo Horizonte","cod_ibge":"2923035","nome_orig":"Novo Horizonte","n_orig":21,"latitude":-12.81836,"longitude":-42.190176,"obs":null},"geometry":{"type":"Point","coordinates":[-42.190176,-12.81836]}},
{"type":"Feature","properties":{"municipio":"Novo Horizonte","cod_ibge":"2923035","nome_orig":"Novo Horizonte_2","n_orig":22,"latitude":-12.784648,"longitude":-42.218201,"obs":null},"geometry":{"type":"Point","coordinates":[-42.218201,-12.784648]}},
{"type":"Feature","properties":{"municipio":"Novo Horizonte","cod_ibge":"2923035","nome_orig":"VCANovo Horizonte/BA","n_orig":128,"latitude":-12.818336,"longitude":-42.18992,"obs":"possível duplicata de ponto a <300 m (registro VCA)"},"geometry":{"type":"Point","coordinates":[-42.18992,-12.818336]}},
{"type":"Feature","properties":{"municipio":"Palmeiras","cod_ibge":"2923506","nome_orig":"Palmeiras","n_orig":23,"latitude":-12.505709,"longitude":-41.596361,"obs":null},"geometry":{"type":"Point","coordinates":[-41.596361,-12.505709]}},
{"type":"Feature","properties":{"municipio":"Piatã","cod_ibge":"2924306","nome_orig":"Piatã","n_orig":24,"latitude":-13.053936,"longitude":-41.785165,"obs":null},"geometry":{"type":"Point","coordinates":[-41.785165,-13.053936]}},
{"type":"Feature","properties":{"municipio":"Piatã","cod_ibge":"2924306","nome_orig":"VCAPiatã/BA","n_orig":144,"latitude":-13.054726,"longitude":-41.784314,"obs":"possível duplicata de ponto a <300 m (registro VCA)"},"geometry":{"type":"Point","coordinates":[-41.784314,-13.054726]}},
{"type":"Feature","properties":{"municipio":"Rio de Contas","cod_ibge":"2926707","nome_orig":"VCARio de Contas/BA","n_orig":151,"latitude":-13.578904,"longitude":-41.792422,"obs":null},"geometry":{"type":"Point","coordinates":[-41.792422,-13.578904]}},
{"type":"Feature","properties":{"municipio":"Seabra","cod_ibge":"2929909","nome_orig":"Seabra","n_orig":26,"latitude":-12.432969,"longitude":-41.796752,"obs":null},"geometry":{"type":"Point","coordinates":[-41.796752,-12.432969]}},
{"type":"Feature","properties":{"municipio":"Souto Soares","cod_ibge":"2930808","nome_orig":"Souto Soares","n_orig":27,"latitude":-12.086112,"longitude":-41.686469,"obs":null},"geometry":{"type":"Point","coordinates":[-41.686469,-12.086112]}},
{"type":"Feature","properties":{"municipio":"Utinga","cod_ibge":"2932804","nome_orig":"Utinga","n_orig":28,"latitude":-12.063214,"longitude":-41.11822,"obs":null},"geometry":{"type":"Point","coordinates":[-41.11822,-12.063214]}},
{"type":"Feature","properties":{"municipio":"Wagner","cod_ibge":"2933406","nome_orig":"Wagner","n_orig":29,"latitude":-12.29343,"longitude":-41.191281,"obs":null},"geometry":{"type":"Point","coordinates":[-41.191281,-12.29343]}}
]
}
