{
"type": "FeatureCollection",
"xy_coordinate_resolution": 1e-06,
"features": [
{"type":"Feature","properties":{"municipio":"ANDARAÍ","num_setor":"BA_ANDARAI_SR_001_CPRM","local":"Travessa da Ibirapitanga - Praça Luiz Viana Filho","tipolo_g1":"Inundação","tipolo_e1":null,"tipolo_g2":null,"grau_risco":"Alto","grau_vulne":"Baixo","num_edif":20,"num_pess":80,"descricao":"Região central da sede municipal de Andaraí, ocupada por edificações de bom padrão construtivo edificadas na planície de inundação do Rio Baiano. sendo que açgumas delas, como igreja, escola e residencais foram construídas avançando sobre o le","sug_interv":"1 - Elaborar estudos para avaliar a nescessidade de realizar o desassoreamento do Rio Baiano periodicamente para que a calha do rio dê conta do volume de água quando em situações extremas;\n2 - Se atentar para que rege a legislação sobre construçõ","orgao_exec":"Serviço Geológico do Brasil"},"geometry":{"type":"MultiPolygon","coordinates":[[[[-41.33161,-12.803318],[-41.331864,-12.803402],[-41.331773,-12.803617],[-41.332078,-12.803786],[-41.332046,-12.804267],[-41.332111,-12.804567],[-41.33243,-12.804866],[-41.333334,-12.805737],[-41.333561,-12.80616],[-41.333548,-12.806622],[-41.332865,-12.806342],[-41.332709,-12.80657],[-41.331356,-12.805633],[-41.331356,-12.805067],[-41.330992,-12.804905],[-41.331096,-12.804755],[-41.330933,-12.804593],[-41.33159,-12.803331],[-41.33161,-12.803318]]]]}},
{"type":"Feature","properties":{"municipio":"ANDARAÍ","num_setor":"BA_ANDARAI_SR_004_CPRM","local":"Estrada do Areião","tipolo_g1":"Inundação","tipolo_e1":null,"tipolo_g2":null,"grau_risco":"Muito alto","grau_vulne":"Médio","num_edif":15,"num_pess":60,"descricao":"Casas de baixo padrão construtivo edificadas na planicié de inundação do Rio Baiano submetidas a inundações em condições expressivas de chuva e fenômenos de chuvas de cabeceira.","sug_interv":"1 - Elaborar estudos para avaliar a nescessidade de realizar o desassoreamento do Rio Baiano periodicamente para que a calha do rio dê conta do volume de água quando em situações extremas;\n2 - Se atentar para que rege a legislação sobre construçõ","orgao_exec":"Serviço Geológico do Brasil"},"geometry":{"type":"MultiPolygon","coordinates":[[[[-41.33222,-12.799664],[-41.332082,-12.800366],[-41.331631,-12.801324],[-41.331016,-12.801055],[-41.330975,-12.800898],[-41.331206,-12.800827],[-41.331442,-12.800504],[-41.331805,-12.800127],[-41.331995,-12.799587],[-41.33222,-12.799664]]]]}},
{"type":"Feature","properties":{"municipio":"ANDARAÍ","num_setor":"BA_ANDARAI_SR_003_CPRM","local":"Rua Santa Bárbara","tipolo_g1":"Deslizamento","tipolo_e1":"Deslizamento planar","tipolo_g2":null,"grau_risco":"Muito alto","grau_vulne":"Alto","num_edif":12,"num_pess":48,"descricao":"Encosta natural com de aproximadamente 15 metros de altura com cerca de 40° de inclinação e cortes em sua base onde estão instaladas casa de baixo padrão construtivos.","sug_interv":"1 - Fiscalizar para que não ocorra a ocupação da área de risco;\n2 - Contratar profissionais competentes para elaborar e executar projeto de conteção e drenagem superficial eficiente;\n3 - Fomentar a Defesa Civil Municipal e incluir áreas de risco n","orgao_exec":"Serviço Geológico do Brasil"},"geometry":{"type":"MultiPolygon","coordinates":[[[[-41.327924,-12.803204],[-41.327842,-12.80345],[-41.327192,-12.803206],[-41.327213,-12.803122],[-41.327924,-12.803204]]]]}},
{"type":"Feature","properties":{"municipio":"ANDARAÍ","num_setor":"BA_ANDARAI_SR_002_CPRM","local":"Rua Santa Bárbara","tipolo_g1":"Deslizamento","tipolo_e1":"Deslizamento planar","tipolo_g2":null,"grau_risco":"Muito alto","grau_vulne":"Alto","num_edif":36,"num_pess":144,"descricao":"Encosta natural areno argilosa com de aproximadamente 15 metros de altura com cerca de 40° de inclinação e cortes em sua base onde estão instaladas casa de baixo padrão construtivos.","sug_interv":"1 - Fiscalizar para que não ocorra a ocupação da área de risco;\n2 - Contratar profissionais competentes para elaborar e executar projeto de conteção e drenagem superficial eficiente;\n3 - Fomentar a Defesa Civil Municipal e incluir áreas de risco n","orgao_exec":"Serviço Geológico do Brasil"},"geometry":{"type":"MultiPolygon","coordinates":[[[[-41.326818,-12.803432],[-41.327049,-12.803414],[-41.327477,-12.803447],[-41.327738,-12.803485],[-41.328043,-12.803578],[-41.32835,-12.80367],[-41.328696,-12.803777],[-41.329008,-12.803885],[-41.328911,-12.80408],[-41.328755,-12.804016],[-41.328578,-12.803954],[-41.328345,-12.803885],[-41.328091,-12.803818],[-41.327922,-12.803747],[-41.32771,-12.803685],[-41.327564,-12.803667],[-41.327505,-12.8038],[-41.327431,-12.803775],[-41.327446,-12.803667],[-41.32741,-12.803629],[-41.32732,-12.803629],[-41.327197,-12.803603],[-41.327095,-12.803593],[-41.326987,-12.803585],[-41.326862,-12.803557],[-41.326788,-12.803547],[-41.326818,-12.803432]]]]}},
{"type":"Feature","properties":{"municipio":"ANDARAÍ","num_setor":"BA_ANDARAI_SR_005_CPRM","local":"Associação Santa Luzia das Gamelas","tipolo_g1":"Subsidência","tipolo_e1":null,"tipolo_g2":null,"grau_risco":"Muito alto","grau_vulne":"Médio","num_edif":2,"num_pess":8,"descricao":"Vasta área plana onde ocorrerou o surgimento de sinkhole proximo as casas. Moradores relatam que outros quatro sinkholes já surgiram na região tendo os mesmos sido aterrados pela municipalidade.","sug_interv":"1 - Montiramento visual de posivel expansão dos sinkholes (comprimento , largura e profundidade).\n2 - Fazer um levantamento geofísico para ver se existem outros \"vazios\" em subsuperfície.\n3 - Estudar a posibilidade retirada das famiílias das casas ma","orgao_exec":"Serviço Geológico do Brasil"},"geometry":{"type":"MultiPolygon","coordinates":[[[[-41.113426,-12.53905],[-41.113234,-12.539152],[-41.113126,-12.538892],[-41.113412,-12.538774],[-41.113561,-12.538747],[-41.113651,-12.538775],[-41.113701,-12.538903],[-41.113426,-12.53905]]]]}},
{"type":"Feature","properties":{"municipio":"IRAQUARA","num_setor":"BA_IRAQUAR_SR_004_SGB","local":"Localidade Santa Rita","tipolo_g1":"Colapso","tipolo_e1":null,"tipolo_g2":"Deslizamento","grau_risco":"Alto","grau_vulne":"Médio","num_edif":11,"num_pess":44,"descricao":"Casas instaladas no topo da dolina de Santa Rita.","sug_interv":"1. Desenvolver estudos geotécnicos adequados ao sistema carstico, \n2. Desenvolver estudos geofísicos, na tentativa de observar outros locais semelhantes e o comportamento da rocha em subsuperfície.","orgao_exec":"Serviço Geológico do Brasil"},"geometry":{"type":"MultiPolygon","coordinates":[[[[-41.585391,-12.345161],[-41.585301,-12.344829],[-41.584856,-12.344484],[-41.584556,-12.344863],[-41.584329,-12.344728],[-41.583914,-12.345069],[-41.583781,-12.34497],[-41.584175,-12.344628],[-41.584758,-12.344354],[-41.585542,-12.344757],[-41.58563,-12.345169],[-41.585391,-12.345161]]]]}},
{"type":"Feature","properties":{"municipio":"IRAQUARA","num_setor":"BA_IRAQUAR_SR_001_SGB","local":"Rua Principal, Localidade do Esconso","tipolo_g1":"Subsidência","tipolo_e1":null,"tipolo_g2":null,"grau_risco":"Alto","grau_vulne":"Médio","num_edif":2,"num_pess":8,"descricao":"Dolina de colapso formada na comunidade do Esconso em 2019 e que vem passando por processo de alargamento devido ao fluxo da drenagem superficial.","sug_interv":"1.Manter removidos ou realocados temporariamente em locais seguros, os moradores que se encontram nas áreas de risco até a realização de estudos mais detalhados;\n2.Desenvolver estudos geotécnicos adequados ao sistema carstico, \n3.Desenvolver estudos","orgao_exec":"Serviço Geológico do Brasil"},"geometry":{"type":"MultiPolygon","coordinates":[[[[-41.546853,-12.299755],[-41.546858,-12.300107],[-41.546674,-12.300099],[-41.546682,-12.299757],[-41.546853,-12.299755]]]]}},
{"type":"Feature","properties":{"municipio":"IRAQUARA","num_setor":"BA_IRAQUAR_SR_002_SGB","local":"Rua Beira Rio, Riacho do Mel","tipolo_g1":"Enxurrada","tipolo_e1":null,"tipolo_g2":null,"grau_risco":"Alto","grau_vulne":"Médio","num_edif":4,"num_pess":16,"descricao":"Casas com moderado padrão construtivo estabelecidas na margem esquerda a jusante da Barragem do Riacho do Mel sujeitas a risco de enxurrada em períodos e cheias e possível ruptura de Barragem.","sug_interv":"1. Fiscalizar e proibir a construção em áreas protegidas pela legislação vigente:\n2. Instalar sistema de alerta para as áreas de risco, através de meios de veiculação pública (mídia, sirenes, celulares), permitindo a remoção eficaz dos morad","orgao_exec":"Serviço Geológico do Brasil"},"geometry":{"type":"MultiPolygon","coordinates":[[[[-41.490392,-12.332641],[-41.492411,-12.332983],[-41.492384,-12.333446],[-41.491758,-12.333421],[-41.49075,-12.333199],[-41.490482,-12.333007],[-41.490403,-12.332902],[-41.490392,-12.332641]]]]}},
{"type":"Feature","properties":{"municipio":"IRAQUARA","num_setor":"BA_IRAQUAR_SR_003_SGB","local":"Ba 122, Iraquara","tipolo_g1":"Deslizamento","tipolo_e1":"Deslizamento planar","tipolo_g2":null,"grau_risco":"Muito alto","grau_vulne":"Alto","num_edif":1,"num_pess":4,"descricao":"O proprietário da área resolveu cortar todo o talude natural em volta da sua propriedade na intenção de realizar uma contenção e aumentar o valor imobiliário da área, visto que segundo o mesmo a companhia de abastecimento teria feito uma proposta","sug_interv":"1. Verificar e reparar os pontos de vazamento de água em encanamentos;\n2. Fiscalizar e proibir a construção em áreas protegidas pela legislação vigente:\n3. Instalar sistema de alerta para as áreas de risco, através de meios de veiculação públi","orgao_exec":"Serviço Geológico do Brasil"},"geometry":{"type":"MultiPolygon","coordinates":[[[[-41.618502,-12.235243],[-41.618381,-12.235729],[-41.618094,-12.235656],[-41.618121,-12.235482],[-41.618294,-12.235367],[-41.61836,-12.235237],[-41.618502,-12.235243]]]]}},
{"type":"Feature","properties":{"municipio":"SEABRA","num_setor":"BA_SEABRA_SR_CPRM","local":"Bairro Centro - Rua Paulo VI","tipolo_g1":"Inundação","tipolo_e1":null,"tipolo_g2":null,"grau_risco":"Alto","grau_vulne":"Alto","num_edif":23,"num_pess":92,"descricao":"Planície de inundação do córrego esta ocupada por e é  periodicamente atingida por inundações, foi constatado a presença de lixo e de esgoto diretamente na drenagem, o que intensifica mais o grau de risco do setor devido aos riscos patológicos","sug_interv":"Fiscalização e proibição de em margens e interior dos cursos d’água segundo normas estabelecidas por lei; estudos geotécnicos e hidrológicos com a finalidade de embasar os projetos e/ou obras de adequação do sistema de drenagem fluvial","orgao_exec":"Serviço Geológico do Brasil"},"geometry":{"type":"MultiPolygon","coordinates":[[[[-41.776119,-12.415154],[-41.776401,-12.415142],[-41.77637,-12.415318],[-41.776262,-12.415465],[-41.776163,-12.415622],[-41.776047,-12.415792],[-41.775948,-12.415955],[-41.775846,-12.416115],[-41.775775,-12.416296],[-41.775729,-12.41658],[-41.775595,-12.416694],[-41.775596,-12.416782],[-41.775453,-12.416792],[-41.775339,-12.416922],[-41.775114,-12.416935],[-41.775113,-12.417049],[-41.774843,-12.417051],[-41.774685,-12.417291],[-41.774484,-12.417309],[-41.774429,-12.417452],[-41.77426,-12.417533],[-41.774244,-12.417773],[-41.77399,-12.417897],[-41.773895,-12.418193],[-41.773859,-12.418784],[-41.77356,-12.418801],[-41.773593,-12.418208],[-41.773744,-12.418096],[-41.773784,-12.417874],[-41.773875,-12.417716],[-41.77389,-12.417549],[-41.774121,-12.417489],[-41.774187,-12.417171],[-41.774695,-12.417003],[-41.774827,-12.416989],[-41.774836,-12.416831],[-41.775052,-12.416816],[-41.775055,-12.416688],[-41.775447,-12.41657],[-41.775495,-12.416145],[-41.775499,-12.415975],[-41.77562,-12.41598],[-41.775801,-12.415967],[-41.775814,-12.415698],[-41.775918,-12.415694],[-41.77592,-12.415351],[-41.776115,-12.415355],[-41.776119,-12.415154]]]]}},
{"type":"Feature","properties":{"municipio":"LENÇÓIS","num_setor":"BA_LENCOIS_SR_2_CPRM","local":"Lavrado/ três Pedras","tipolo_g1":"Inundação","tipolo_e1":null,"tipolo_g2":null,"grau_risco":"Alto","grau_vulne":"Baixo","num_edif":10,"num_pess":40,"descricao":"O rio São José barra o rio Lençois na área, causando uma inundação na região, casas que estão próximas ao leito do rio acabam sendo atingidas. No local existe um loteamento  de casas populares iniciado em 2013 pelo então prefeito.","sug_interv":"Melhoras da infraestrutura urbana; Coibir e regulamentar loteamentos em áreas passíveis de inundação; Implantar sistemas de alerta;Estruturação da Defesa Civil; Cursos de conscientização ambiental; Incluir áreas de risco no plano diretor do muni","orgao_exec":"Serviço Geológico do Brasil"},"geometry":{"type":"MultiPolygon","coordinates":[[[[-41.38327,-12.563063],[-41.384409,-12.563244],[-41.384552,-12.563231],[-41.38459,-12.563444],[-41.384521,-12.563516],[-41.384537,-12.563626],[-41.384547,-12.563638],[-41.384504,-12.563729],[-41.384446,-12.563788],[-41.384373,-12.563931],[-41.384307,-12.564004],[-41.384251,-12.564111],[-41.384162,-12.564181],[-41.384073,-12.564231],[-41.383955,-12.564255],[-41.383831,-12.564417],[-41.383703,-12.564625],[-41.383704,-12.56464],[-41.383709,-12.56466],[-41.383616,-12.564806],[-41.383466,-12.565111],[-41.383359,-12.565264],[-41.38322,-12.565338],[-41.383061,-12.565376],[-41.383048,-12.565376],[-41.38293,-12.56537],[-41.382715,-12.565339],[-41.38271,-12.565339],[-41.382594,-12.565246],[-41.382565,-12.565138],[-41.382559,-12.56506],[-41.382588,-12.564872],[-41.382632,-12.564642],[-41.382545,-12.564592],[-41.382499,-12.564608],[-41.382507,-12.564562],[-41.382557,-12.564434],[-41.382643,-12.564356],[-41.382646,-12.564298],[-41.382658,-12.564239],[-41.382866,-12.564296],[-41.382945,-12.564353],[-41.383101,-12.564346],[-41.383292,-12.564258],[-41.383242,-12.564327],[-41.383398,-12.564206],[-41.383455,-12.564075],[-41.383413,-12.563888],[-41.383246,-12.56364],[-41.383047,-12.563377],[-41.38327,-12.563063]]]]}},
{"type":"Feature","properties":{"municipio":"LENÇÓIS","num_setor":"BA_LENCOIS_SR_3_CPRM","local":"Lavrado/ Mercado da Feira","tipolo_g1":"Deslizamento","tipolo_e1":"Deslizamento não especificado","tipolo_g2":"Erosão","grau_risco":"Alto","grau_vulne":"Baixo","num_edif":28,"num_pess":112,"descricao":"Casas corte-aterro, as casas próximas ao talude superior estão construídas sobre arenitos, casas nas proximidades do talude inferior estão sobre aterro,talude com sinais de erosão e trincas,casas com rachaduras. Algumas casas sofrem risco de enxurra","sug_interv":"Fiscalizar a área para que não ocorra a ocupação de áreas de risco; Instalação de sirenes de alerta; Contratar profissionais competentes para elaborar e executar projeto de contenção e drenagem superficial eficiente.","orgao_exec":"Serviço Geológico do Brasil"},"geometry":{"type":"MultiPolygon","coordinates":[[[[-41.39106,-12.560232],[-41.39118,-12.560204],[-41.391365,-12.560141],[-41.391373,-12.560141],[-41.391483,-12.5603],[-41.39161,-12.5602],[-41.3917,-12.560229],[-41.391837,-12.560341],[-41.391845,-12.560378],[-41.391948,-12.56048],[-41.391994,-12.56059],[-41.392096,-12.560644],[-41.392262,-12.560835],[-41.392592,-12.560866],[-41.392608,-12.560856],[-41.392787,-12.560745],[-41.392979,-12.560847],[-41.393239,-12.560714],[-41.393358,-12.56067],[-41.393586,-12.560776],[-41.393596,-12.560913],[-41.393546,-12.561103],[-41.393481,-12.561254],[-41.393281,-12.561352],[-41.393042,-12.561234],[-41.392671,-12.56108],[-41.392267,-12.561247],[-41.391878,-12.561295],[-41.391364,-12.561574],[-41.391216,-12.56162],[-41.391054,-12.561683],[-41.391049,-12.561688],[-41.391032,-12.561693],[-41.390664,-12.561728],[-41.39027,-12.561762],[-41.390266,-12.561762],[-41.390138,-12.561817],[-41.390001,-12.561874],[-41.389917,-12.561938],[-41.38987,-12.561907],[-41.389869,-12.561903],[-41.389808,-12.561786],[-41.389802,-12.561776],[-41.389747,-12.561742],[-41.389678,-12.561783],[-41.389594,-12.561827],[-41.389405,-12.561913],[-41.389364,-12.561851],[-41.389429,-12.561765],[-41.389462,-12.561724],[-41.389398,-12.561601],[-41.389544,-12.561521],[-41.389552,-12.561515],[-41.389618,-12.561464],[-41.389612,-12.56139],[-41.389599,-12.561374],[-41.389554,-12.561308],[-41.389478,-12.561297],[-41.389406,-12.561334],[-41.389305,-12.561376],[-41.389205,-12.561387],[-41.389173,-12.561454],[-41.389168,-12.561454],[-41.389032,-12.561483],[-41.388976,-12.561449],[-41.388881,-12.561294],[-41.388895,-12.561253],[-41.38889,-12.561238],[-41.388882,-12.561081],[-41.388875,-12.56106],[-41.388873,-12.561038],[-41.388872,-12.560911],[-41.389004,-12.560857],[-41.38908,-12.560973],[-41.389114,-12.561092],[-41.389156,-12.561144],[-41.389249,-12.561148],[-41.389305,-12.561093],[-41.389396,-12.561037],[-41.389554,-12.561086],[-41.389543,-12.560997],[-41.389544,-12.560981],[-41.389492,-12.560815],[-41.389488,-12.560798],[-41.389593,-12.560754],[-41.389603,-12.560753],[-41.38962,-12.560741],[-41.389774,-12.560707],[-41.389831,-12.560688],[-41.389883,-12.560638],[-41.389899,-12.560612],[-41.389958,-12.560567],[-41.390016,-12.560511],[-41.3901,-12.560552],[-41.390135,-12.560546],[-41.390204,-12.56052],[-41.39027,-12.560513],[-41.390348,-12.56056],[-41.390419,-12.560547],[-41.390477,-12.560543],[-41.390612,-12.560374],[-41.39062,-12.560374],[-41.390745,-12.560445],[-41.390834,-12.56035],[-41.39106,-12.560232]]]]}},
{"type":"Feature","properties":{"municipio":"LENÇÓIS","num_setor":"BA_LENCOIS_SR_1_CPRM","local":"Centro","tipolo_g1":"Inundação","tipolo_e1":null,"tipolo_g2":null,"grau_risco":"Alto","grau_vulne":"Baixo","num_edif":30,"num_pess":120,"descricao":"Rio Lençóis quando chega na área central da cidade, as águas descem com alta energia em pequena curva, sob condições de cheias as águas estravasam as margens. Com o volume de água retido na cabeceira da ponte, boa parte verteu pela rua Miguel Ân","sug_interv":"Devido ao caráter histórico e suas contruções arquitetônicas se faz necessário trabalhar com o conceito de Cidade Resiliente para minimizar os riscos que a cidade possa sofrer, melhorando seus sistemas de drenagem; Instalação de sirenes de alerta","orgao_exec":"Serviço Geológico do Brasil"},"geometry":{"type":"MultiPolygon","coordinates":[[[[-41.384984,-12.564416],[-41.38502,-12.564356],[-41.385052,-12.564339],[-41.385098,-12.564329],[-41.3851,-12.564297],[-41.385111,-12.564252],[-41.385187,-12.564229],[-41.385233,-12.564186],[-41.385225,-12.564151],[-41.385291,-12.564116],[-41.385347,-12.564075],[-41.38538,-12.564066],[-41.385426,-12.564094],[-41.38544,-12.564159],[-41.385472,-12.564189],[-41.385479,-12.564196],[-41.385505,-12.564232],[-41.385509,-12.564235],[-41.385538,-12.564311],[-41.385562,-12.564326],[-41.385626,-12.564383],[-41.385638,-12.564455],[-41.385641,-12.564468],[-41.385641,-12.564471],[-41.38563,-12.564515],[-41.385788,-12.564654],[-41.385835,-12.564804],[-41.386054,-12.565275],[-41.386163,-12.565485],[-41.386157,-12.565762],[-41.386104,-12.565962],[-41.386049,-12.566175],[-41.385904,-12.566275],[-41.385739,-12.566299],[-41.385595,-12.56631],[-41.385474,-12.566239],[-41.385284,-12.566216],[-41.385169,-12.566188],[-41.385122,-12.566069],[-41.385135,-12.566002],[-41.385184,-12.565792],[-41.385238,-12.565402],[-41.385286,-12.565143],[-41.385321,-12.565001],[-41.385372,-12.56492],[-41.385398,-12.564805],[-41.385292,-12.564689],[-41.385227,-12.564656],[-41.38524,-12.564577],[-41.385156,-12.564539],[-41.385148,-12.564539],[-41.385077,-12.564511],[-41.38506,-12.56448],[-41.384982,-12.564499],[-41.384961,-12.564482],[-41.384984,-12.564416]]]]}},
{"type":"Feature","properties":{"municipio":"LENÇÓIS","num_setor":"BA_LENCOIS_SR_4_CPRM","local":"Olaria/ Tranqueiras","tipolo_g1":"Inundação","tipolo_e1":null,"tipolo_g2":null,"grau_risco":"Alto","grau_vulne":"Baixo","num_edif":12,"num_pess":48,"descricao":"O rio Santo Antônio, neste ponto recebe a água de vários afluentes , em condições de alta pluviosidade seu volume aumenta bastante e sua margem direita transborda. Atingindo as casas construidas a margem.","sug_interv":"Instalação de sirenes de alerta ; Conscientizar a população da área sobre o perigo de se ocupar baixios e áreas alagáveis;","orgao_exec":"Serviço Geológico do Brasil"},"geometry":{"type":"MultiPolygon","coordinates":[[[[-41.340765,-12.440839],[-41.341121,-12.440654],[-41.341437,-12.440465],[-41.341888,-12.440091],[-41.342267,-12.439742],[-41.342674,-12.439389],[-41.342856,-12.438836],[-41.343035,-12.438374],[-41.343115,-12.437724],[-41.343199,-12.437024],[-41.343388,-12.436409],[-41.343645,-12.436126],[-41.343986,-12.435784],[-41.344381,-12.435408],[-41.34507,-12.434927],[-41.345594,-12.434375],[-41.346413,-12.435724],[-41.346494,-12.435884],[-41.346521,-12.435937],[-41.346957,-12.436879],[-41.346984,-12.43693],[-41.346916,-12.438795],[-41.346867,-12.438857],[-41.346143,-12.439518],[-41.345686,-12.440146],[-41.344903,-12.440726],[-41.344481,-12.44106],[-41.34399,-12.441022],[-41.343778,-12.441274],[-41.3432,-12.440959],[-41.342676,-12.441125],[-41.342617,-12.441125],[-41.342065,-12.441096],[-41.341373,-12.441251],[-41.341334,-12.441249],[-41.341278,-12.441273],[-41.340553,-12.441164],[-41.340097,-12.441393],[-41.339589,-12.441511],[-41.339541,-12.441581],[-41.339509,-12.441627],[-41.339107,-12.441993],[-41.339097,-12.442041],[-41.338447,-12.442942],[-41.33821,-12.443219],[-41.337848,-12.44365],[-41.337833,-12.44365],[-41.337508,-12.443922],[-41.337173,-12.444347],[-41.336772,-12.44478],[-41.336417,-12.445062],[-41.336068,-12.4452],[-41.336043,-12.445237],[-41.335589,-12.445849],[-41.335096,-12.446173],[-41.335083,-12.446171],[-41.334766,-12.446642],[-41.334284,-12.447116],[-41.333694,-12.447365],[-41.333682,-12.447362],[-41.333217,-12.44771],[-41.33278,-12.448023],[-41.332442,-12.448109],[-41.332102,-12.448508],[-41.332062,-12.448571],[-41.332043,-12.448608],[-41.330794,-12.451078],[-41.328776,-12.453543],[-41.328111,-12.454632],[-41.327558,-12.455417],[-41.327234,-12.456212],[-41.326783,-12.456751],[-41.326272,-12.456488],[-41.325282,-12.456103],[-41.324857,-12.455666],[-41.324692,-12.454932],[-41.324654,-12.454727],[-41.324668,-12.454002],[-41.324676,-12.453828],[-41.324469,-12.452722],[-41.324648,-12.452082],[-41.32468,-12.45185],[-41.324753,-12.45108],[-41.324802,-12.450541],[-41.324815,-12.450345],[-41.325002,-12.449989],[-41.325595,-12.449829],[-41.32644,-12.44961],[-41.327328,-12.44908],[-41.328193,-12.447878],[-41.328848,-12.44727],[-41.32894,-12.447326],[-41.329998,-12.44722],[-41.330197,-12.447216],[-41.331255,-12.44664],[-41.331896,-12.44635],[-41.332114,-12.446086],[-41.332645,-12.445972],[-41.333201,-12.445748],[-41.333716,-12.445494],[-41.334061,-12.44538],[-41.334255,-12.445231],[-41.334535,-12.445165],[-41.334832,-12.445115],[-41.33506,-12.444963],[-41.335264,-12.444876],[-41.335496,-12.444646],[-41.335653,-12.444812],[-41.335667,-12.444832],[-41.33595,-12.44474],[-41.33638,-12.444583],[-41.336428,-12.444584],[-41.336774,-12.444116],[-41.336979,-12.443948],[-41.337304,-12.443507],[-41.337805,-12.442769],[-41.338097,-12.44227],[-41.338472,-12.441693],[-41.338824,-12.441465],[-41.339235,-12.441085],[-41.339594,-12.440939],[-41.340079,-12.440887],[-41.340399,-12.440894],[-41.340765,-12.440839]]]]}}
]
}
