{
"type": "FeatureCollection",
"xy_coordinate_resolution": 1e-06,
"features": [
{"type":"Feature","properties":{"nome":null,"periodicid":null},"geometry":{"type":"MultiPolygon","coordinates":[[[[-41.33361,-12.538697],[-41.333312,-12.538887],[-41.332931,-12.538943],[-41.332388,-12.538975],[-41.331817,-12.538953],[-41.33111,-12.539012],[-41.330429,-12.539018],[-41.329966,-12.538969],[-41.329504,-12.538866],[-41.329367,-12.538814],[-41.329365,-12.538601],[-41.329364,-12.53844],[-41.329552,-12.538172],[-41.329739,-12.537877],[-41.330198,-12.537472],[-41.330602,-12.537042],[-41.330926,-12.536798],[-41.331606,-12.536713],[-41.332476,-12.536705],[-41.332886,-12.536862],[-41.333161,-12.537153],[-41.33341,-12.537632],[-41.333551,-12.538164],[-41.33361,-12.538697]]]]}},
{"type":"Feature","properties":{"nome":null,"periodicid":null},"geometry":{"type":"MultiPolygon","coordinates":[[[[-41.316386,-12.611723],[-41.319445,-12.611297],[-41.319535,-12.613764],[-41.318204,-12.614903],[-41.318165,-12.617662],[-41.316194,-12.618744],[-41.313845,-12.620394],[-41.310276,-12.621302],[-41.309847,-12.623312],[-41.308319,-12.624014],[-41.308915,-12.626328],[-41.308679,-12.628461],[-41.307285,-12.629789],[-41.30491,-12.628493],[-41.304436,-12.625489],[-41.304922,-12.622727],[-41.305995,-12.621213],[-41.307645,-12.620009],[-41.308015,-12.618501],[-41.30896,-12.617114],[-41.310737,-12.615845],[-41.313279,-12.614257],[-41.314736,-12.612928],[-41.316386,-12.611723]]]]}},
{"type":"Feature","properties":{"nome":null,"periodicid":null},"geometry":{"type":"MultiPolygon","coordinates":[[[[-41.329255,-12.675477],[-41.326883,-12.675192],[-41.327039,-12.673838],[-41.337337,-12.673817],[-41.343963,-12.67717],[-41.344372,-12.679176],[-41.34483,-12.682274],[-41.343439,-12.683587],[-41.343386,-12.686301],[-41.343022,-12.687127],[-41.343215,-12.689032],[-41.341202,-12.690502],[-41.339539,-12.69197],[-41.33768,-12.693247],[-41.335745,-12.694679],[-41.336365,-12.695992],[-41.335733,-12.696562],[-41.333442,-12.695979],[-41.333271,-12.694452],[-41.331154,-12.69298],[-41.335234,-12.691682],[-41.335339,-12.690344],[-41.334938,-12.689201],[-41.334024,-12.686278],[-41.334115,-12.683373],[-41.337649,-12.68208],[-41.339183,-12.679391],[-41.337114,-12.678275],[-41.33266,-12.677053],[-41.329255,-12.675477]]]]}},
{"type":"Feature","properties":{"nome":null,"periodicid":null},"geometry":{"type":"MultiPolygon","coordinates":[[[[-41.323613,-12.73488],[-41.323898,-12.73559],[-41.324302,-12.736848],[-41.323519,-12.736964],[-41.321662,-12.735664],[-41.320595,-12.73518],[-41.32199,-12.734839],[-41.323613,-12.73488]]]]}},
{"type":"Feature","properties":{"nome":null,"periodicid":null},"geometry":{"type":"MultiPolygon","coordinates":[[[[-41.051143,-12.925838],[-41.051129,-12.92604],[-41.051035,-12.92629],[-41.050879,-12.926618],[-41.050627,-12.926838],[-41.050278,-12.926919],[-41.049389,-12.926894],[-41.048958,-12.926758],[-41.04875,-12.926541],[-41.048588,-12.926154],[-41.048522,-12.925812],[-41.048552,-12.925594],[-41.048693,-12.925453],[-41.049583,-12.925414],[-41.050441,-12.92547],[-41.051092,-12.925527],[-41.051143,-12.925838]]]]}},
{"type":"Feature","properties":{"nome":null,"periodicid":null},"geometry":{"type":"MultiPolygon","coordinates":[[[[-40.954137,-13.027659],[-40.954479,-13.027228],[-40.954755,-13.027999],[-40.954864,-13.028258],[-40.954921,-13.02883],[-40.95498,-13.029506],[-40.955039,-13.030286],[-40.955097,-13.030962],[-40.95505,-13.031743],[-40.955055,-13.032419],[-40.954954,-13.032993],[-40.954533,-13.033568],[-40.954058,-13.033987],[-40.953374,-13.034825],[-40.95274,-13.035246],[-40.952002,-13.036032],[-40.951371,-13.036765],[-40.950049,-13.037556],[-40.948777,-13.038085],[-40.947292,-13.038409],[-40.946498,-13.038779],[-40.945331,-13.038943],[-40.944361,-13.038782],[-40.94525,-13.038694],[-40.945888,-13.038417],[-40.946719,-13.038056],[-40.947371,-13.037693],[-40.948088,-13.037035],[-40.948725,-13.036648],[-40.949198,-13.036591],[-40.949727,-13.036559],[-40.950588,-13.036553],[-40.951033,-13.036467],[-40.951306,-13.035866],[-40.951717,-13.035046],[-40.952073,-13.034336],[-40.952487,-13.033951],[-40.95296,-13.033893],[-40.953709,-13.033778],[-40.954096,-13.033395],[-40.954285,-13.032739],[-40.954307,-13.032004],[-40.954189,-13.031188],[-40.953934,-13.030509],[-40.953816,-13.02972],[-40.953701,-13.028915],[-40.953698,-13.028479],[-40.953862,-13.028097],[-40.954137,-13.027659]]]]}},
{"type":"Feature","properties":{"nome":null,"periodicid":null},"geometry":{"type":"MultiPolygon","coordinates":[[[[-40.894234,-13.015401],[-40.894224,-13.015425],[-40.893976,-13.015753],[-40.893783,-13.015972],[-40.893672,-13.016055],[-40.893617,-13.016137],[-40.893646,-13.016246],[-40.893758,-13.0163],[-40.89412,-13.016378],[-40.894342,-13.016432],[-40.894687,-13.016446],[-40.895827,-13.016329],[-40.896825,-13.016023],[-40.89741,-13.016072],[-40.898051,-13.016203],[-40.898773,-13.016171],[-40.899552,-13.016165],[-40.900332,-13.016377],[-40.900862,-13.016619],[-40.90145,-13.017078],[-40.902125,-13.018025],[-40.902633,-13.019057],[-40.903141,-13.020033],[-40.904011,-13.021008],[-40.904852,-13.021819],[-40.905649,-13.02268],[-40.906348,-13.023111],[-40.907577,-13.023782],[-40.908751,-13.024537],[-40.910483,-13.025532],[-40.911434,-13.026232],[-40.912527,-13.02734],[-40.913116,-13.028045],[-40.913568,-13.028886],[-40.914079,-13.030243],[-40.914623,-13.031517],[-40.914934,-13.032222],[-40.915277,-13.033364],[-40.915485,-13.034437],[-40.915457,-13.035187],[-40.91515,-13.036025],[-40.9148,-13.036472],[-40.914276,-13.037184],[-40.913894,-13.038031],[-40.913787,-13.038631],[-40.913822,-13.03942],[-40.914079,-13.040371],[-40.914315,-13.040909],[-40.91463,-13.042024],[-40.915109,-13.042837],[-40.915841,-13.043921],[-40.916149,-13.044385],[-40.916685,-13.045194],[-40.91747,-13.045979],[-40.918391,-13.046489],[-40.919622,-13.047324],[-40.921044,-13.047776],[-40.922269,-13.048013],[-40.923493,-13.048004],[-40.924505,-13.047709],[-40.924742,-13.04764],[-40.925741,-13.047305],[-40.926655,-13.046945],[-40.927173,-13.046469],[-40.927401,-13.046258],[-40.927924,-13.045574],[-40.92828,-13.044863],[-40.928386,-13.044073],[-40.928406,-13.043065],[-40.928257,-13.041895],[-40.928178,-13.04136],[-40.927976,-13.040544],[-40.927579,-13.039485],[-40.927264,-13.038371],[-40.927199,-13.037146],[-40.927332,-13.036329],[-40.927687,-13.035536],[-40.928126,-13.034661],[-40.928565,-13.034059],[-40.929008,-13.033674],[-40.929495,-13.033446],[-40.930133,-13.033197],[-40.931133,-13.032999],[-40.931826,-13.03283],[-40.932328,-13.032826],[-40.932968,-13.033039],[-40.933668,-13.03347],[-40.934311,-13.033928],[-40.935653,-13.034926],[-40.937023,-13.035896],[-40.938422,-13.036812],[-40.940012,-13.037453],[-40.940877,-13.037804],[-40.939707,-13.037708],[-40.938724,-13.037458],[-40.936825,-13.036272],[-40.934741,-13.034778],[-40.933438,-13.034012],[-40.932638,-13.033706],[-40.931284,-13.033467],[-40.930139,-13.03359],[-40.929272,-13.034168],[-40.928556,-13.034907],[-40.928363,-13.035709],[-40.928357,-13.036703],[-40.928472,-13.037899],[-40.928802,-13.039301],[-40.929669,-13.041376],[-40.929996,-13.04257],[-40.930005,-13.043714],[-40.930066,-13.04465],[-40.929967,-13.045483],[-40.929599,-13.046111],[-40.928663,-13.046877],[-40.927909,-13.047424],[-40.925921,-13.048342],[-40.925061,-13.048803],[-40.924544,-13.049081],[-40.923166,-13.04956],[-40.921999,-13.049829],[-40.920884,-13.049837],[-40.919926,-13.04974],[-40.919232,-13.049277],[-40.918108,-13.048193],[-40.916342,-13.046592],[-40.915579,-13.045253],[-40.915104,-13.044417],[-40.914403,-13.043173],[-40.913417,-13.040755],[-40.912979,-13.039197],[-40.913074,-13.037688],[-40.913064,-13.036282],[-40.913322,-13.035397],[-40.913369,-13.034511],[-40.913522,-13.033834],[-40.913726,-13.032688],[-40.913611,-13.03144],[-40.913335,-13.030142],[-40.912529,-13.029003],[-40.911725,-13.028072],[-40.910112,-13.026593],[-40.909148,-13.025559],[-40.907441,-13.024739],[-40.905201,-13.023559],[-40.903918,-13.022476],[-40.902846,-13.021287],[-40.901558,-13.01958],[-40.900698,-13.018441],[-40.899951,-13.017927],[-40.898992,-13.017517],[-40.897927,-13.017264],[-40.896598,-13.01717],[-40.894367,-13.017239],[-40.891923,-13.017153],[-40.891018,-13.017003],[-40.889954,-13.016803],[-40.888815,-13.01621],[-40.888118,-13.01533],[-40.887578,-13.014138],[-40.887677,-13.013201],[-40.887884,-13.012419],[-40.888564,-13.011061],[-40.889084,-13.009704],[-40.889238,-13.008975],[-40.889134,-13.008138],[-40.888598,-13.007413],[-40.887729,-13.007033],[-40.886878,-13.00704],[-40.886125,-13.007387],[-40.885097,-13.007789],[-40.882896,-13.008174],[-40.881182,-13.008581],[-40.880495,-13.008665],[-40.879467,-13.008936],[-40.878878,-13.008946],[-40.878078,-13.008536],[-40.877392,-13.006608],[-40.876641,-13.006139],[-40.875381,-13.006017],[-40.874496,-13.005997],[-40.873608,-13.006003],[-40.872864,-13.006035],[-40.87195,-13.006279],[-40.870868,-13.006997],[-40.869985,-13.007609],[-40.868317,-13.010479],[-40.867222,-13.011537],[-40.865902,-13.012588],[-40.864741,-13.013637],[-40.86342,-13.014687],[-40.860405,-13.016426],[-40.859454,-13.017161],[-40.856587,-13.018344],[-40.857291,-13.017936],[-40.85812,-13.017196],[-40.859167,-13.016017],[-40.860162,-13.015111],[-40.860881,-13.014507],[-40.861725,-13.014018],[-40.862888,-13.013356],[-40.864079,-13.012777],[-40.864688,-13.012364],[-40.864937,-13.012062],[-40.865184,-13.011788],[-40.865321,-13.011488],[-40.865706,-13.010886],[-40.866199,-13.00982],[-40.866913,-13.008617],[-40.867377,-13.007496],[-40.867982,-13.006566],[-40.868479,-13.006018],[-40.868949,-13.005715],[-40.869448,-13.005467],[-40.870074,-13.005287],[-40.871019,-13.005089],[-40.872324,-13.004835],[-40.87349,-13.004581],[-40.874211,-13.004468],[-40.87474,-13.004382],[-40.8751,-13.004298],[-40.875349,-13.004159],[-40.875403,-13.004073],[-40.876692,-13.004044],[-40.87887,-13.004505],[-40.881509,-13.005394],[-40.884546,-13.005701],[-40.886786,-13.005763],[-40.888051,-13.005947],[-40.889097,-13.00647],[-40.889814,-13.007322],[-40.890085,-13.008581],[-40.890317,-13.009608],[-40.89055,-13.011196],[-40.890674,-13.011928],[-40.890582,-13.011993],[-40.890445,-13.012157],[-40.890446,-13.012348],[-40.890462,-13.012453],[-40.890476,-13.012539],[-40.890616,-13.012674],[-40.890754,-13.012727],[-40.890846,-13.012749],[-40.890846,-13.01275],[-40.891096,-13.01325],[-40.892253,-13.014376],[-40.893504,-13.015251],[-40.894234,-13.015401]]]]}},
{"type":"Feature","properties":{"nome":null,"periodicid":null},"geometry":{"type":"MultiPolygon","coordinates":[[[[-41.069427,-12.902383],[-41.069419,-12.902209],[-41.070285,-12.90244],[-41.070564,-12.90262],[-41.070751,-12.9028],[-41.070799,-12.903025],[-41.070872,-12.903433],[-41.070921,-12.903795],[-41.070974,-12.904143],[-41.070789,-12.90459],[-41.07063,-12.905067],[-41.070545,-12.905862],[-41.070385,-12.906158],[-41.070225,-12.906408],[-41.070019,-12.906682],[-41.069653,-12.90707],[-41.069354,-12.907367],[-41.068987,-12.907642],[-41.068087,-12.908404],[-41.067535,-12.90884],[-41.067329,-12.909023],[-41.067076,-12.909206],[-41.066799,-12.909277],[-41.066614,-12.909256],[-41.066427,-12.909029],[-41.066603,-12.908854],[-41.067163,-12.908193],[-41.067958,-12.907107],[-41.068396,-12.906429],[-41.068654,-12.905933],[-41.068979,-12.905122],[-41.069045,-12.904678],[-41.069059,-12.904613],[-41.069247,-12.903738],[-41.069379,-12.902972],[-41.069427,-12.902383]]]]}},
{"type":"Feature","properties":{"nome":null,"periodicid":null},"geometry":{"type":"MultiPolygon","coordinates":[[[[-41.099932,-12.896207],[-41.100419,-12.896186],[-41.100846,-12.896208],[-41.10102,-12.89624],[-41.099271,-12.898453],[-41.097951,-12.899549],[-41.096471,-12.901352],[-41.094143,-12.901099],[-41.091691,-12.899437],[-41.091294,-12.898899],[-41.091542,-12.898991],[-41.09242,-12.899232],[-41.092726,-12.899315],[-41.092865,-12.899339],[-41.093005,-12.899347],[-41.093205,-12.899353],[-41.093405,-12.899352],[-41.093788,-12.899331],[-41.094075,-12.899304],[-41.094414,-12.899224],[-41.094874,-12.899118],[-41.096494,-12.898193],[-41.097834,-12.897256],[-41.098474,-12.896772],[-41.099063,-12.896427],[-41.099393,-12.896305],[-41.099644,-12.896243],[-41.099932,-12.896207]]]]}},
{"type":"Feature","properties":{"nome":null,"periodicid":null},"geometry":{"type":"MultiPolygon","coordinates":[[[[-41.079556,-12.893285],[-41.080548,-12.893277],[-41.081333,-12.893492],[-41.081324,-12.893706],[-41.081272,-12.893894],[-41.081199,-12.894073],[-41.081127,-12.894324],[-41.081045,-12.894638],[-41.080961,-12.894921],[-41.080921,-12.89513],[-41.080879,-12.89535],[-41.080828,-12.895602],[-41.080787,-12.895738],[-41.080755,-12.895853],[-41.080703,-12.896],[-41.080587,-12.896116],[-41.080374,-12.896211],[-41.08015,-12.896213],[-41.07999,-12.896141],[-41.079764,-12.895976],[-41.079582,-12.895768],[-41.079494,-12.895487],[-41.079438,-12.895174],[-41.079457,-12.894881],[-41.079496,-12.894556],[-41.079492,-12.894075],[-41.079437,-12.893741],[-41.079328,-12.893502],[-41.079228,-12.893343],[-41.079556,-12.893285]]]]}},
{"type":"Feature","properties":{"nome":null,"periodicid":null},"geometry":{"type":"MultiPolygon","coordinates":[[[[-41.094581,-12.887202],[-41.096009,-12.885779],[-41.097781,-12.885819],[-41.0989,-12.887222],[-41.100586,-12.890085],[-41.102591,-12.89148],[-41.103378,-12.89283],[-41.102724,-12.894084],[-41.101427,-12.895725],[-41.101146,-12.895662],[-41.099909,-12.895475],[-41.099382,-12.895496],[-41.098788,-12.895667],[-41.097198,-12.896512],[-41.095813,-12.89754],[-41.094391,-12.898251],[-41.092795,-12.89838],[-41.091842,-12.898254],[-41.091347,-12.898042],[-41.090824,-12.897826],[-41.090265,-12.897509],[-41.087659,-12.893987],[-41.089874,-12.893861],[-41.091769,-12.895366],[-41.094428,-12.895507],[-41.093973,-12.894099],[-41.093952,-12.891549],[-41.093817,-12.888565],[-41.094581,-12.887202]]]]}},
{"type":"Feature","properties":{"nome":null,"periodicid":null},"geometry":{"type":"MultiPolygon","coordinates":[[[[-41.106582,-12.859559],[-41.106892,-12.858994],[-41.107379,-12.862684],[-41.106491,-12.865785],[-41.105585,-12.866769],[-41.103203,-12.870127],[-41.102751,-12.870577],[-41.10282,-12.870266],[-41.103291,-12.869206],[-41.103906,-12.86765],[-41.104101,-12.867128],[-41.104247,-12.866812],[-41.104948,-12.865162],[-41.105108,-12.864513],[-41.105446,-12.863299],[-41.105821,-12.862241],[-41.106066,-12.861334],[-41.106421,-12.860054],[-41.106582,-12.859559]]]]}},
{"type":"Feature","properties":{"nome":null,"periodicid":null},"geometry":{"type":"MultiPolygon","coordinates":[[[[-41.105783,-12.85558],[-41.106485,-12.855488],[-41.10667,-12.857315],[-41.106731,-12.857782],[-41.106297,-12.85835],[-41.105645,-12.859738],[-41.105429,-12.860339],[-41.105297,-12.860773],[-41.104883,-12.862541],[-41.104337,-12.86431],[-41.103572,-12.866349],[-41.103003,-12.867469],[-41.102522,-12.868989],[-41.102357,-12.869423],[-41.102108,-12.870241],[-41.101862,-12.871293],[-41.101855,-12.871471],[-41.100897,-12.872425],[-41.099396,-12.871787],[-41.101505,-12.865662],[-41.102473,-12.862153],[-41.104027,-12.859209],[-41.105089,-12.857083],[-41.105783,-12.85558]]]]}},
{"type":"Feature","properties":{"nome":null,"periodicid":null},"geometry":{"type":"MultiPolygon","coordinates":[[[[-41.332161,-12.736722],[-41.332823,-12.736587],[-41.333957,-12.73841],[-41.334244,-12.739099],[-41.334821,-12.740786],[-41.334393,-12.742088],[-41.333806,-12.74293],[-41.333532,-12.743463],[-41.332719,-12.744323],[-41.331116,-12.744819],[-41.329449,-12.744826],[-41.32849,-12.744071],[-41.328048,-12.743624],[-41.32755,-12.742519],[-41.327353,-12.742103],[-41.327278,-12.740955],[-41.327272,-12.740865],[-41.328329,-12.739827],[-41.329456,-12.738996],[-41.330516,-12.738296],[-41.331296,-12.737678],[-41.332161,-12.736722]]]]}},
{"type":"Feature","properties":{"nome":null,"periodicid":null},"geometry":{"type":"MultiPolygon","coordinates":[[[[-41.333451,-12.699829],[-41.335261,-12.698459],[-41.336752,-12.6985],[-41.338647,-12.700487],[-41.339274,-12.702647],[-41.341646,-12.706161],[-41.341938,-12.706593],[-41.342123,-12.706867],[-41.342148,-12.709574],[-41.336854,-12.710325],[-41.332544,-12.709984],[-41.328047,-12.706591],[-41.332741,-12.706658],[-41.334385,-12.70529],[-41.334043,-12.70421],[-41.333466,-12.701453],[-41.333451,-12.699829]]]]}}
]
}
